Venue Name,Venue Physical Address,Region,Country,Full Address,Latitude,Longitude
CROWDED HOUSE BAR & CAFE,"93-99 DEVON STREET EAST
NEW PLYMOUTH CENTRAL
NEW PLYMOUTH 4310",Taranaki,New Zealand,"CROWDED HOUSE BAR & CAFE 93-99 DEVON STREET EAST
NEW PLYMOUTH CENTRAL
NEW PLYMOUTH 4310 Taranaki New Zealand ",-39.0566987,174.0771006
NAG N NOGGIN,"57 TUKAPA STREET
NEW PLYMOUTH CENTRAL
NEW PLYMOUTH 4310",Taranaki,New Zealand,"NAG N NOGGIN 57 TUKAPA STREET
NEW PLYMOUTH CENTRAL
NEW PLYMOUTH 4310 Taranaki New Zealand ",-39.0716667,174.0622222
THE HAIRY DOG,"33 RATA STREET
INGLEWOOD
TARANAKI 4651",Taranaki,New Zealand,"THE HAIRY DOG 33 RATA STREET
INGLEWOOD
TARANAKI 4651 Taranaki New Zealand ",-39.156002,174.2062988
THE SALTY DOG CAFE & BAR,"493-497 ST AUBYN STREET
NEW PLYMOUTH CENTRAL
NEW PLYMOUTH 4310",Taranaki,New Zealand,"THE SALTY DOG CAFE & BAR 493-497 ST AUBYN STREET
NEW PLYMOUTH CENTRAL
NEW PLYMOUTH 4310 Taranaki New Zealand ",-39.0632192,174.0457249
THE FITZ,"601 DEVON STREET EAST
NEW PLYMOUTH CENTRAL
NEW PLYMOUTH 4310",Taranaki,New Zealand,"THE FITZ 601 DEVON STREET EAST
NEW PLYMOUTH CENTRAL
NEW PLYMOUTH 4310 Taranaki New Zealand ",-39.0505714,174.1048449
ICON'S STADIUM BAR,"CORNER BROUGHAM AND ARIKI STREETS
NEW PLYMOUTH CENTRAL
NEW PLYMOUTH 4310",Taranaki,New Zealand,"ICON'S STADIUM BAR CORNER BROUGHAM AND ARIKI STREETS
NEW PLYMOUTH CENTRAL
NEW PLYMOUTH 4310 Taranaki New Zealand ",-39.0575023,174.072751
TREEHOUSE BAR & BISTRO,"463-471 DEVON STREET WEST
NEW PLYMOUTH CENTRAL
NEW PLYMOUTH 4310",Taranaki,New Zealand,"TREEHOUSE BAR & BISTRO 463-471 DEVON STREET WEST
NEW PLYMOUTH CENTRAL
NEW PLYMOUTH 4310 Taranaki New Zealand ",-39.065927,174.0482371
SHIFTY'S SPORTS BAR & TAB,"2 NUGENT STREET
BELL BLOCK
NEW PLYMOUTH 4601",Taranaki,New Zealand,"SHIFTY'S SPORTS BAR & TAB 2 NUGENT STREET
BELL BLOCK
NEW PLYMOUTH 4601 Taranaki New Zealand ",-39.0355556,174.1422222
STUMBLE INN & CAFE,"198 MANGOREI ROAD
NEW PLYMOUTH CENTRAL
NEW PLYMOUTH 4310",Taranaki,New Zealand,"STUMBLE INN & CAFE 198 MANGOREI ROAD
NEW PLYMOUTH CENTRAL
NEW PLYMOUTH 4310 Taranaki New Zealand ",-39.0663889,174.1027778
Westside Grille,"41 TUKAPA STREET
WESTOWN
NEW PLYMOUTH 4601",Taranaki,New Zealand,"Westside Grille 41 TUKAPA STREET
WESTOWN
NEW PLYMOUTH 4601 Taranaki New Zealand ",-39.0707125,174.0629466
SPORTY'S CAFE/BAR,"50 SACKVILLE STREET
FITZROY
NEW PLYMOUTH 4601",Taranaki,New Zealand,"SPORTY'S CAFE/BAR 50 SACKVILLE STREET
FITZROY
NEW PLYMOUTH 4601 Taranaki New Zealand ",-39.0488649,174.1018016
TAB FITZROY,"545 DEVON STREET EAST
FITZROY
NEW PLYMOUTH 4601",Taranaki,New Zealand,"TAB FITZROY 545 DEVON STREET EAST
FITZROY
NEW PLYMOUTH 4601 Taranaki New Zealand ",-39.0493469,174.1014876
TAB New Plymouth,"10/4 Egmont Street
NEW PLYMOUTH CENTRAL
NEW PLYMOUTH 4310
NEW ZEALAND",Taranaki,New Zealand,"TAB New Plymouth 10/4 Egmont Street
NEW PLYMOUTH CENTRAL
NEW PLYMOUTH 4310
NEW ZEALAND Taranaki New Zealand ",-39.0570185,174.0700053
CINEMA EXPRESS CAFE AND BAR,"125 DEVON STREET
NEW PLYMOUTH CENTRAL
NEW PLYMOUTH 4310",Taranaki,New Zealand,"CINEMA EXPRESS CAFE AND BAR 125 DEVON STREET
NEW PLYMOUTH CENTRAL
NEW PLYMOUTH 4310 Taranaki New Zealand ",-39.0564102,174.0778888
THE MASONIC HOTEL,"9 MCLEAN STREET
WAITARA
TARANAKI 4320",Taranaki,New Zealand,"THE MASONIC HOTEL 9 MCLEAN STREET
WAITARA
TARANAKI 4320 Taranaki New Zealand ",-39.0011111,174.2383333
Bridge Cafe & Bar,"MCLEAN STREET
WAITARA
TARANAKI 4320",Taranaki,New Zealand,"Bridge Cafe & Bar MCLEAN STREET
WAITARA
TARANAKI 4320 Taranaki New Zealand ",-39.0008538,174.2388355
PEGGY GORDONS,"58 EGMONT STREET
NEW PLYMOUTH CENTRAL
NEW PLYMOUTH 4310",Taranaki,New Zealand,"PEGGY GORDONS 58 EGMONT STREET
NEW PLYMOUTH CENTRAL
NEW PLYMOUTH 4310 Taranaki New Zealand ",-39.0584039,174.0715897
URENUI BAY HOTEL,"14 WHAKAPAKI STREET
URENUI
TARANAKI 4655",Taranaki,New Zealand,"URENUI BAY HOTEL 14 WHAKAPAKI STREET
URENUI
TARANAKI 4655 Taranaki New Zealand ",-38.9972662,174.3892929
WAITARA DISTRICT SERVICES AND CITIZENS CLUB,"38 QUEEN STREET
WAITARA
TARANAKI 4320",Taranaki,New Zealand,"WAITARA DISTRICT SERVICES AND CITIZENS CLUB 38 QUEEN STREET
WAITARA
TARANAKI 4320 Taranaki New Zealand ",-39.0019678,174.2382297
WAITARA TOWN & COUNTRY CLUB,"WEST QUAY
WAITARA
TARANAKI 4320",Taranaki,New Zealand,"WAITARA TOWN & COUNTRY CLUB WEST QUAY
WAITARA
TARANAKI 4320 Taranaki New Zealand ",-38.9999009,174.2378381
OPOTIKI COUNTY RETURNED SERVICES ASSOCIATION,"103-105 ST JOHN STREET
OPOTIKI
OPOTIKI DISTRICT 3122
NEW ZEALAND",Bay of Plenty,New Zealand,"OPOTIKI COUNTY RETURNED SERVICES ASSOCIATION 103-105 ST JOHN STREET
OPOTIKI
OPOTIKI DISTRICT 3122
NEW ZEALAND Bay of Plenty New Zealand ",-38.0055484,177.2867383
OPOTIKI HOTEL,"CORNER CHURCH AND KELLY STREET
OPOTIKI
OPOTIKI DISTRICT 3092",Bay of Plenty,New Zealand,"OPOTIKI HOTEL CORNER CHURCH AND KELLY STREET
OPOTIKI
OPOTIKI DISTRICT 3092 Bay of Plenty New Zealand ",-38.0031061,177.2845502
SLIM'S BAR,"17 ELLIOT STREET
OPOTIKI
OPOTIKI DISTRICT 3092",Bay of Plenty,New Zealand,"SLIM'S BAR 17 ELLIOT STREET
OPOTIKI
OPOTIKI DISTRICT 3092 Bay of Plenty New Zealand ",-38.004047,177.2855932
MASONIC HOTEL,"CORNER CHURCH AND ELLIOT STREETS
OPOTIKI
OPOTIKI DISTRICT 3092",Bay of Plenty,New Zealand,"MASONIC HOTEL CORNER CHURCH AND ELLIOT STREETS
OPOTIKI
OPOTIKI DISTRICT 3092 Bay of Plenty New Zealand ",-38.0040534,177.2843657
OTOROHANGA WORKINGMEN'S CLUB,"107 MANIAPOTO STREET
OTOROHANGA
WAIKATO 3900",Waikato,New Zealand,"OTOROHANGA WORKINGMEN'S CLUB 107 MANIAPOTO STREET
OTOROHANGA
WAIKATO 3900 Waikato New Zealand ",-38.1882291,175.2104339
KAWHIA HOTEL,"811 & 849 POWEWE STREET
KAWHIA
WAIKATO 3889",Waikato,New Zealand,"KAWHIA HOTEL 811 & 849 POWEWE STREET
KAWHIA
WAIKATO 3889 Waikato New Zealand ",-38.0635,174.8221097
ASHHURST MEMORIAL RSA,"74 CAMBRIDGE AVENUE
ASHHURST
MANAWATU 4847
NEW ZEALAND",Manawatu-Wanganui,New Zealand,"ASHHURST MEMORIAL RSA 74 CAMBRIDGE AVENUE
ASHHURST
MANAWATU 4847
NEW ZEALAND Manawatu-Wanganui New Zealand ",-40.2916667,175.7547222
THE COBB,"522-532 MAIN STREET EAST
PALMERSTON NORTH CENTRAL
PALMERSTON NORTH 5301",Manawatu-Wanganui,New Zealand,"THE COBB 522-532 MAIN STREET EAST
PALMERSTON NORTH CENTRAL
PALMERSTON NORTH 5301 Manawatu-Wanganui New Zealand ",-40.3547222,175.6155556
Trader McKendrys,"38-40 FITZHERBERT AVENUE
PALMERSTON NORTH CENTRAL
PALMERSTON NORTH 5301",Manawatu-Wanganui,New Zealand,"Trader McKendrys 38-40 FITZHERBERT AVENUE
PALMERSTON NORTH CENTRAL
PALMERSTON NORTH 5301 Manawatu-Wanganui New Zealand ",-40.3581298,175.612414
The Daily,"511 MAIN STREET
PALMERSTON NORTH CENTRAL
PALMERSTON NORTH 5301
NEW ZEALAND",Manawatu-Wanganui,New Zealand,"The Daily 511 MAIN STREET
PALMERSTON NORTH CENTRAL
PALMERSTON NORTH 5301
NEW ZEALAND Manawatu-Wanganui New Zealand ",-40.3545029,175.6141924
MANAWATU DARTS ASSOCIATION HALL,"324 TREMAINE AVENUE
PALMERSTON NORTH CENTRAL
PALMERSTON NORTH 4412
NEW ZEALAND",Manawatu-Wanganui,New Zealand,"MANAWATU DARTS ASSOCIATION HALL 324 TREMAINE AVENUE
PALMERSTON NORTH CENTRAL
PALMERSTON NORTH 4412
NEW ZEALAND Manawatu-Wanganui New Zealand ",-40.3501617,175.5885615
ALBERT SPORTS BAR,"692-700 MAIN STREET EAST
PALMERSTON NORTH CENTRAL
PALMERSTON NORTH 5301",Manawatu-Wanganui,New Zealand,"ALBERT SPORTS BAR 692-700 MAIN STREET EAST
PALMERSTON NORTH CENTRAL
PALMERSTON NORTH 5301 Manawatu-Wanganui New Zealand ",-40.350792,175.6249879
BUNNYTHORPE TAVERN,"CORNER DIXONS LINE AND CAMPBELL ROAD
BUNNYTHORPE
MANAWATU 5453",Manawatu-Wanganui,New Zealand,"BUNNYTHORPE TAVERN CORNER DIXONS LINE AND CAMPBELL ROAD
BUNNYTHORPE
MANAWATU 5453 Manawatu-Wanganui New Zealand ",-40.2817329,175.6303636
THE BIRDCAGE BAR,"61 VOGEL STREET
PALMERSTON NORTH CENTRAL
PALMERSTON NORTH 5301",Manawatu-Wanganui,New Zealand,"THE BIRDCAGE BAR 61 VOGEL STREET
PALMERSTON NORTH CENTRAL
PALMERSTON NORTH 5301 Manawatu-Wanganui New Zealand ",-40.3317842,175.6313442
PALMERSTON NORTH COSMOPOLITAN CLUB,"22 LINTON STREET
PALMERSTON NORTH CENTRAL
PALMERSTON NORTH 4410
NEW ZEALAND",Manawatu-Wanganui,New Zealand,"PALMERSTON NORTH COSMOPOLITAN CLUB 22 LINTON STREET
PALMERSTON NORTH CENTRAL
PALMERSTON NORTH 4410
NEW ZEALAND Manawatu-Wanganui New Zealand ",-40.359531,175.609698
WILLOW PARK TAVERN,"820 TREMAINE AVENUE
PALMERSTON NORTH CENTRAL
PALMERSTON NORTH 5301",Manawatu-Wanganui,New Zealand,"WILLOW PARK TAVERN 820 TREMAINE AVENUE
PALMERSTON NORTH CENTRAL
PALMERSTON NORTH 5301 Manawatu-Wanganui New Zealand ",-40.3349594,175.6214426
THE STUNNED MULLET,"1 THE SQUARE
PALMERSTON NORTH CENTRAL
PALMERSTON NORTH 5301",Manawatu-Wanganui,New Zealand,"THE STUNNED MULLET 1 THE SQUARE
PALMERSTON NORTH CENTRAL
PALMERSTON NORTH 5301 Manawatu-Wanganui New Zealand ",-40.355886,175.60931
CLOVERLEA NEIGHBOURHOOD TAVERN,"301 TREMAINE AVENUE
PALMERSTON NORTH CENTRAL
PALMERSTON NORTH 5301",Manawatu-Wanganui,New Zealand,"CLOVERLEA NEIGHBOURHOOD TAVERN 301 TREMAINE AVENUE
PALMERSTON NORTH CENTRAL
PALMERSTON NORTH 5301 Manawatu-Wanganui New Zealand ",-40.3512383,175.5836792
MASONIC HOTEL,"249 MAIN STREET
PALMERSTON NORTH CENTRAL
PALMERSTON NORTH 4410
NEW ZEALAND",Manawatu-Wanganui,New Zealand,"MASONIC HOTEL 249 MAIN STREET
PALMERSTON NORTH CENTRAL
PALMERSTON NORTH 4410
NEW ZEALAND Manawatu-Wanganui New Zealand ",-40.3590067,175.6044216
THE ROYAL HOTEL,"44-54 RANGITIKEI STREET
PALMERSTON NORTH CENTRAL
PALMERSTON NORTH 5301",Manawatu-Wanganui,New Zealand,"THE ROYAL HOTEL 44-54 RANGITIKEI STREET
PALMERSTON NORTH CENTRAL
PALMERSTON NORTH 5301 Manawatu-Wanganui New Zealand ",-40.35409,175.609864
Sportsman's Bar,"217-223 FEATHERSTON STREET
PALMERSTON NORTH CENTRAL
PALMERSTON NORTH 5301",Manawatu-Wanganui,New Zealand,"Sportsman's Bar 217-223 FEATHERSTON STREET
PALMERSTON NORTH CENTRAL
PALMERSTON NORTH 5301 Manawatu-Wanganui New Zealand ",-40.356708,175.621098
TAB Palmerston North,"28-32 Fitzherbert Avenue 
PALMERSTON NORTH CENTRAL
PALMERSTON NORTH 4410
NEW ZEALAND",Manawatu-Wanganui,New Zealand,"TAB Palmerston North 28-32 Fitzherbert Avenue 
PALMERSTON NORTH CENTRAL
PALMERSTON NORTH 4410
NEW ZEALAND Manawatu-Wanganui New Zealand ",-40.3580865,175.6123909
THE OFFICE,"514-516 MAIN STREET EAST
PALMERSTON NORTH CENTRAL
PALMERSTON NORTH 5301",Manawatu-Wanganui,New Zealand,"THE OFFICE 514-516 MAIN STREET EAST
PALMERSTON NORTH CENTRAL
PALMERSTON NORTH 5301 Manawatu-Wanganui New Zealand ",-40.3546164,175.6145183
Railway Hotel and Legends Bar,"271-275 MAIN STREET WEST
PALMERSTON NORTH CENTRAL
PALMERSTON NORTH 5301",Manawatu-Wanganui,New Zealand,"Railway Hotel and Legends Bar 271-275 MAIN STREET WEST
PALMERSTON NORTH CENTRAL
PALMERSTON NORTH 5301 Manawatu-Wanganui New Zealand ",-40.3587396,175.6055181
ROSIE O'GRADYS PALMERSTON NORTH,"96-100 FITZHERBERT AVENUE
PALMERSTON NORTH CENTRAL
PALMERSTON NORTH 5301",Manawatu-Wanganui,New Zealand,"ROSIE O'GRADYS PALMERSTON NORTH 96-100 FITZHERBERT AVENUE
PALMERSTON NORTH CENTRAL
PALMERSTON NORTH 5301 Manawatu-Wanganui New Zealand ",-40.359385,175.613242
The Workshop,"171 FAIRS ROAD
PALMERSTON NORTH CENTRAL
PALMERSTON NORTH 5301",Manawatu-Wanganui,New Zealand,"The Workshop 171 FAIRS ROAD
PALMERSTON NORTH CENTRAL
PALMERSTON NORTH 5301 Manawatu-Wanganui New Zealand ",-40.3381853,175.5992097
Milanos Pizza & Grill,"503 MAIN STREET EAST
PALMERSTON NORTH CENTRAL
PALMERSTON NORTH 5301",Manawatu-Wanganui,New Zealand,"Milanos Pizza & Grill 503 MAIN STREET EAST
PALMERSTON NORTH CENTRAL
PALMERSTON NORTH 5301 Manawatu-Wanganui New Zealand ",-40.354704,175.613821
Metro Bar,"5 LYDNEY PLACE
PORIRUA
WELLINGTON 6006",Wellington,New Zealand,"Metro Bar 5 LYDNEY PLACE
PORIRUA
WELLINGTON 6006 Wellington New Zealand ",-41.1353481,174.8417908
The Co-Op Kitchen & Bar,"69A Discovery Drive
PORIRUA
WELLINGTON 5024
NEW ZEALAND",Wellington,New Zealand,"The Co-Op Kitchen & Bar 69A Discovery Drive
PORIRUA
WELLINGTON 5024
NEW ZEALAND Wellington New Zealand ",-41.1173658,174.8928658
North City Tenpin,"35 KENEPURU DRIVE
PORIRUA
WELLINGTON 6006",Wellington,New Zealand,"North City Tenpin 35 KENEPURU DRIVE
PORIRUA
WELLINGTON 6006 Wellington New Zealand ",-41.1476405,174.8417065
SANDBAR PUB,"103 MANA ESPLANADE
MANA-CAMBORNE
PORIRUA 6006",Wellington,New Zealand,"SANDBAR PUB 103 MANA ESPLANADE
MANA-CAMBORNE
PORIRUA 6006 Wellington New Zealand ",-41.0920156,174.8678596
THE MARINER,"19 WHITEHOUSE ROAD
TITAHI BAY
PORIRUA 6006",Wellington,New Zealand,"THE MARINER 19 WHITEHOUSE ROAD
TITAHI BAY
PORIRUA 6006 Wellington New Zealand ",-41.1087231,174.8377757
Blend N Brew Bar,"SHOP 2 10 COBHAM COURT
PORIRUA
WELLINGTON 6006",Wellington,New Zealand,"Blend N Brew Bar SHOP 2 10 COBHAM COURT
PORIRUA
WELLINGTON 6006 Wellington New Zealand ",-41.1352972,174.84048
PORIRUA CLUB,"LODGE PLACE
PORIRUA
WELLINGTON 6006",Wellington,New Zealand,"PORIRUA CLUB LODGE PLACE
PORIRUA
WELLINGTON 6006 Wellington New Zealand ",-41.1363783,174.8397205
PORIRUA RETURNED SERVICES ASSOCIATION INC,"5 MCKILLOP STREET
PORIRUA
WELLINGTON 5024
NEW ZEALAND",Wellington,New Zealand,"PORIRUA RETURNED SERVICES ASSOCIATION INC 5 MCKILLOP STREET
PORIRUA
WELLINGTON 5024
NEW ZEALAND Wellington New Zealand ",-41.1377621,174.8487713
TAB PORIRUA,"2 SERLBY PLACE
PORIRUA
WELLINGTON 6006",Wellington,New Zealand,"TAB PORIRUA 2 SERLBY PLACE
PORIRUA
WELLINGTON 6006 Wellington New Zealand ",-41.1344892,174.8405407
TITAHI BAY BOWLING CLUB,"13A TIRETI ROAD
TITAHI BAY
PORIRUA 6006",Wellington,New Zealand,"TITAHI BAY BOWLING CLUB 13A TIRETI ROAD
TITAHI BAY
PORIRUA 6006 Wellington New Zealand ",-41.1076078,174.8379611
THE LEDGE,"1 Serlby Place
PORIRUA
WELLINGTON 5022
NEW ZEALAND",Wellington,New Zealand,"THE LEDGE 1 Serlby Place
PORIRUA
WELLINGTON 5022
NEW ZEALAND Wellington New Zealand ",-41.1342983,174.8405756
WATER BAR,"145 ARDMORE STREET
WANAKA
OTAGO 9305",Otago,New Zealand,"WATER BAR 145 ARDMORE STREET
WANAKA
OTAGO 9305 Otago New Zealand ",-44.6956664,169.1339175
NEW ORLEANS HOTEL,"27 BUCKINGHAM STREET
ARROWTOWN
OTAGO 9196",Otago,New Zealand,"NEW ORLEANS HOTEL 27 BUCKINGHAM STREET
ARROWTOWN
OTAGO 9196 Otago New Zealand ",-44.9383741,168.8316881
PUB ON WHARF,"STEAMER WHARF 88 BEACH STREET
QUEENSTOWN
OTAGO 9197",Otago,New Zealand,"PUB ON WHARF STEAMER WHARF 88 BEACH STREET
QUEENSTOWN
OTAGO 9197 Otago New Zealand ",-45.0330896,168.65787
WANAKA BULLOCK BAR,"71 ARDMORE STREET
WANAKA
OTAGO 9305",Otago,New Zealand,"WANAKA BULLOCK BAR 71 ARDMORE STREET
WANAKA
OTAGO 9305 Otago New Zealand ",-44.6942414,169.1374951
FITZPATRICK'S IRISH PUB,"59 BROWNSTON STREET
WANAKA
OTAGO 9305",Otago,New Zealand,"FITZPATRICK'S IRISH PUB 59 BROWNSTON STREET
WANAKA
OTAGO 9305 Otago New Zealand ",-44.6965904,169.1362762
FRANKTON ARM TAVERN,"14 YEWLETT CRESCENT
QUEENSTOWN
OTAGO 9197",Otago,New Zealand,"FRANKTON ARM TAVERN 14 YEWLETT CRESCENT
QUEENSTOWN
OTAGO 9197 Otago New Zealand ",-45.0176506,168.7275848
Rangitikei Tavern,"148 BRIDGE STREET BULLS
BULLS
MANAWATU 4818
NEW ZEALAND",Manawatu-Wanganui,New Zealand,"Rangitikei Tavern 148 BRIDGE STREET BULLS
BULLS
MANAWATU 4818
NEW ZEALAND Manawatu-Wanganui New Zealand ",-40.1743707,175.3849985
CAPTAIN COOK'S BAR & CAFE,"301 BROADWAY
MARTON
MANAWATU 5460",Manawatu-Wanganui,New Zealand,"CAPTAIN COOK'S BAR & CAFE 301 BROADWAY
MARTON
MANAWATU 5460 Manawatu-Wanganui New Zealand ",-40.0685731,175.3786884
GRETNA HOTEL,"HAUTAPU STREET
TAIHAPE
MANAWATU 5457",Manawatu-Wanganui,New Zealand,"GRETNA HOTEL HAUTAPU STREET
TAIHAPE
MANAWATU 5457 Manawatu-Wanganui New Zealand ",-39.6758333,175.7983333
STATION HOTEL,"22-24 HIGH STREET
HUNTERVILLE
MANAWATU 5455",Manawatu-Wanganui,New Zealand,"STATION HOTEL 22-24 HIGH STREET
HUNTERVILLE
MANAWATU 5455 Manawatu-Wanganui New Zealand ",-39.9371883,175.5717687
CLUB HOTEL MARTON,"17 HIGH STREET
MARTON
MANAWATU 5460",Manawatu-Wanganui,New Zealand,"CLUB HOTEL MARTON 17 HIGH STREET
MARTON
MANAWATU 5460 Manawatu-Wanganui New Zealand ",-40.068926,175.3771646
Crates n Cues Bar,"1237 PUKUATUA STREET
ROTORUA CENTRAL
ROTORUA 3201",Bay of Plenty,New Zealand,"Crates n Cues Bar 1237 PUKUATUA STREET
ROTORUA CENTRAL
ROTORUA 3201 Bay of Plenty New Zealand ",-38.1366116,176.2494458
VC'S TURF BAR,"1184 ARAWA STREET
ROTORUA CENTRAL
ROTORUA 3201",Bay of Plenty,New Zealand,"VC'S TURF BAR 1184 ARAWA STREET
ROTORUA CENTRAL
ROTORUA 3201 Bay of Plenty New Zealand ",-38.1347355,176.2522066
THE SIDEPOCKET BAR,"1129 HINEMOA STREET
ROTORUA CENTRAL
ROTORUA 3201",Bay of Plenty,New Zealand,"THE SIDEPOCKET BAR 1129 HINEMOA STREET
ROTORUA CENTRAL
ROTORUA 3201 Bay of Plenty New Zealand ",-38.1373964,176.2528241
H2O Gaming & Sports Bar,"318 MALFROY ROAD
HILLCREST
ROTORUA DISTRICT 3201",Bay of Plenty,New Zealand,"H2O Gaming & Sports Bar 318 MALFROY ROAD
HILLCREST
ROTORUA DISTRICT 3201 Bay of Plenty New Zealand ",-38.1446128,176.2376737
MO'S BAR,"1142-1144 TUTANEKAI STREET
ROTORUA CENTRAL
ROTORUA 3201",Bay of Plenty,New Zealand,"MO'S BAR 1142-1144 TUTANEKAI STREET
ROTORUA CENTRAL
ROTORUA 3201 Bay of Plenty New Zealand ",-40.3480866,175.6265511
KASPERS SPORTS BAR,"1302 TUTANEKAI STREET
ROTORUA CENTRAL
ROTORUA 3201",Bay of Plenty,New Zealand,"KASPERS SPORTS BAR 1302 TUTANEKAI STREET
ROTORUA CENTRAL
ROTORUA 3201 Bay of Plenty New Zealand ",-41.1087047,174.8399933
HENNESSY'S IRISH BAR,"1208-1210 TUTANEKAI STREET
ROTORUA CENTRAL
ROTORUA 3201",Bay of Plenty,New Zealand,"HENNESSY'S IRISH BAR 1208-1210 TUTANEKAI STREET
ROTORUA CENTRAL
ROTORUA 3201 Bay of Plenty New Zealand ",-45.0303769,168.6600759
RUCK N MAUL,"1279 AMOHIA STREET
ROTORUA CENTRAL
ROTORUA 3201",Bay of Plenty,New Zealand,"RUCK N MAUL 1279 AMOHIA STREET
ROTORUA CENTRAL
ROTORUA 3201 Bay of Plenty New Zealand ",-44.6832272,169.1888976
Four Winds Tavern,"Te Ngae Shopping Centre
Te Ngae Road
ROTORUA CENTRAL
ROTORUA 3010
NEW ZEALAND",Bay of Plenty,New Zealand,"Four Winds Tavern Te Ngae Shopping Centre
Te Ngae Road
ROTORUA CENTRAL
ROTORUA 3010
NEW ZEALAND Bay of Plenty New Zealand ",-38.1393037,176.2534563
WOOLSHED TAVERN,"3820 BROADLANDS ROAD
REPOROA
ROTORUA DISTRICT 3292",Bay of Plenty,New Zealand,"WOOLSHED TAVERN 3820 BROADLANDS ROAD
REPOROA
ROTORUA DISTRICT 3292 Bay of Plenty New Zealand ",-38.14485,176.2371207
VILLAGE SPORTS BAR/CAFE,"262 NGONGOTAHA ROAD
NGONGOTAHA
ROTORUA DISTRICT 3202",Bay of Plenty,New Zealand,"VILLAGE SPORTS BAR/CAFE 262 NGONGOTAHA ROAD
NGONGOTAHA
ROTORUA DISTRICT 3202 Bay of Plenty New Zealand ",-38.1346773,176.2521159
TAB Rotorua,"1156 ERUERA STREET
ROTORUA CENTRAL
ROTORUA 3010
NEW ZEALAND",Bay of Plenty,New Zealand,"TAB Rotorua 1156 ERUERA STREET
ROTORUA CENTRAL
ROTORUA 3010
NEW ZEALAND Bay of Plenty New Zealand ",-38.1349028,176.249092
ROTORUA CITIZENS CLUB,"Corner Arawa & Rangiuru Streets
1146 Rangiuru Street
ROTORUA CENTRAL
ROTORUA 3010
NEW ZEALAND",Bay of Plenty,New Zealand,"ROTORUA CITIZENS CLUB Corner Arawa & Rangiuru Streets
1146 Rangiuru Street
ROTORUA CENTRAL
ROTORUA 3010
NEW ZEALAND Bay of Plenty New Zealand ",-38.1347102,176.2503168
ROTORUA CLUB,"274 FENTON STREET
ROTORUA WEST
ROTORUA 3201",Bay of Plenty,New Zealand,"ROTORUA CLUB 274 FENTON STREET
ROTORUA WEST
ROTORUA 3201 Bay of Plenty New Zealand ",-38.1493958,176.256244
ROTORUA COMMERCIAL TRAVELLERS ASSOCIATION INCORPORATED,"MONCUR DRIVE
TIHIOTONGA
ROTORUA 3201",Bay of Plenty,New Zealand,"ROTORUA COMMERCIAL TRAVELLERS ASSOCIATION INCORPORATED MONCUR DRIVE
TIHIOTONGA
ROTORUA 3201 Bay of Plenty New Zealand ",-38.1642679,176.2398581
Copthorne Hotel Rotorua,"CORNER FENTON STREET AND WARD AVENUE
FENTON PARK
ROTORUA 3010",Bay of Plenty,New Zealand,"Copthorne Hotel Rotorua CORNER FENTON STREET AND WARD AVENUE
FENTON PARK
ROTORUA 3010 Bay of Plenty New Zealand ",-38.1543291,176.2547468
MITCHELL DOWNS TAVERN,"12 GOLDIE STREET
PUKEHANGI
ROTORUA DISTRICT 3201",Bay of Plenty,New Zealand,"MITCHELL DOWNS TAVERN 12 GOLDIE STREET
PUKEHANGI
ROTORUA DISTRICT 3201 Bay of Plenty New Zealand ",-38.1380719,176.2060651
Selwyn Tavern,"14-16 KOKAKO STREET
SELWYN HEIGHTS
ROTORUA DISTRICT 3201",Bay of Plenty,New Zealand,"Selwyn Tavern 14-16 KOKAKO STREET
SELWYN HEIGHTS
ROTORUA DISTRICT 3201 Bay of Plenty New Zealand ",-38.1174597,176.2228338
Vault Bar,"1122 HINEMOA STREET
ROTORUA CENTRAL
ROTORUA 3201",Bay of Plenty,New Zealand,"Vault Bar 1122 HINEMOA STREET
ROTORUA CENTRAL
ROTORUA 3201 Bay of Plenty New Zealand ",-38.1381317,176.2530103
BROOKLAND GLASSY JUNCTION,"SHOPS 5-6 2 BROOKLAND ROAD
MANGAKAKAHI
ROTORUA DISTRICT 3201",Bay of Plenty,New Zealand,"BROOKLAND GLASSY JUNCTION SHOPS 5-6 2 BROOKLAND ROAD
MANGAKAKAHI
ROTORUA DISTRICT 3201 Bay of Plenty New Zealand ",-38.1292774,176.2196149
WEST END TAVERN,"221-223 OLD TAUPO ROAD
ROTORUA CENTRAL
ROTORUA 3201",Bay of Plenty,New Zealand,"WEST END TAVERN 221-223 OLD TAUPO ROAD
ROTORUA CENTRAL
ROTORUA 3201 Bay of Plenty New Zealand ",-38.14495,176.2376929
OHAKUNE CLUB,"71 GOLDFINCH STREET
OHAKUNE
MANAWATU 5461",Manawatu-Wanganui,New Zealand,"OHAKUNE CLUB 71 GOLDFINCH STREET
OHAKUNE
MANAWATU 5461 Manawatu-Wanganui New Zealand ",-39.4123339,175.4021415
Ohakune Tavern,"66-72 CLYDE STREET
OHAKUNE
MANAWATU 4625
NEW ZEALAND",Manawatu-Wanganui,New Zealand,"Ohakune Tavern 66-72 CLYDE STREET
OHAKUNE
MANAWATU 4625
NEW ZEALAND Manawatu-Wanganui New Zealand ",-39.4186197,175.3993047
OASIS HOTEL (WAIOURU),"HIGHWAY 1
WAIOURU
MANAWATU 5458",Manawatu-Wanganui,New Zealand,"OASIS HOTEL (WAIOURU) HIGHWAY 1
WAIOURU
MANAWATU 5458 Manawatu-Wanganui New Zealand ",-39.4787729,175.6682934
RAETIHI COSMOPOLITAN CLUB INC,"32 SEDDON STREET
RAETIHI
MANAWATU 4632
NEW ZEALAND",Manawatu-Wanganui,New Zealand,"RAETIHI COSMOPOLITAN CLUB INC 32 SEDDON STREET
RAETIHI
MANAWATU 4632
NEW ZEALAND Manawatu-Wanganui New Zealand ",-39.4273134,175.2799108
TAUMARUNUI RSA CLUB,"10 MARAE STREET
TAUMARUNUI CENTRAL
TAUMARUNUI 3946
NEW ZEALAND",Manawatu-Wanganui,New Zealand,"TAUMARUNUI RSA CLUB 10 MARAE STREET
TAUMARUNUI CENTRAL
TAUMARUNUI 3946
NEW ZEALAND Manawatu-Wanganui New Zealand ",-38.885226,175.2615164
TAUMARUNUI COSMOPOLITAN CLUB,"CORNER KATARINA AND MIRIAMA STREETS
TAUMARUNUI CENTRAL
TAUMARUNUI 3920
NEW ZEALAND",Manawatu-Wanganui,New Zealand,"TAUMARUNUI COSMOPOLITAN CLUB CORNER KATARINA AND MIRIAMA STREETS
TAUMARUNUI CENTRAL
TAUMARUNUI 3920
NEW ZEALAND Manawatu-Wanganui New Zealand ",-38.8841885,175.258804
THE ROCK,"82 ROLLESTON DRIVE
ROLLESTON
CANTERBURY 7614
NEW ZEALAND",Canterbury,New Zealand,"THE ROCK 82 ROLLESTON DRIVE
ROLLESTON
CANTERBURY 7614
NEW ZEALAND Canterbury New Zealand ",-43.5963889,172.3841667
SOUTHBRIDGE HOTEL,"HIGH STREET
SOUTHBRIDGE
CANTERBURY 8150",Canterbury,New Zealand,"SOUTHBRIDGE HOTEL HIGH STREET
SOUTHBRIDGE
CANTERBURY 8150 Canterbury New Zealand ",-43.8112539,172.2521324
WEST MELTON TAVERN,"MAIN WEST COAST ROAD
WEST MELTON
CHRISTCHURCH 7676",Canterbury,New Zealand,"WEST MELTON TAVERN MAIN WEST COAST ROAD
WEST MELTON
CHRISTCHURCH 7676 Canterbury New Zealand ",-43.5242277,172.3692623
DUNSANDEL TAVERN,"3374 MAIN SOUTH ROAD
DUNSANDEL
CANTERBURY 8190",Canterbury,New Zealand,"DUNSANDEL TAVERN 3374 MAIN SOUTH ROAD
DUNSANDEL
CANTERBURY 8190 Canterbury New Zealand ",-43.6586449,172.1975665
DARFIELD HOTEL,"37-39 SOUTH TERRACE
DARFIELD
CANTERBURY 7571",Canterbury,New Zealand,"DARFIELD HOTEL 37-39 SOUTH TERRACE
DARFIELD
CANTERBURY 7571 Canterbury New Zealand ",-43.489822,172.110913
PREBBLETON HOTEL,"SPRINGS ROAD
PREBBLETON
CHRISTCHURCH 7604",Canterbury,New Zealand,"PREBBLETON HOTEL SPRINGS ROAD
PREBBLETON
CHRISTCHURCH 7604 Canterbury New Zealand ",-43.5900566,172.512712
SPRINGSTON HOTEL,"156 LEESTON ROAD
SPRINGSTON
CANTERBURY 8150",Canterbury,New Zealand,"SPRINGSTON HOTEL 156 LEESTON ROAD
SPRINGSTON
CANTERBURY 8150 Canterbury New Zealand ",-43.6564953,172.4211134
ROLLY INN,"2 BROOKSIDE ROAD
ROLLESTON
CANTERBURY 8004",Canterbury,New Zealand,"ROLLY INN 2 BROOKSIDE ROAD
ROLLESTON
CANTERBURY 8004 Canterbury New Zealand ",-43.5911884,172.3780272
COALGATE TAVERN,"8-12 BRIDGE STREET
COALGATE
CANTERBURY 8171",Canterbury,New Zealand,"COALGATE TAVERN 8-12 BRIDGE STREET
COALGATE
CANTERBURY 8171 Canterbury New Zealand ",-43.481273,171.950436
THE FAMOUS GROUSE HOTEL,"GERALD STREET
LINCOLN
CANTERBURY 8152",Canterbury,New Zealand,"THE FAMOUS GROUSE HOTEL GERALD STREET
LINCOLN
CANTERBURY 8152 Canterbury New Zealand ",-43.6400722,172.4845501
Crate & Barrell,"3 Market Street
Leeston
SELWYN-RAKAIA
CANTERBURY 7632
NEW ZEALAND",Canterbury,New Zealand,"Crate & Barrell 3 Market Street
Leeston
SELWYN-RAKAIA
CANTERBURY 7632
NEW ZEALAND Canterbury New Zealand ",-43.7631848,172.2947867
Silver Dollar Bar & Restaurant,"869/871 Jones Road
ROLLESTON
CANTERBURY 7677
NEW ZEALAND",Canterbury,New Zealand,"Silver Dollar Bar & Restaurant 869/871 Jones Road
ROLLESTON
CANTERBURY 7677
NEW ZEALAND Canterbury New Zealand ",-43.5895791,172.3756972
Masse Hawera,"PRINCES STREET
HAWERA
TARANAKI 4800",Taranaki,New Zealand,"Masse Hawera PRINCES STREET
HAWERA
TARANAKI 4800 Taranaki New Zealand ",-39.5898619,174.2837207
WHITE HART HOTEL (HAWERA),"82 HIGH STREET
HAWERA
TARANAKI 4800",Taranaki,New Zealand,"WHITE HART HOTEL (HAWERA) 82 HIGH STREET
HAWERA
TARANAKI 4800 Taranaki New Zealand ",-39.5891964,174.2836601
OPUNAKE SURF INN,"28 TASMAN STREET
OPUNAKE
TARANAKI 4854",Taranaki,New Zealand,"OPUNAKE SURF INN 28 TASMAN STREET
OPUNAKE
TARANAKI 4854 Taranaki New Zealand ",-39.4549342,173.8608561
CORONATION HOTEL,"67 BRIDGE STREET
ELTHAM
TARANAKI 4657",Taranaki,New Zealand,"CORONATION HOTEL 67 BRIDGE STREET
ELTHAM
TARANAKI 4657 Taranaki New Zealand ",-39.4305747,174.2979348
CLUB HOTEL,"100 TASMAN STREET
OPUNAKE
TARANAKI 4854",Taranaki,New Zealand,"CLUB HOTEL 100 TASMAN STREET
OPUNAKE
TARANAKI 4854 Taranaki New Zealand ",-39.4542904,173.858278
CLARENDON HOTEL,"83 WERAROA ROAD
WAVERLEY
WANGANUI 5182",Taranaki,New Zealand,"CLARENDON HOTEL 83 WERAROA ROAD
WAVERLEY
WANGANUI 5182 Taranaki New Zealand ",-39.7642062,174.6327866
SOUTH TARANAKI CLUB,"43 CALEDONIA STREET
HAWERA
TARANAKI 4800",Taranaki,New Zealand,"SOUTH TARANAKI CLUB 43 CALEDONIA STREET
HAWERA
TARANAKI 4800 Taranaki New Zealand ",-39.5907907,174.2853814
WAIMATE HOTEL MANAIA,"49 MAIN SOUTH ROAD
MANAIA
TARANAKI 4851",Taranaki,New Zealand,"WAIMATE HOTEL MANAIA 49 MAIN SOUTH ROAD
MANAIA
TARANAKI 4851 Taranaki New Zealand ",-39.5507909,174.1254037
KAPONGA HOTEL,"49 EGMONT STREET
KAPONGA
TARANAKI 4850",Taranaki,New Zealand,"KAPONGA HOTEL 49 EGMONT STREET
KAPONGA
TARANAKI 4850 Taranaki New Zealand ",-39.4291038,174.1491241
H2O TOKOROA,"233 LEITH PLACE
TOKOROA
WAIKATO 3420",Waikato,New Zealand,"H2O TOKOROA 233 LEITH PLACE
TOKOROA
WAIKATO 3420 Waikato New Zealand ",-38.2187607,175.8729165
THE TREES TAVERN,"CORNER BALMORAL DRIVE AND BROWNING STREET
TOKOROA
WAIKATO 3420",Waikato,New Zealand,"THE TREES TAVERN CORNER BALMORAL DRIVE AND BROWNING STREET
TOKOROA
WAIKATO 3420 Waikato New Zealand ",-38.2342791,175.8791111
Retox Sports Bar,"204-206 ROSEBERY STREET
TOKOROA
WAIKATO 3420",Waikato,New Zealand,"Retox Sports Bar 204-206 ROSEBERY STREET
TOKOROA
WAIKATO 3420 Waikato New Zealand ",-38.2184681,175.8717274
PUTARURU DISTRICT SERVICES MEMORIAL CLUB INCORPORATED,"35 BUCKLAND STREET
PUTARURU
WAIKATO 3443
NEW ZEALAND",Waikato,New Zealand,"PUTARURU DISTRICT SERVICES MEMORIAL CLUB INCORPORATED 35 BUCKLAND STREET
PUTARURU
WAIKATO 3443
NEW ZEALAND Waikato New Zealand ",-38.0500345,175.7789276
HOG AND HOUNDS SPORTS BAR,"57-61 TIRAU STREET
PUTARURU
WAIKATO 2371",Waikato,New Zealand,"HOG AND HOUNDS SPORTS BAR 57-61 TIRAU STREET
PUTARURU
WAIKATO 2371 Waikato New Zealand ",-38.0531866,175.7800635
THE OLDE ESTABLISHMENT INCORPORATED,"220-222 MANNERING STREET
TOKOROA
WAIKATO 3420",Waikato,New Zealand,"THE OLDE ESTABLISHMENT INCORPORATED 220-222 MANNERING STREET
TOKOROA
WAIKATO 3420 Waikato New Zealand ",-38.219047,175.8714095
PUTARURU HOTEL,"79 PRINCES STREET
PUTARURU
WAIKATO 2371",Waikato,New Zealand,"PUTARURU HOTEL 79 PRINCES STREET
PUTARURU
WAIKATO 2371 Waikato New Zealand ",-38.0532675,175.7799889
TOKOROA CLUB,"53 CHAMBERS STREET
TOKOROA
WAIKATO 3420
NEW ZEALAND",Waikato,New Zealand,"TOKOROA CLUB 53 CHAMBERS STREET
TOKOROA
WAIKATO 3420
NEW ZEALAND Waikato New Zealand ",-38.2146166,175.867544
TOKOROA COSMOPOLITAN CLUB,"275 BALMORAL DRIVE
TOKOROA
WAIKATO 3420",Waikato,New Zealand,"TOKOROA COSMOPOLITAN CLUB 275 BALMORAL DRIVE
TOKOROA
WAIKATO 3420 Waikato New Zealand ",-38.2329468,175.8537102
TURKEY RED,"53 MAIN STREET
GREYTOWN
SOUTH WAIRARAPA 5953",Wellington,New Zealand,"TURKEY RED 53 MAIN STREET
GREYTOWN
SOUTH WAIRARAPA 5953 Wellington New Zealand ",-41.078167,175.46318
MESSINES BAR & RESTAURANT,"57 FOX STREET
FEATHERSTON
SOUTH WAIRARAPA 5952",Wellington,New Zealand,"MESSINES BAR & RESTAURANT 57 FOX STREET
FEATHERSTON
SOUTH WAIRARAPA 5952 Wellington New Zealand ",-41.1175056,175.3282776
SOUTH WAIRARAPA WORKINGMENS CLUB,"120 MAIN STREET
GREYTOWN
SOUTH WAIRARAPA 5953",Wellington,New Zealand,"SOUTH WAIRARAPA WORKINGMENS CLUB 120 MAIN STREET
GREYTOWN
SOUTH WAIRARAPA 5953 Wellington New Zealand ",-41.0805914,175.4600024
Empire Hotel,"JOHNSTON STREET
FEATHERSTON
SOUTH WAIRARAPA 5952",Wellington,New Zealand,"Empire Hotel JOHNSTON STREET
FEATHERSTON
SOUTH WAIRARAPA 5952 Wellington New Zealand ",-41.1132736,175.3280944
GREYTOWN HOTEL,"33 MAIN STREET
GREYTOWN
SOUTH WAIRARAPA 5953",Wellington,New Zealand,"GREYTOWN HOTEL 33 MAIN STREET
GREYTOWN
SOUTH WAIRARAPA 5953 Wellington New Zealand ",-41.0767982,175.4646759
PUKEMANU TAVERN,"THE SQUARE
MARTINBOROUGH
SOUTH WAIRARAPA 5954",Wellington,New Zealand,"PUKEMANU TAVERN THE SQUARE
MARTINBOROUGH
SOUTH WAIRARAPA 5954 Wellington New Zealand ",-41.2193215,175.4597049
WOODLANDS TAVERN,"3 WYETH ROAD
WOODLANDS
INVERCARGILL 9871",Southland,New Zealand,"WOODLANDS TAVERN 3 WYETH ROAD
WOODLANDS
INVERCARGILL 9871 Southland New Zealand ",-46.3554516,168.5497061
WAIAU HOTEL (TUATAPERE),"47-49 MAIN STREET
TUATAPERE
SOUTHLAND 9655",Southland,New Zealand,"WAIAU HOTEL (TUATAPERE) 47-49 MAIN STREET
TUATAPERE
SOUTHLAND 9655 Southland New Zealand ",-46.1374749,167.6889274
MOOSE TAVERN,"84 LAKEFRONT DRIVE
TE ANAU
SOUTHLAND 9681",Southland,New Zealand,"MOOSE TAVERN 84 LAKEFRONT DRIVE
TE ANAU
SOUTHLAND 9681 Southland New Zealand ",-45.4177932,167.7127685
TE ANAU CLUB,"7 JACKSON STREET
TE ANAU
SOUTHLAND 9681",Southland,New Zealand,"TE ANAU CLUB 7 JACKSON STREET
TE ANAU
SOUTHLAND 9681 Southland New Zealand ",-45.4138298,167.7209014
CENTRAL SOUTHLAND LODGE,"232 GREAT NORTH ROAD
WINTON
SOUTHLAND 9662",Southland,New Zealand,"CENTRAL SOUTHLAND LODGE 232 GREAT NORTH ROAD
WINTON
SOUTHLAND 9662 Southland New Zealand ",-46.1431361,168.3250862
WALLACETOWN TAVERN,"94 DALRY STREET
WALLACETOWN
SOUTHLAND 9502",Southland,New Zealand,"WALLACETOWN TAVERN 94 DALRY STREET
WALLACETOWN
SOUTHLAND 9502 Southland New Zealand ",-46.3305176,168.2930498
RIVERSDALE HOTEL,"74 NEWCASTLE STREET
RIVERSDALE
SOUTHLAND 9754",Southland,New Zealand,"RIVERSDALE HOTEL 74 NEWCASTLE STREET
RIVERSDALE
SOUTHLAND 9754 Southland New Zealand ",-45.901213,168.742378
RANCH CAFE AND BAR,"111 TOWN CENTRE
TE ANAU
SOUTHLAND 9681",Southland,New Zealand,"RANCH CAFE AND BAR 111 TOWN CENTRE
TE ANAU
SOUTHLAND 9681 Southland New Zealand ",-45.4146583,167.7165545
MANAPOURI LAKEVIEW MOTOR INN,"68 CATHEDRAL DRIVE
MANAPOURI
SOUTHLAND 9660",Southland,New Zealand,"MANAPOURI LAKEVIEW MOTOR INN 68 CATHEDRAL DRIVE
MANAPOURI
SOUTHLAND 9660 Southland New Zealand ",-45.5602987,167.618394
OTAUTAU HOTEL,"167 MAIN STREET
OTAUTAU
SOUTHLAND 9653",Southland,New Zealand,"OTAUTAU HOTEL 167 MAIN STREET
OTAUTAU
SOUTHLAND 9653 Southland New Zealand ",-46.1432127,167.9971781
WINTON COMMERCIAL HOTEL,"327 GREAT NORTH ROAD
WINTON
SOUTHLAND 9662",Southland,New Zealand,"WINTON COMMERCIAL HOTEL 327 GREAT NORTH ROAD
WINTON
SOUTHLAND 9662 Southland New Zealand ",-46.139684,168.3261417
Railway Hotel Nightcaps,"1 CLAPPS STREET
NIGHTCAPS
SOUTHLAND 9651",Southland,New Zealand,"Railway Hotel Nightcaps 1 CLAPPS STREET
NIGHTCAPS
SOUTHLAND 9651 Southland New Zealand ",-45.9698288,168.0305246
PIONEER TAVERN,"14 FERRY ROAD
EDENDALE
SOUTHLAND 9690",Southland,New Zealand,"PIONEER TAVERN 14 FERRY ROAD
EDENDALE
SOUTHLAND 9690 Southland New Zealand ",-46.3119382,168.7859783
THREE RIVERS HOTEL,"17 REDAN STREET
WYNDHAM
SOUTHLAND 9690",Southland,New Zealand,"THREE RIVERS HOTEL 17 REDAN STREET
WYNDHAM
SOUTHLAND 9690 Southland New Zealand ",-46.3282238,168.8495539
TOKANUI TAVERN,"MCEWAN STREET
TOKANUI
SOUTHLAND 9671",Southland,New Zealand,"TOKANUI TAVERN MCEWAN STREET
TOKANUI
SOUTHLAND 9671 Southland New Zealand ",-46.5635066,168.9435734
WAIAU TOWN & COUNTRY CLUB,"41 KING STREET
TUATAPERE
SOUTHLAND 9620
NEW ZEALAND",Southland,New Zealand,"WAIAU TOWN & COUNTRY CLUB 41 KING STREET
TUATAPERE
SOUTHLAND 9620
NEW ZEALAND Southland New Zealand ",-46.1366587,167.6917401
EMPIRE HOTEL,"CORNER BROADWAY AND FENTON STREETS
STRATFORD
TARANAKI 4352",Taranaki,New Zealand,"EMPIRE HOTEL CORNER BROADWAY AND FENTON STREETS
STRATFORD
TARANAKI 4352 Taranaki New Zealand ",-39.341268,174.2858309
NEW COMMERCIAL HOTEL,"339 BROADWAY
STRATFORD
TARANAKI 4352",Taranaki,New Zealand,"NEW COMMERCIAL HOTEL 339 BROADWAY
STRATFORD
TARANAKI 4352 Taranaki New Zealand ",-39.3424606,174.2856292
DANNEVIRKE SERVICES AND CITIZENS CLUB,"1 PRINCESS STREET
DANNEVIRKE
MANAWATU 5491",Manawatu-Wanganui,New Zealand,"DANNEVIRKE SERVICES AND CITIZENS CLUB 1 PRINCESS STREET
DANNEVIRKE
MANAWATU 5491 Manawatu-Wanganui New Zealand ",-40.2070939,176.0973227
PONGAROA HOTEL,"WEBER ROAD
PONGAROA
MANAWATU 5470",Manawatu-Wanganui,New Zealand,"PONGAROA HOTEL WEBER ROAD
PONGAROA
MANAWATU 5470 Manawatu-Wanganui New Zealand ",-40.542385,176.191601
MERRYLEES HOTEL,"CORNER HALL AND STATION STREETS
DANNEVIRKE
MANAWATU 5491",Manawatu-Wanganui,New Zealand,"MERRYLEES HOTEL CORNER HALL AND STATION STREETS
DANNEVIRKE
MANAWATU 5491 Manawatu-Wanganui New Zealand ",-40.2089009,176.0966795
MANGATERA HOTEL,"391 HIGH STREET
DANNEVIRKE
MANAWATU 5491",Manawatu-Wanganui,New Zealand,"MANGATERA HOTEL 391 HIGH STREET
DANNEVIRKE
MANAWATU 5491 Manawatu-Wanganui New Zealand ",-40.1912707,176.1124968
NEW CENTRAL MOTOR INN & HOTEL,"63-65 VOGEL STREET
WOODVILLE
MANAWATU 5473",Manawatu-Wanganui,New Zealand,"NEW CENTRAL MOTOR INN & HOTEL 63-65 VOGEL STREET
WOODVILLE
MANAWATU 5473 Manawatu-Wanganui New Zealand ",-40.3370196,175.867972
TARARUA CLUB,"15 TARARUA STREET
PAHIATUA
MANAWATU 5470",Manawatu-Wanganui,New Zealand,"TARARUA CLUB 15 TARARUA STREET
PAHIATUA
MANAWATU 5470 Manawatu-Wanganui New Zealand ",-40.4498857,175.8405137
Saigon Restaurant and Bar,"2 Barraud Street
DANNEVIRKE
MANAWATU 4930
NEW ZEALAND",Manawatu-Wanganui,New Zealand,"Saigon Restaurant and Bar 2 Barraud Street
DANNEVIRKE
MANAWATU 4930
NEW ZEALAND Manawatu-Wanganui New Zealand ",-40.2095447,176.0973416
Woodville Hotel,"51 VOGEL STREET
WOODVILLE
MANAWATU 5473",Manawatu-Wanganui,New Zealand,"Woodville Hotel 51 VOGEL STREET
WOODVILLE
MANAWATU 5473 Manawatu-Wanganui New Zealand ",-40.3370319,175.8670347
CLUB HOTEL,"83 MAIN STREET
PAHIATUA
MANAWATU 5470",Manawatu-Wanganui,New Zealand,"CLUB HOTEL 83 MAIN STREET
PAHIATUA
MANAWATU 5470 Manawatu-Wanganui New Zealand ",-40.451788,175.842317
POST OFFICE HOTEL (PAHIATUA),"164 MAIN STREET
PAHIATUA
MANAWATU 5470",Manawatu-Wanganui,New Zealand,"POST OFFICE HOTEL (PAHIATUA) 164 MAIN STREET
PAHIATUA
MANAWATU 5470 Manawatu-Wanganui New Zealand ",-40.456369,175.8371035
CLUB WAIMEA,"345 QUEEN STREET
RICHMOND
NELSON 7020
NEW ZEALAND",Tasman,New Zealand,"CLUB WAIMEA 345 QUEEN STREET
RICHMOND
NELSON 7020
NEW ZEALAND Tasman New Zealand ",-41.3356631,173.1788747
MOTUEKA MEMORIAL RSA INCORPORATED,"49 HIGH STREET
MOTUEKA
TASMAN DISTRICT 7120
NEW ZEALAND",Tasman,New Zealand,"MOTUEKA MEMORIAL RSA INCORPORATED 49 HIGH STREET
MOTUEKA
TASMAN DISTRICT 7120
NEW ZEALAND Tasman New Zealand ",-41.105873,173.0114977
TAPAWERA HOTEL,"84 MAIN ROAD
TAPAWERA
TASMAN DISTRICT 7181",Tasman,New Zealand,"TAPAWERA HOTEL 84 MAIN ROAD
TAPAWERA
TASMAN DISTRICT 7181 Tasman New Zealand ",-41.3895247,172.8236774
Armadillos Bar Restaurant & Functions Centre,"183 QUEEN STREET
RICHMOND
NELSON 7002",Tasman,New Zealand,"Armadillos Bar Restaurant & Functions Centre 183 QUEEN STREET
RICHMOND
NELSON 7002 Tasman New Zealand ",-41.3419444,173.1872222
COLLINGWOOD TAVERN,"TASMAN STREET
COLLINGWOOD
TASMAN DISTRICT 7171",Tasman,New Zealand,"COLLINGWOOD TAVERN TASMAN STREET
COLLINGWOOD
TASMAN DISTRICT 7171 Tasman New Zealand ",-40.676602,172.68186
BRIGHTWATER MOTOR INN,"1 LIGHTBAND ROAD
BRIGHTWATER
TASMAN DISTRICT 7151",Tasman,New Zealand,"BRIGHTWATER MOTOR INN 1 LIGHTBAND ROAD
BRIGHTWATER
TASMAN DISTRICT 7151 Tasman New Zealand ",-41.3793286,173.114292
STAR AND GARTER TAVERN,"LEVEL 1 252 QUEEN STREET
RICHMOND
NELSON 7002",Tasman,New Zealand,"STAR AND GARTER TAVERN LEVEL 1 252 QUEEN STREET
RICHMOND
NELSON 7002 Tasman New Zealand ",-41.3391453,173.1848202
WAKEFIELD HOTEL,"48 EDWARD STREET
WAKEFIELD
TASMAN DISTRICT 7181",Tasman,New Zealand,"WAKEFIELD HOTEL 48 EDWARD STREET
WAKEFIELD
TASMAN DISTRICT 7181 Tasman New Zealand ",-41.4068165,173.043521
POST OFFICE HOTEL MOTUEKA,"122 HIGH STREET
MOTUEKA
TASMAN DISTRICT 7160",Tasman,New Zealand,"POST OFFICE HOTEL MOTUEKA 122 HIGH STREET
MOTUEKA
TASMAN DISTRICT 7160 Tasman New Zealand ",-41.110169,173.0106204
TELEGRAPH HOTEL,"2 MOTUPIPI STREET
TAKAKA
TASMAN DISTRICT 7172",Tasman,New Zealand,"TELEGRAPH HOTEL 2 MOTUPIPI STREET
TAKAKA
TASMAN DISTRICT 7172 Tasman New Zealand ",-40.8609677,172.806215
THE STABLES,"1 MCGLASHEN AVENUE
RICHMOND
NELSON 7002",Tasman,New Zealand,"THE STABLES 1 MCGLASHEN AVENUE
RICHMOND
NELSON 7002 Tasman New Zealand ",-41.3380696,173.1854008
Pitch Sports Bar,"38-40 TUWHARETOA STREET
TAUPO
TAUPO DISTRICT 3351",Waikato,New Zealand,"Pitch Sports Bar 38-40 TUWHARETOA STREET
TAUPO
TAUPO DISTRICT 3351 Waikato New Zealand ",-38.6888217,176.0709459
Turangi Tavern,"17 OHUANGA ROAD
TURANGI
TAUPO DISTRICT 3353",Waikato,New Zealand,"Turangi Tavern 17 OHUANGA ROAD
TURANGI
TAUPO DISTRICT 3353 Waikato New Zealand ",-38.9902063,175.809324
TAB TAUPO,"36 TUWHARETOA STREET
TAUPO
TAUPO DISTRICT 3351",Waikato,New Zealand,"TAB TAUPO 36 TUWHARETOA STREET
TAUPO
TAUPO DISTRICT 3351 Waikato New Zealand ",-38.6887369,176.0708566
TAUPO COSMOPOLITAN CLUB,"5 TANIWHA STREET
TAUPO
TAUPO DISTRICT 3351",Waikato,New Zealand,"TAUPO COSMOPOLITAN CLUB 5 TANIWHA STREET
TAUPO
TAUPO DISTRICT 3351 Waikato New Zealand ",-38.6858504,176.0744205
TAUPO RSA,"67 HOROMATANGI STREET
TAUPO
TAUPO DISTRICT 3351",Waikato,New Zealand,"TAUPO RSA 67 HOROMATANGI STREET
TAUPO
TAUPO DISTRICT 3351 Waikato New Zealand ",-38.6895092,176.1051601
dbar,"22-26 TUWHARETOA STREET
TAUPO
TAUPO DISTRICT 3351",Waikato,New Zealand,"dbar 22-26 TUWHARETOA STREET
TAUPO
TAUPO DISTRICT 3351 Waikato New Zealand ",-38.6886338,176.0702054
MULLIGAN'S PUBLIC HOUSE,"15 TONGARIRO STREET
TAUPO
TAUPO DISTRICT 3351",Waikato,New Zealand,"MULLIGAN'S PUBLIC HOUSE 15 TONGARIRO STREET
TAUPO
TAUPO DISTRICT 3351 Waikato New Zealand ",-38.6889267,176.0691071
TOKAANU-TURANGI & DISTRICTS MEMORIAL RSA,"KATOPU PLACE
TURANGI
TAUPO DISTRICT 3334
NEW ZEALAND",Waikato,New Zealand,"TOKAANU-TURANGI & DISTRICTS MEMORIAL RSA KATOPU PLACE
TURANGI
TAUPO DISTRICT 3334
NEW ZEALAND Waikato New Zealand ",-38.9882383,175.8122392
LUCKY LIZARD,"32 RICHMOND AVENUE
TAUPO
TAUPO DISTRICT 3330
NEW ZEALAND",Waikato,New Zealand,"LUCKY LIZARD 32 RICHMOND AVENUE
TAUPO
TAUPO DISTRICT 3330
NEW ZEALAND Waikato New Zealand ",-38.7153162,176.0912646
PUB 'N' GRUB,"4 ROBERTS STREET
TAUPO
TAUPO DISTRICT 3351",Waikato,New Zealand,"PUB 'N' GRUB 4 ROBERTS STREET
TAUPO
TAUPO DISTRICT 3351 Waikato New Zealand ",-38.6894687,176.0693208
CLUB MOUNT MAUNGANUI,"45 KAWAKA STREET
MT MAUNGANUI
BAY OF PLENTY 3116
NEW ZEALAND",Bay of Plenty,New Zealand,"CLUB MOUNT MAUNGANUI 45 KAWAKA STREET
MT MAUNGANUI
BAY OF PLENTY 3116
NEW ZEALAND Bay of Plenty New Zealand ",-37.6455124,176.1913245
H2O Bar Tauranga,"104 DEVONPORT ROAD
TAURANGA CENTRAL
TAURANGA 3001",Bay of Plenty,New Zealand,"H2O Bar Tauranga 104 DEVONPORT ROAD
TAURANGA CENTRAL
TAURANGA 3001 Bay of Plenty New Zealand ",-37.6869029,176.1693813
MOUNT BREWING CO.,"109 MAUNGANUI ROAD
MT MAUNGANUI
BAY OF PLENTY 3150",Bay of Plenty,New Zealand,"MOUNT BREWING CO. 109 MAUNGANUI ROAD
MT MAUNGANUI
BAY OF PLENTY 3150 Bay of Plenty New Zealand ",-37.6368151,176.1830691
The Flying Mullet Ale House,"20 DOMAIN ROAD
PAPAMOA
BAY OF PLENTY 3003",Bay of Plenty,New Zealand,"The Flying Mullet Ale House 20 DOMAIN ROAD
PAPAMOA
BAY OF PLENTY 3003 Bay of Plenty New Zealand ",-37.7011641,176.2805506
The Flying Mullet Ale House,"4/38 Gravatt Road
TAURANGA CENTRAL
TAURANGA 3118
NEW ZEALAND",Bay of Plenty,New Zealand,"The Flying Mullet Ale House 4/38 Gravatt Road
TAURANGA CENTRAL
TAURANGA 3118
NEW ZEALAND Bay of Plenty New Zealand ",-37.7011641,176.2805506
MOUNT MAUNGANUI RETURNED SERVICES ASSOCIATION,"544 MAUNGANUI ROAD
MT MAUNGANUI
BAY OF PLENTY 3150",Bay of Plenty,New Zealand,"MOUNT MAUNGANUI RETURNED SERVICES ASSOCIATION 544 MAUNGANUI ROAD
MT MAUNGANUI
BAY OF PLENTY 3150 Bay of Plenty New Zealand ",-37.6565243,176.2016708
MOUNT MELLICK,"317 MAUNGANUI ROAD
MT MAUNGANUI
BAY OF PLENTY 3150",Bay of Plenty,New Zealand,"MOUNT MELLICK 317 MAUNGANUI ROAD
MT MAUNGANUI
BAY OF PLENTY 3150 Bay of Plenty New Zealand ",-37.6424941,176.1866174
CITY SPORTS BAR,"20 HAMILTON STREET
TAURANGA CENTRAL
TAURANGA 3001",Bay of Plenty,New Zealand,"CITY SPORTS BAR 20 HAMILTON STREET
TAURANGA CENTRAL
TAURANGA 3001 Bay of Plenty New Zealand ",-37.6824473,176.1690646
FLANNAGAN'S IRISH PUB,"14 HAMILTON STREET
TAURANGA CENTRAL
TAURANGA 3001",Bay of Plenty,New Zealand,"FLANNAGAN'S IRISH PUB 14 HAMILTON STREET
TAURANGA CENTRAL
TAURANGA 3001 Bay of Plenty New Zealand ",-37.6824024,176.1695227
CHEERS TAVERN,"15 OWENS PLACE
MT MAUNGANUI
BAY OF PLENTY 3150",Bay of Plenty,New Zealand,"CHEERS TAVERN 15 OWENS PLACE
MT MAUNGANUI
BAY OF PLENTY 3150 Bay of Plenty New Zealand ",-37.6791702,176.2226575
JUDEA TAVERN,"35 KOROMIKO STREET
TAURANGA CENTRAL
TAURANGA 3001",Bay of Plenty,New Zealand,"JUDEA TAVERN 35 KOROMIKO STREET
TAURANGA CENTRAL
TAURANGA 3001 Bay of Plenty New Zealand ",-37.6997876,176.1506245
CRUZAZ BAR CAFE,"265 OTUMOETAI ROAD
TAURANGA CENTRAL
TAURANGA 3001",Bay of Plenty,New Zealand,"CRUZAZ BAR CAFE 265 OTUMOETAI ROAD
TAURANGA CENTRAL
TAURANGA 3001 Bay of Plenty New Zealand ",-37.681361,176.1365554
THE RISING TIDE,"107 NEWTON STREET
MT MAUNGANUI
BAY OF PLENTY 3150",Bay of Plenty,New Zealand,"THE RISING TIDE 107 NEWTON STREET
MT MAUNGANUI
BAY OF PLENTY 3150 Bay of Plenty New Zealand ",-37.6619537,176.2047382
MARTY'S POOL BAR,"19 ELIZABETH STREET
TAURANGA CENTRAL
TAURANGA 3001",Bay of Plenty,New Zealand,"MARTY'S POOL BAR 19 ELIZABETH STREET
TAURANGA CENTRAL
TAURANGA 3001 Bay of Plenty New Zealand ",-37.6872956,176.1694823
RENNERS BAR,"1339 CAMERON ROAD
TAURANGA CENTRAL
TAURANGA 3112
NEW ZEALAND",Bay of Plenty,New Zealand,"RENNERS BAR 1339 CAMERON ROAD
TAURANGA CENTRAL
TAURANGA 3112
NEW ZEALAND Bay of Plenty New Zealand ",-37.7264998,176.132066
TAB CAMERON ROAD,"501 CAMERON ROAD
TAURANGA CENTRAL
TAURANGA 3001",Bay of Plenty,New Zealand,"TAB CAMERON ROAD 501 CAMERON ROAD
TAURANGA CENTRAL
TAURANGA 3001 Bay of Plenty New Zealand ",-37.6971362,176.1597763
TAB MOUNT MAUNGANUI,"155 Maunganui Road
MT MAUNGANUI
BAY OF PLENTY 3150
NEW ZEALAND",Bay of Plenty,New Zealand,"TAB MOUNT MAUNGANUI 155 Maunganui Road
MT MAUNGANUI
BAY OF PLENTY 3150
NEW ZEALAND Bay of Plenty New Zealand ",-37.6380994,176.1835888
TAB Papamoa,"T6 42 Gravatt Road
PAPAMOA BEACH
BAY OF PLENTY 3118
NEW ZEALAND",Bay of Plenty,New Zealand,"TAB Papamoa T6 42 Gravatt Road
PAPAMOA BEACH
BAY OF PLENTY 3118
NEW ZEALAND Bay of Plenty New Zealand ",-37.7014312,176.2801818
TAB Greerton,"1333 Cameron Road
TAURANGA SOUTH
TAURANGA 3112
NEW ZEALAND",Bay of Plenty,New Zealand,"TAB Greerton 1333 Cameron Road
TAURANGA SOUTH
TAURANGA 3112
NEW ZEALAND Bay of Plenty New Zealand ",-37.726385,176.132248
TAB Bethlehem,"245 State Highway 2 
BETHLEHEM
TAURANGA 3110
NEW ZEALAND",Bay of Plenty,New Zealand,"TAB Bethlehem 245 State Highway 2 
BETHLEHEM
TAURANGA 3110
NEW ZEALAND Bay of Plenty New Zealand ",-37.6960483,176.1081225
TAURANGA CITIZENS CLUB,"170 THIRTEENTH AVENUE
TAURANGA CENTRAL
TAURANGA 3001",Bay of Plenty,New Zealand,"TAURANGA CITIZENS CLUB 170 THIRTEENTH AVENUE
TAURANGA CENTRAL
TAURANGA 3001 Bay of Plenty New Zealand ",-37.7009779,176.1559476
TAURANGA RSA,"1237 CAMERON ROAD
GREERTON
BAY OF PLENTY 3001",Bay of Plenty,New Zealand,"TAURANGA RSA 1237 CAMERON ROAD
GREERTON
BAY OF PLENTY 3001 Bay of Plenty New Zealand ",-37.7238883,176.1340594
TAURANGA GAME FISHING CLUB (INC),"66 KEITH ALLEN DRIVE TAURANGA MARINA
TAURANGA CENTRAL
TAURANGA 3001",Bay of Plenty,New Zealand,"TAURANGA GAME FISHING CLUB (INC) 66 KEITH ALLEN DRIVE TAURANGA MARINA
TAURANGA CENTRAL
TAURANGA 3001 Bay of Plenty New Zealand ",-37.6622542,176.1682734
ROSIE O'GRADYS IRISH PUB,"2 RATA STREET
MT MAUNGANUI
BAY OF PLENTY 3150",Bay of Plenty,New Zealand,"ROSIE O'GRADYS IRISH PUB 2 RATA STREET
MT MAUNGANUI
BAY OF PLENTY 3150 Bay of Plenty New Zealand ",-37.6423922,176.1854022
MCSWIGGANS IRISH PUB,"SHOP 1 158 CAMBRIDGE ROAD
TAURANGA CENTRAL
TAURANGA 3001",Bay of Plenty,New Zealand,"MCSWIGGANS IRISH PUB SHOP 1 158 CAMBRIDGE ROAD
TAURANGA CENTRAL
TAURANGA 3001 Bay of Plenty New Zealand ",-37.7028685,176.1295107
WELCOME BAY SPORTS BAR,"250 WELCOME BAY ROAD
TAURANGA CENTRAL
TAURANGA 3001",Bay of Plenty,New Zealand,"WELCOME BAY SPORTS BAR 250 WELCOME BAY ROAD
TAURANGA CENTRAL
TAURANGA 3001 Bay of Plenty New Zealand ",-37.7254569,176.1920037
IMBIBE,"19 GIRVEN ROAD
MT MAUNGANUI
BAY OF PLENTY 3116
NEW ZEALAND",Bay of Plenty,New Zealand,"IMBIBE 19 GIRVEN ROAD
MT MAUNGANUI
BAY OF PLENTY 3116
NEW ZEALAND Bay of Plenty New Zealand ",-37.6752175,176.2252222
TENPIN TAURANGA,"135 THIRTEENTH AVENUE
TAURANGA CENTRAL
TAURANGA 3001",Bay of Plenty,New Zealand,"TENPIN TAURANGA 135 THIRTEENTH AVENUE
TAURANGA CENTRAL
TAURANGA 3001 Bay of Plenty New Zealand ",-37.7014766,176.1586007
THE MATUA,"SHOP 6 18 TILBY DRIVE
TAURANGA CENTRAL
TAURANGA 3001",Bay of Plenty,New Zealand,"THE MATUA SHOP 6 18 TILBY DRIVE
TAURANGA CENTRAL
TAURANGA 3001 Bay of Plenty New Zealand ",-37.6653595,176.1266122
MERCURY BAY CLUB INC.,"CORNER COOK DRIVE AND CAMPBELL STREET
WHITIANGA
WAIKATO 3510",Waikato,New Zealand,"MERCURY BAY CLUB INC. CORNER COOK DRIVE AND CAMPBELL STREET
WHITIANGA
WAIKATO 3510 Waikato New Zealand ",-36.8346626,175.7011417
KOPU STATION HOTEL,"CORNER STATE HIGHWAY 25 AND STATE HIGHWAY 26 KOPU RD1
THAMES
WAIKATO 2801",Waikato,New Zealand,"KOPU STATION HOTEL CORNER STATE HIGHWAY 25 AND STATE HIGHWAY 26 KOPU RD1
THAMES
WAIKATO 2801 Waikato New Zealand ",-37.184069,175.569954
ROYAL OAK HOTEL,"MAIN ROAD RD5
COROMANDEL
WAIKATO 2851",Waikato,New Zealand,"ROYAL OAK HOTEL MAIN ROAD RD5
COROMANDEL
WAIKATO 2851 Waikato New Zealand ",42.4894801,-83.1446485
COROMANDEL HOTEL,"611 KAPANAGA ROAD
COROMANDEL
WAIKATO 2851",Waikato,New Zealand,"COROMANDEL HOTEL 611 KAPANAGA ROAD
COROMANDEL
WAIKATO 2851 Waikato New Zealand ",-36.7558333,175.5005556
PUNTERS SPORTS BAR,"719 POLLEN STREET
THAMES
WAIKATO 2801",Waikato,New Zealand,"PUNTERS SPORTS BAR 719 POLLEN STREET
THAMES
WAIKATO 2801 Waikato New Zealand ",-37.1350782,175.5401946
ADMIRALS ARMS,"146 WHARF ROAD
COROMANDEL
WAIKATO 2851",Waikato,New Zealand,"ADMIRALS ARMS 146 WHARF ROAD
COROMANDEL
WAIKATO 2851 Waikato New Zealand ",-36.7696317,175.4969251
STAR & GARTER HOTEL,"5 KAPANGA ROAD
COROMANDEL
WAIKATO 2851",Waikato,New Zealand,"STAR & GARTER HOTEL 5 KAPANGA ROAD
COROMANDEL
WAIKATO 2851 Waikato New Zealand ",-36.76,175.4972222
PAUANUI SPORTS & RECREATION CLUB INCORPORATED,"SHEPPARD AVENUE
PAUANUI BEACH
WAIKATO 2821",Waikato,New Zealand,"PAUANUI SPORTS & RECREATION CLUB INCORPORATED SHEPPARD AVENUE
PAUANUI BEACH
WAIKATO 2821 Waikato New Zealand ",-37.0209873,175.8600567
Frankies Sports Bar & Grill,"37 ALBERT STREET
WHITIANGA
WAIKATO 3510",Waikato,New Zealand,"Frankies Sports Bar & Grill 37 ALBERT STREET
WHITIANGA
WAIKATO 3510 Waikato New Zealand ",-36.833652,175.70442
WHITIANGA HOTEL,"1 BLACKSMITH LANE
WHITIANGA
WAIKATO 3510",Waikato,New Zealand,"WHITIANGA HOTEL 1 BLACKSMITH LANE
WHITIANGA
WAIKATO 3510 Waikato New Zealand ",-36.8348008,175.7060849
THE COROGLEN,"STATE HIGHWAY 25 COROGLEN RD1
WHITIANGA
WAIKATO 3510",Waikato,New Zealand,"THE COROGLEN STATE HIGHWAY 25 COROGLEN RD1
WHITIANGA
WAIKATO 3510 Waikato New Zealand ",-36.9236694,175.6912409
THAMES BOWLING CLUB INCORPORATED,"COURT STREET
THAMES
WAIKATO 2801",Waikato,New Zealand,"THAMES BOWLING CLUB INCORPORATED COURT STREET
THAMES
WAIKATO 2801 Waikato New Zealand ",-37.1383243,175.5442005
THAMES COAST BOWLING CLUB INCORPORATED,"8 WEST CRESCENT
RD5
THAMES
WAIKATO 3575
NEW ZEALAND",Waikato,New Zealand,"THAMES COAST BOWLING CLUB INCORPORATED 8 WEST CRESCENT
RD5
THAMES
WAIKATO 3575
NEW ZEALAND Waikato New Zealand ",-37.0467602,175.5204046
THAMES WORKINGMEN'S CLUB,"407 COCHRANE STREET
THAMES
WAIKATO 3500
NEW ZEALAND",Waikato,New Zealand,"THAMES WORKINGMEN'S CLUB 407 COCHRANE STREET
THAMES
WAIKATO 3500
NEW ZEALAND Waikato New Zealand ",-37.1341667,175.5397222
BUCKS SPORTS BAR & GRILL,"100 CASEMENT ROAD
WHANGAMATA
WAIKATO 2982",Waikato,New Zealand,"BUCKS SPORTS BAR & GRILL 100 CASEMENT ROAD
WHANGAMATA
WAIKATO 2982 Waikato New Zealand ",-37.2044498,175.8729178
Smokey Pallet,"413-419 PORT ROAD
WHANGAMATA
WAIKATO 3620
NEW ZEALAND",Waikato,New Zealand,"Smokey Pallet 413-419 PORT ROAD
WHANGAMATA
WAIKATO 3620
NEW ZEALAND Waikato New Zealand ",-37.207385,175.87087
PUNTERS BAR AND GRILL,"SHOPS 3 TO 5 THE MALL 7 MAIN ROAD
TAIRUA
WAIKATO 2853",Waikato,New Zealand,"PUNTERS BAR AND GRILL SHOPS 3 TO 5 THE MALL 7 MAIN ROAD
TAIRUA
WAIKATO 2853 Waikato New Zealand ",-37.0020453,175.848902
WHANGAMATA CLUB INCORPORATED,"404 PORT ROAD
WHANGAMATA
WAIKATO 2982",Waikato,New Zealand,"WHANGAMATA CLUB INCORPORATED 404 PORT ROAD
WHANGAMATA
WAIKATO 2982 Waikato New Zealand ",-37.2098846,175.8700714
WHANGAMATA RETURNED SERVICES ASSOCIATION INCORPORATED,"PORT ROAD
WHANGAMATA
WAIKATO 2982",Waikato,New Zealand,"WHANGAMATA RETURNED SERVICES ASSOCIATION INCORPORATED PORT ROAD
WHANGAMATA
WAIKATO 2982 Waikato New Zealand ",-37.2080025,175.8708078
EMPIRE HOTEL,"50 KING STREET
TEMUKA
CANTERBURY 7986",Canterbury,New Zealand,"EMPIRE HOTEL 50 KING STREET
TEMUKA
CANTERBURY 7986 Canterbury New Zealand ",-44.2466815,171.2783353
GROSVENOR HOTEL,"26 CAINS TERRACE
TIMARU
TIMARU 7910",Canterbury,New Zealand,"GROSVENOR HOTEL 26 CAINS TERRACE
TIMARU
TIMARU 7910 Canterbury New Zealand ",-44.3959274,171.2546539
PLEASANT POINT HOTEL,"95 MAIN ROAD
PLEASANT POINT
CANTERBURY 8772",Canterbury,New Zealand,"PLEASANT POINT HOTEL 95 MAIN ROAD
PLEASANT POINT
CANTERBURY 8772 Canterbury New Zealand ",-44.2600707,171.1285394
RICHARD PEARSE TAVERN,"118 LE CREN STREET
TIMARU
TIMARU 7910",Canterbury,New Zealand,"RICHARD PEARSE TAVERN 118 LE CREN STREET
TIMARU
TIMARU 7910 Canterbury New Zealand ",-44.3951759,171.2386932
CROWN HERITAGE HOTEL,"31 TALBOT STREET
GERALDINE
CANTERBURY 8751",Canterbury,New Zealand,"CROWN HERITAGE HOTEL 31 TALBOT STREET
GERALDINE
CANTERBURY 8751 Canterbury New Zealand ",-44.091147,171.2439869
TEMUKA HOTEL,"141 KING STREET
TEMUKA
CANTERBURY 7986",Canterbury,New Zealand,"TEMUKA HOTEL 141 KING STREET
TEMUKA
CANTERBURY 7986 Canterbury New Zealand ",-44.2431681,171.2770913
VILLAGE INN,"41 TALBOT STREET
GERALDINE
CANTERBURY 8751",Canterbury,New Zealand,"VILLAGE INN 41 TALBOT STREET
GERALDINE
CANTERBURY 8751 Canterbury New Zealand ",-44.0916313,171.2444862
TIMARU SOUTH COSMOPOLITAN CLUB,"44 BROWNE STREET
TIMARU
TIMARU 7910",Canterbury,New Zealand,"TIMARU SOUTH COSMOPOLITAN CLUB 44 BROWNE STREET
TIMARU
TIMARU 7910 Canterbury New Zealand ",-44.4028192,171.250445
TIMARU TOWN & COUNTRY CLUB,"99 DOUGLAS STREET
TIMARU
TIMARU 7910",Canterbury,New Zealand,"TIMARU TOWN & COUNTRY CLUB 99 DOUGLAS STREET
TIMARU
TIMARU 7910 Canterbury New Zealand ",-44.3856794,171.2260759
OLD BANK CAFE AND BAR,"232 STAFFORD STREET
TIMARU
TIMARU 7910",Canterbury,New Zealand,"OLD BANK CAFE AND BAR 232 STAFFORD STREET
TIMARU
TIMARU 7910 Canterbury New Zealand ",-44.3953739,171.2522912
COPPER CAFE AND BAR,"164 STAFFORD STREET
TIMARU
TIMARU 7910",Canterbury,New Zealand,"COPPER CAFE AND BAR 164 STAFFORD STREET
TIMARU
TIMARU 7910 Canterbury New Zealand ",-44.396731,171.2542024
CROWN HOTEL,"64 KING STREET
TEMUKA
CANTERBURY 7986",Canterbury,New Zealand,"CROWN HOTEL 64 KING STREET
TEMUKA
CANTERBURY 7986 Canterbury New Zealand ",-44.2456291,171.2780723
Queens Hotel,"2 BARNARD STREET
TIMARU
TIMARU 7910",Canterbury,New Zealand,"Queens Hotel 2 BARNARD STREET
TIMARU
TIMARU 7910 Canterbury New Zealand ",-44.4002934,171.2545372
CHARLTON'S SILVERSTREAM,"SHOP 9 THE VILLAGE
HERETAUNGA-SILVERSTREAM
UPPER HUTT 6007",Wellington,New Zealand,"CHARLTON'S SILVERSTREAM SHOP 9 THE VILLAGE
HERETAUNGA-SILVERSTREAM
UPPER HUTT 6007 Wellington New Zealand ",-41.1476959,175.011485
GLASSHOUSE BAR & CAFE,"1 MAIN STREET
UPPER HUTT CENTRAL
UPPER HUTT 6007",Wellington,New Zealand,"GLASSHOUSE BAR & CAFE 1 MAIN STREET
UPPER HUTT CENTRAL
UPPER HUTT 6007 Wellington New Zealand ",-41.1246708,175.0667347
TAB UPPER HUTT,"44 MAIN STREET
UPPER HUTT CENTRAL
UPPER HUTT 6007",Wellington,New Zealand,"TAB UPPER HUTT 44 MAIN STREET
UPPER HUTT CENTRAL
UPPER HUTT 6007 Wellington New Zealand ",-41.1249336,175.067327
TOTE PUB & PIZZA FURNACE,"74 ARARINO STREET
TRENTHAM
UPPER HUTT 6007",Wellington,New Zealand,"TOTE PUB & PIZZA FURNACE 74 ARARINO STREET
TRENTHAM
UPPER HUTT 6007 Wellington New Zealand ",-41.1376172,175.0371476
Long Horn Steak & Ale House,"2 MAIN STREET
UPPER HUTT CENTRAL
UPPER HUTT 6007",Wellington,New Zealand,"Long Horn Steak & Ale House 2 MAIN STREET
UPPER HUTT CENTRAL
UPPER HUTT 6007 Wellington New Zealand ",-41.1250774,175.0660581
RIMUTAKA TAVERN,"1223-1253 FERGUSSON DRIVE
UPPER HUTT CENTRAL
UPPER HUTT 6007",Wellington,New Zealand,"RIMUTAKA TAVERN 1223-1253 FERGUSSON DRIVE
UPPER HUTT CENTRAL
UPPER HUTT 6007 Wellington New Zealand ",-41.1095181,175.0971446
UPPER HUTT CLUB,"LYSTER LANE
UPPER HUTT CENTRAL
UPPER HUTT 6007",Wellington,New Zealand,"UPPER HUTT CLUB LYSTER LANE
UPPER HUTT CENTRAL
UPPER HUTT 6007 Wellington New Zealand ",-41.1238184,175.0695641
UPPER HUTT COSMOPOLITAN CLUB,"11-15 LOGAN STREET
UPPER HUTT CENTRAL
UPPER HUTT 6007",Wellington,New Zealand,"UPPER HUTT COSMOPOLITAN CLUB 11-15 LOGAN STREET
UPPER HUTT CENTRAL
UPPER HUTT 6007 Wellington New Zealand ",-41.1220704,175.072119
QUINN'S POST TAVERN,"2 WARD STREET
UPPER HUTT CENTRAL
UPPER HUTT 6007",Wellington,New Zealand,"QUINN'S POST TAVERN 2 WARD STREET
UPPER HUTT CENTRAL
UPPER HUTT 6007 Wellington New Zealand ",-41.1269215,175.0533413
HUNTLY RSA,"42 WILLIAM STREET
HUNTLY
WAIKATO 3700",Waikato,New Zealand,"HUNTLY RSA 42 WILLIAM STREET
HUNTLY
WAIKATO 3700 Waikato New Zealand ",-37.5581772,175.1613769
NGARUAWAHIA GOLF CLUB,"GREAT SOUTH ROAD
NGARUAWAHIA
WAIKATO 3720",Waikato,New Zealand,"NGARUAWAHIA GOLF CLUB GREAT SOUTH ROAD
NGARUAWAHIA
WAIKATO 3720 Waikato New Zealand ",-37.6860211,175.1738345
Podges Place,"2 ROOSE ROAD
MERCER
FRANKLIN 2474
NEW ZEALAND",Waikato,New Zealand,"Podges Place 2 ROOSE ROAD
MERCER
FRANKLIN 2474
NEW ZEALAND Waikato New Zealand ",-37.2792978,175.0469531
MCGINTY'S TURF & SPORTS BAR,"66 MAIN STREET
HUNTLY
WAIKATO 3700",Waikato,New Zealand,"MCGINTY'S TURF & SPORTS BAR 66 MAIN STREET
HUNTLY
WAIKATO 3700 Waikato New Zealand ",-37.557446,175.1586134
RAGLAN CLUB INCORPORATED,"22-24 BOW STREET
RAGLAN
WAIKATO 2051",Waikato,New Zealand,"RAGLAN CLUB INCORPORATED 22-24 BOW STREET
RAGLAN
WAIKATO 2051 Waikato New Zealand ",-37.7997222,174.87
ESSEX ARMS,"151 MAIN STREET
HUNTLY
WAIKATO 3700",Waikato,New Zealand,"ESSEX ARMS 151 MAIN STREET
HUNTLY
WAIKATO 3700 Waikato New Zealand ",-37.5600355,175.1590537
TAUPIRI TAVERN,"THE CRESCENT
TAUPIRI
WAIKATO 2171",Waikato,New Zealand,"TAUPIRI TAVERN THE CRESCENT
TAUPIRI
WAIKATO 2171 Waikato New Zealand ",-37.6139064,175.1899307
NGARUAWAHIA RSA MEMORIAL CLUB,"4 MARKET STREET
NGARUAWAHIA
WAIKATO 3720",Waikato,New Zealand,"NGARUAWAHIA RSA MEMORIAL CLUB 4 MARKET STREET
NGARUAWAHIA
WAIKATO 3720 Waikato New Zealand ",-37.66465,175.1488951
MUDDY WATERS IRISH PUB,"RIVERBANK ROAD
MERCER
FRANKLIN 1871",Waikato,New Zealand,"MUDDY WATERS IRISH PUB RIVERBANK ROAD
MERCER
FRANKLIN 1871 Waikato New Zealand ",-37.2787274,175.0460647
HARBOUR VIEW HOTEL,"14 BOW STREET
RAGLAN
WAIKATO 2051",Waikato,New Zealand,"HARBOUR VIEW HOTEL 14 BOW STREET
RAGLAN
WAIKATO 2051 Waikato New Zealand ",-37.7996838,174.8688644
TE KAUWHATA TRUST TAVERN,"WAERENGA ROAD (OR MAIN ST)
TE KAUWHATA
WAIKATO 2152",Waikato,New Zealand,"TE KAUWHATA TRUST TAVERN WAERENGA ROAD (OR MAIN ST)
TE KAUWHATA
WAIKATO 2152 Waikato New Zealand ",-37.4034196,175.1436135
DELTA HOTEL,"2 MARKET STREET
NGARUAWAHIA
WAIKATO 3720",Waikato,New Zealand,"DELTA HOTEL 2 MARKET STREET
NGARUAWAHIA
WAIKATO 3720 Waikato New Zealand ",-37.6644868,175.1485471
THE BACKYARD BAR & EATERY,"1333 HOROTIU ROAD RD9
WHATAWHATA
WAIKATO 2050",Waikato,New Zealand,"THE BACKYARD BAR & EATERY 1333 HOROTIU ROAD RD9
WHATAWHATA
WAIKATO 2050 Waikato New Zealand ",-37.7971077,175.1537257
TUAKAU COSMOPOLITAN CLUB,"CNR MADILL/CARR ST
TUAKAU
FRANKLIN 2121
NEW ZEALAND",Waikato,New Zealand,"TUAKAU COSMOPOLITAN CLUB CNR MADILL/CARR ST
TUAKAU
FRANKLIN 2121
NEW ZEALAND Waikato New Zealand ",-37.2600365,174.9474934
RED FOX TAVERN,"MONUMENT ROAD
MARAMARUA
WAIKATO 1872",Waikato,New Zealand,"RED FOX TAVERN MONUMENT ROAD
MARAMARUA
WAIKATO 1872 Waikato New Zealand ",-37.2536111,175.2380556
RANGIRIRI HOTEL,"8 RANGIRIRI ROAD
RANGIRIRI
WAIKATO 2152",Waikato,New Zealand,"RANGIRIRI HOTEL 8 RANGIRIRI ROAD
RANGIRIRI
WAIKATO 2152 Waikato New Zealand ",-37.4318124,175.1346747
Woodend Tavern,"51 MAIN NORTH ROAD
WOODEND
CANTERBURY 7610",Canterbury,New Zealand,"Woodend Tavern 51 MAIN NORTH ROAD
WOODEND
CANTERBURY 7610 Canterbury New Zealand ",-43.3233615,172.665422
KAIKANUI TAVERN,"67 WILLIAMS STREET
KAIAPOI
CANTERBURY 7630",Canterbury,New Zealand,"KAIKANUI TAVERN 67 WILLIAMS STREET
KAIAPOI
CANTERBURY 7630 Canterbury New Zealand ",-43.3865546,172.65498
KAIAPOI WMC AND MSA,"113 RAVEN STREET
KAIAPOI
CANTERBURY 7630
NEW ZEALAND",Canterbury,New Zealand,"KAIAPOI WMC AND MSA 113 RAVEN STREET
KAIAPOI
CANTERBURY 7630
NEW ZEALAND Canterbury New Zealand ",-43.3823814,172.6558532
OXFORD WORKINGMENS CLUB & MSA,"160 HIGH STREET
OXFORD
CANTERBURY 7430
NEW ZEALAND",Canterbury,New Zealand,"OXFORD WORKINGMENS CLUB & MSA 160 HIGH STREET
OXFORD
CANTERBURY 7430
NEW ZEALAND Canterbury New Zealand ",-43.2937767,172.197749
MANDEVILLE TAVERN,"99 RAVEN QUAY
KAIAPOI
CANTERBURY 7630",Canterbury,New Zealand,"MANDEVILLE TAVERN 99 RAVEN QUAY
KAIAPOI
CANTERBURY 7630 Canterbury New Zealand ",-43.3816177,172.655323
RANGIORA RSA CLUB,"82 VICTORIA STREET
RANGIORA
CANTERBURY 7400",Canterbury,New Zealand,"RANGIORA RSA CLUB 82 VICTORIA STREET
RANGIORA
CANTERBURY 7400 Canterbury New Zealand ",-43.3048014,172.59595
Craft Bar and Kitchen Kaiapoi,"UNITS 3-4 KAIAPOI CROSSING 77 HILTON STREET
KAIAPOI
CANTERBURY 7630",Canterbury,New Zealand,"Craft Bar and Kitchen Kaiapoi UNITS 3-4 KAIAPOI CROSSING 77 HILTON STREET
KAIAPOI
CANTERBURY 7630 Canterbury New Zealand ",-43.3849164,172.6566132
PLOUGH HOTEL,"398 HIGH STREET
RANGIORA
CANTERBURY 7400",Canterbury,New Zealand,"PLOUGH HOTEL 398 HIGH STREET
RANGIORA
CANTERBURY 7400 Canterbury New Zealand ",-43.3046582,172.584075
PINEACRES TAVERN,"740 MAIN NORTH ROAD
KAIAPOI
CANTERBURY 7630",Canterbury,New Zealand,"PINEACRES TAVERN 740 MAIN NORTH ROAD
KAIAPOI
CANTERBURY 7630 Canterbury New Zealand ",-43.3510787,172.6640436
Five Stags Rangiora,"3/29 Huntingdon Drive
RANGIORA
CANTERBURY 7400
NEW ZEALAND",Canterbury,New Zealand,"Five Stags Rangiora 3/29 Huntingdon Drive
RANGIORA
CANTERBURY 7400
NEW ZEALAND Canterbury New Zealand ",-43.2957696,172.5693775
ROYAL TAVERN WAIMATE,"30 SHEARMAN STREET
WAIMATE
SOUTH CANTERBURY 8791",Canterbury,New Zealand,"ROYAL TAVERN WAIMATE 30 SHEARMAN STREET
WAIMATE
SOUTH CANTERBURY 8791 Canterbury New Zealand ",-44.7326606,171.0458189
WAIMATE HOTEL,"QUEEN STREET
WAIMATE
SOUTH CANTERBURY 8791",Canterbury,New Zealand,"WAIMATE HOTEL QUEEN STREET
WAIMATE
SOUTH CANTERBURY 8791 Canterbury New Zealand ",-44.734283,171.0461354
Makikihi Country Hotel,"36 Main South Road
Makikihi
RD 8
WAIMATE
SOUTH CANTERBURY 7978
NEW ZEALAND",Canterbury,New Zealand,"Makikihi Country Hotel 36 Main South Road
Makikihi
RD 8
WAIMATE
SOUTH CANTERBURY 7978
NEW ZEALAND Canterbury New Zealand ",-44.6324553,171.1409977
WAIMATE TOWN & COUNTRY CLUB,"14 JOHN STREET
WAIMATE
SOUTH CANTERBURY 8791",Canterbury,New Zealand,"WAIMATE TOWN & COUNTRY CLUB 14 JOHN STREET
WAIMATE
SOUTH CANTERBURY 8791 Canterbury New Zealand ",-44.7349409,171.0471427
CAMBRIDGE COSMOPOLITAN CLUB,"88/94 BURNS STREET
CAMBRIDGE
WAIKATO 3432
NEW ZEALAND",Waikato,New Zealand,"CAMBRIDGE COSMOPOLITAN CLUB 88/94 BURNS STREET
CAMBRIDGE
WAIKATO 3432
NEW ZEALAND Waikato New Zealand ",-37.907336,175.47211
5 STAGS LEAMINGTON,"CORNER BURNS AND CAMPBELL STREETS
CAMBRIDGE
WAIKATO 3434",Waikato,New Zealand,"5 STAGS LEAMINGTON CORNER BURNS AND CAMPBELL STREETS
CAMBRIDGE
WAIKATO 3434 Waikato New Zealand ",-37.9063889,175.4736111
JOY'S PLACE,"44 ALEXANDRA STREET
TE AWAMUTU
WAIKATO 3800",Waikato,New Zealand,"JOY'S PLACE 44 ALEXANDRA STREET
TE AWAMUTU
WAIKATO 3800 Waikato New Zealand ",-38.0097502,175.3253181
MASONIC HOTEL (CAMBRIDGE),"68-72 DUKE STREET
CAMBRIDGE
WAIKATO 3434",Waikato,New Zealand,"MASONIC HOTEL (CAMBRIDGE) 68-72 DUKE STREET
CAMBRIDGE
WAIKATO 3434 Waikato New Zealand ",-37.8946818,175.4714996
TAB Cambridge,"75 Duke Street
CAMBRIDGE
WAIKATO 3434
NEW ZEALAND",Waikato,New Zealand,"TAB Cambridge 75 Duke Street
CAMBRIDGE
WAIKATO 3434
NEW ZEALAND Waikato New Zealand ",-37.8950043,175.4717893
TE AWAMUTU & DISTRICT MEMORIAL RSA,"381 ALEXANDRA STREET
TE AWAMUTU
WAIKATO 3800",Waikato,New Zealand,"TE AWAMUTU & DISTRICT MEMORIAL RSA 381 ALEXANDRA STREET
TE AWAMUTU
WAIKATO 3800 Waikato New Zealand ",-38.0089991,175.3214721
Station 32,"20-32 ARAWATA STREET
TE AWAMUTU
WAIKATO 3800
NEW ZEALAND",Waikato,New Zealand,"Station 32 20-32 ARAWATA STREET
TE AWAMUTU
WAIKATO 3800
NEW ZEALAND Waikato New Zealand ",-38.0100304,175.3262645
THE CLUBHOUSE CAFE & SPORTS BAR,"CAMBRIDGE RACEWAY TAYLOR STREET
CAMBRIDGE
WAIKATO 3434",Waikato,New Zealand,"THE CLUBHOUSE CAFE & SPORTS BAR CAMBRIDGE RACEWAY TAYLOR STREET
CAMBRIDGE
WAIKATO 3434 Waikato New Zealand ",-37.8804291,175.4564838
STAR TAVERN,"58 LYON STREET
KIHIKIHI
WAIKATO 3800",Waikato,New Zealand,"STAR TAVERN 58 LYON STREET
KIHIKIHI
WAIKATO 3800 Waikato New Zealand ",-38.0389004,175.3450239
Peach and Porker,"CORNER ALEXANDRA AND ROCHE STREETS
TE AWAMUTU
WAIKATO 3800",Waikato,New Zealand,"Peach and Porker CORNER ALEXANDRA AND ROCHE STREETS
TE AWAMUTU
WAIKATO 3800 Waikato New Zealand ",-38.0099156,175.3245516
PRINCE ALBERT TAVERN,"75 VICTORIA STREET
CAMBRIDGE
WAIKATO 3434",Waikato,New Zealand,"PRINCE ALBERT TAVERN 75 VICTORIA STREET
CAMBRIDGE
WAIKATO 3434 Waikato New Zealand ",-37.8939018,175.4680481
WAIPA WORKINGMENS CLUB INC,"137 ALBERT PARK DRIVE
TE AWAMUTU
WAIKATO 3800",Waikato,New Zealand,"WAIPA WORKINGMENS CLUB INC 137 ALBERT PARK DRIVE
TE AWAMUTU
WAIKATO 3800 Waikato New Zealand ",-38.01194,175.3278808
SUNSET POINT TAVERN,"CORNER RATAU AND NEWCASTLE STREETS
MAHIA BEACH
HAWKES BAY 4192",Hawke's Bay,New Zealand,"SUNSET POINT TAVERN CORNER RATAU AND NEWCASTLE STREETS
MAHIA BEACH
HAWKES BAY 4192 Hawke's Bay New Zealand ",-39.085773,177.8750615
FERRY HOTEL,"CAROLL STREET
WAIROA
HAWKES BAY 4192",Hawke's Bay,New Zealand,"FERRY HOTEL CAROLL STREET
WAIROA
HAWKES BAY 4192 Hawke's Bay New Zealand ",-39.0303522,177.417106
THE LAST POST,"12 THAMES STREET
OAMARU
OAMARU 9400",Canterbury,New Zealand,"THE LAST POST 12 THAMES STREET
OAMARU
OAMARU 9400 Canterbury New Zealand ",-45.1012506,170.9688149
WAIHEMO LODGE HOTEL,"13-15 RUNBRAKE STREET
PALMERSTON
NORTH OTAGO 9061",Canterbury,New Zealand,"WAIHEMO LODGE HOTEL 13-15 RUNBRAKE STREET
PALMERSTON
NORTH OTAGO 9061 Canterbury New Zealand ",-45.4833333,170.7169444
Boots & Jandals Hotel,"STATE HIGHWAY 8
OMARAMA
NORTH OTAGO 8950",Canterbury,New Zealand,"Boots & Jandals Hotel STATE HIGHWAY 8
OMARAMA
NORTH OTAGO 8950 Canterbury New Zealand ",-44.4876981,169.9660763
OAMARU CLUB,"32 SEVERN STREET
OAMARU
OAMARU 9400",Canterbury,New Zealand,"OAMARU CLUB 32 SEVERN STREET
OAMARU
OAMARU 9400 Canterbury New Zealand ",-45.0986977,170.9668923
NORTHSTAR MOTELS RESTAURANT AND BAR,"495A THAMES STREET
OAMARU
OAMARU 9400",Canterbury,New Zealand,"NORTHSTAR MOTELS RESTAURANT AND BAR 495A THAMES STREET
OAMARU
OAMARU 9400 Canterbury New Zealand ",-45.0729877,170.9900524
SPORTS CENTRAL BREWHOUSE,"CORNER WEAR AND THAMES STREETS
OAMARU
OAMARU 9400",Canterbury,New Zealand,"SPORTS CENTRAL BREWHOUSE CORNER WEAR AND THAMES STREETS
OAMARU
OAMARU 9400 Canterbury New Zealand ",-45.0990943,170.9716186
OTEMATATA DISTRICT CLUB,"Sefton Lane
OTEMATATA
NORTH OTAGO 9412
NEW ZEALAND",Canterbury,New Zealand,"OTEMATATA DISTRICT CLUB Sefton Lane
OTEMATATA
NORTH OTAGO 9412
NEW ZEALAND Canterbury New Zealand ",-44.6034496,170.1920259
WAITAKI HOTEL,"37 BLEDISLOE STREET
KUROW
NORTH OTAGO 9435",Canterbury,New Zealand,"WAITAKI HOTEL 37 BLEDISLOE STREET
KUROW
NORTH OTAGO 9435 Canterbury New Zealand ",-44.7338301,170.4699685
HAMPDEN TAVERN,"27 LONDON STREET
HAMPDEN
NORTH OTAGO 8950",Canterbury,New Zealand,"HAMPDEN TAVERN 27 LONDON STREET
HAMPDEN
NORTH OTAGO 8950 Canterbury New Zealand ",-45.3246599,170.8170963
"Otematata Eatery, Bar & Lodging","2736 OTEMATATA KUROW ROAD
OTEMATATA
NORTH OTAGO 8950",Canterbury,New Zealand,"Otematata Eatery, Bar & Lodging 2736 OTEMATATA KUROW ROAD
OTEMATATA
NORTH OTAGO 8950 Canterbury New Zealand ",-44.6032717,170.1949583
KUROW HOTEL,"55 BLEDISLOE STREET
KUROW
NORTH OTAGO 9435",Canterbury,New Zealand,"KUROW HOTEL 55 BLEDISLOE STREET
KUROW
NORTH OTAGO 9435 Canterbury New Zealand ",-44.732603,170.46963
GALLEON COMPLEX,"500 THAMES HIGHWAY
OAMARU
OAMARU 9400",Canterbury,New Zealand,"GALLEON COMPLEX 500 THAMES HIGHWAY
OAMARU
OAMARU 9400 Canterbury New Zealand ",-45.0688339,170.9929636
THE MUSTER BAR,"34-36 TAUPIRI STREET
TE KUITI
WAIKATO 2500",Waikato,New Zealand,"THE MUSTER BAR 34-36 TAUPIRI STREET
TE KUITI
WAIKATO 2500 Waikato New Zealand ",-38.3332765,175.1650244
PIOPIO COSMOPOLITAN CLUB INCORPORATED,"42 MOA STREET
PIOPIO
WAIKATO 2555",Waikato,New Zealand,"PIOPIO COSMOPOLITAN CLUB INCORPORATED 42 MOA STREET
PIOPIO
WAIKATO 2555 Waikato New Zealand ",-38.4655688,175.0168884
QUOTA CLUB TE KUITI,"71 TAUPIRI STREET
TE KUITI
WAIKATO 2500",Waikato,New Zealand,"QUOTA CLUB TE KUITI 71 TAUPIRI STREET
TE KUITI
WAIKATO 2500 Waikato New Zealand ",-38.3356944,175.1681688
Riverside Lodge,"1 RIVERSIDE LANE
TE KUITI
WAIKATO 2500",Waikato,New Zealand,"Riverside Lodge 1 RIVERSIDE LANE
TE KUITI
WAIKATO 2500 Waikato New Zealand ",-38.3338192,175.1672127
WAITOMO CLUB INCORPORATED,"KING STREET
TE KUITI
WAIKATO 2500",Waikato,New Zealand,"WAITOMO CLUB INCORPORATED KING STREET
TE KUITI
WAIKATO 2500 Waikato New Zealand ",-38.3328445,175.1652358
CASTLECLIFF CLUB INC,"4 TENNYSON STREET
CASTLECLIFF
WANGANUI DISTRICT 4501
NEW ZEALAND",Manawatu-Wanganui,New Zealand,"CASTLECLIFF CLUB INC 4 TENNYSON STREET
CASTLECLIFF
WANGANUI DISTRICT 4501
NEW ZEALAND Manawatu-Wanganui New Zealand ",-39.9421605,174.9927026
STELLAR BAR,"2 VICTORIA STREET
WANGANUI
WANGANUI DISTRICT 4540",Manawatu-Wanganui,New Zealand,"STELLAR BAR 2 VICTORIA STREET
WANGANUI
WANGANUI DISTRICT 4540 Manawatu-Wanganui New Zealand ",-39.9347034,175.0552967
CASTLECLIFF HOTEL,"1 POLSON STREET
WANGANUI
WANGANUI DISTRICT 4540",Manawatu-Wanganui,New Zealand,"CASTLECLIFF HOTEL 1 POLSON STREET
WANGANUI
WANGANUI DISTRICT 4540 Manawatu-Wanganui New Zealand ",-39.9426794,174.9940098
SHOTZ,"75 GUYTON STREET
WANGANUI
WANGANUI DISTRICT 4540",Manawatu-Wanganui,New Zealand,"SHOTZ 75 GUYTON STREET
WANGANUI
WANGANUI DISTRICT 4540 Manawatu-Wanganui New Zealand ",-39.931231,175.0502727
TANDOORI SPICE BAR,"88 GUYTON STREET
WANGANUI
WANGANUI DISTRICT 4540",Manawatu-Wanganui,New Zealand,"TANDOORI SPICE BAR 88 GUYTON STREET
WANGANUI
WANGANUI DISTRICT 4540 Manawatu-Wanganui New Zealand ",-39.9318431,175.0492125
Caroline's Boatshed,"181 SOMME PARADE
WANGANUI
WANGANUI DISTRICT 4540",Manawatu-Wanganui,New Zealand,"Caroline's Boatshed 181 SOMME PARADE
WANGANUI
WANGANUI DISTRICT 4540 Manawatu-Wanganui New Zealand ",-39.9073846,175.0560263
RED LION INN,"45-47 ANZAC PARADE
WANGANUI
WANGANUI DISTRICT 4540",Manawatu-Wanganui,New Zealand,"RED LION INN 45-47 ANZAC PARADE
WANGANUI
WANGANUI DISTRICT 4540 Manawatu-Wanganui New Zealand ",-39.9357595,175.0587544
TAB WANGANUI,"5B PURIRI STREET
GONVILLE
WANGANUI DISTRICT 5001",Manawatu-Wanganui,New Zealand,"TAB WANGANUI 5B PURIRI STREET
GONVILLE
WANGANUI DISTRICT 5001 Manawatu-Wanganui New Zealand ",-39.9414527,175.0220368
ST JOHN'S CLUB,"158 GLASGOW STREET
WANGANUI
WANGANUI DISTRICT 4500
NEW ZEALAND",Manawatu-Wanganui,New Zealand,"ST JOHN'S CLUB 158 GLASGOW STREET
WANGANUI
WANGANUI DISTRICT 4500
NEW ZEALAND Manawatu-Wanganui New Zealand ",-39.925,175.0397222
SPORTZ BAR,"197 VICTORIA AVENUE
WANGANUI
WANGANUI DISTRICT 4540",Manawatu-Wanganui,New Zealand,"SPORTZ BAR 197 VICTORIA AVENUE
WANGANUI
WANGANUI DISTRICT 4540 Manawatu-Wanganui New Zealand ",-39.9306084,175.0478045
THE GRAND HOTEL,"99 GUYTON STREET
WANGANUI
WANGANUI DISTRICT 4540",Manawatu-Wanganui,New Zealand,"THE GRAND HOTEL 99 GUYTON STREET
WANGANUI
WANGANUI DISTRICT 4540 Manawatu-Wanganui New Zealand ",-39.9324303,175.0491538
WANGANUI EAST CLUB,"101 WAKEFIELD STREET
WANGANUI
WANGANUI DISTRICT 4540",Manawatu-Wanganui,New Zealand,"WANGANUI EAST CLUB 101 WAKEFIELD STREET
WANGANUI
WANGANUI DISTRICT 4540 Manawatu-Wanganui New Zealand ",-39.9173165,175.0758331
WANGANUI RSA,"170 ST HILL STREET
WANGANUI
WANGANUI DISTRICT 4540",Manawatu-Wanganui,New Zealand,"WANGANUI RSA 170 ST HILL STREET
WANGANUI
WANGANUI DISTRICT 4540 Manawatu-Wanganui New Zealand ",-39.931774,175.047932
BROOKLYN BAR & BISTRO,"55 CLEVELAND STREET
BROOKLYN
WELLINGTON 6002",Wellington,New Zealand,"BROOKLYN BAR & BISTRO 55 CLEVELAND STREET
BROOKLYN
WELLINGTON 6002 Wellington New Zealand ",-41.3053401,174.7638873
One Fat Bird,"162 KARORI ROAD
KARORI
WELLINGTON 6005",Wellington,New Zealand,"One Fat Bird 162 KARORI ROAD
KARORI
WELLINGTON 6005 Wellington New Zealand ",-41.2825168,174.7449661
The Churchill,"126-132 Lambton Quay
WELLINGTON CENTRAL
WELLINGTON 6011
NEW ZEALAND",Wellington,New Zealand,"The Churchill 126-132 Lambton Quay
WELLINGTON CENTRAL
WELLINGTON 6011
NEW ZEALAND Wellington New Zealand ",-41.2807299,174.7756749
MERMAID BAR,"73-75 COURTENAY PLACE
WELLINGTON CENTRAL
WELLINGTON 6011",Wellington,New Zealand,"MERMAID BAR 73-75 COURTENAY PLACE
WELLINGTON CENTRAL
WELLINGTON 6011 Wellington New Zealand ",-41.2933078,174.7802479
NEWTOWN SPORTS BAR,"34 CONSTABLE STREET
NEWTOWN
WELLINGTON 6004",Wellington,New Zealand,"NEWTOWN SPORTS BAR 34 CONSTABLE STREET
NEWTOWN
WELLINGTON 6004 Wellington New Zealand ",-41.3137462,174.7819394
BAY 66 BAR & BISTRO,"66 BAY ROAD
KILBIRNIE
WELLINGTON 6022",Wellington,New Zealand,"BAY 66 BAR & BISTRO 66 BAY ROAD
KILBIRNIE
WELLINGTON 6022 Wellington New Zealand ",-41.3195036,174.7943524
ISLAND BAY SERVICES CLUB,"2 THE PARADE
ISLAND BAY
WELLINGTON 6002",Wellington,New Zealand,"ISLAND BAY SERVICES CLUB 2 THE PARADE
ISLAND BAY
WELLINGTON 6002 Wellington New Zealand ",-41.3281943,174.7742613
JOHNSONVILLE CLUB,"1 NORMAN LANE
JOHNSONVILLE
WELLINGTON 6004",Wellington,New Zealand,"JOHNSONVILLE CLUB 1 NORMAN LANE
JOHNSONVILLE
WELLINGTON 6004 Wellington New Zealand ",-41.2232361,174.8085049
THE CUTTING SPORTS CAFE,"32 MIRAMAR AVENUE
MIRAMAR
WELLINGTON 6003",Wellington,New Zealand,"THE CUTTING SPORTS CAFE 32 MIRAMAR AVENUE
MIRAMAR
WELLINGTON 6003 Wellington New Zealand ",-41.3155627,174.8140255
THE CORNER,"CORNER BAY AND RONGOTAI ROADS
KILBIRNIE
WELLINGTON 6022",Wellington,New Zealand,"THE CORNER CORNER BAY AND RONGOTAI ROADS
KILBIRNIE
WELLINGTON 6022 Wellington New Zealand ",-41.3179961,174.7948237
CORNER BAR 169,"169 WILLIS STREET
WELLINGTON CENTRAL
WELLINGTON 6011",Wellington,New Zealand,"CORNER BAR 169 169 WILLIS STREET
WELLINGTON CENTRAL
WELLINGTON 6011 Wellington New Zealand ",-41.29081,174.773945
The Residence,"SHOP 1 120 COURTENAY PLACE
WELLINGTON CENTRAL
WELLINGTON 6011",Wellington,New Zealand,"The Residence SHOP 1 120 COURTENAY PLACE
WELLINGTON CENTRAL
WELLINGTON 6011 Wellington New Zealand ",-41.292556,174.7794384
JJ MURPHYS,"119 CUBA STREET
WELLINGTON CENTRAL
WELLINGTON 6011",Wellington,New Zealand,"JJ MURPHYS 119 CUBA STREET
WELLINGTON CENTRAL
WELLINGTON 6011 Wellington New Zealand ",-41.2927778,174.7761111
The Vessel Cafe & Bar,"1 BUNNY STREET
WELLINGTON CENTRAL
WELLINGTON 6011",Wellington,New Zealand,"The Vessel Cafe & Bar 1 BUNNY STREET
WELLINGTON CENTRAL
WELLINGTON 6011 Wellington New Zealand ",-41.2802582,174.7799545
BACKBENCHER PUB & CAFE,"34 MOLESWORTH STREET
THORNDON
WELLINGTON 6144",Wellington,New Zealand,"BACKBENCHER PUB & CAFE 34 MOLESWORTH STREET
THORNDON
WELLINGTON 6144 Wellington New Zealand ",-41.2775652,174.7783721
FEATHERSTON BAR & GRILL,"GROUND FLOOR AGRICULTURAL HOUSE 132 FEATHERSTON STREET
LAMBTON
WELLINGTON 6001",Wellington,New Zealand,"FEATHERSTON BAR & GRILL GROUND FLOOR AGRICULTURAL HOUSE 132 FEATHERSTON STREET
LAMBTON
WELLINGTON 6001 Wellington New Zealand ",-41.2828143,174.7774341
LOVELOCKS SPORTS BAR,"8-12 BOND STREET
WELLINGTON CENTRAL
WELLINGTON 6011",Wellington,New Zealand,"LOVELOCKS SPORTS BAR 8-12 BOND STREET
WELLINGTON CENTRAL
WELLINGTON 6011 Wellington New Zealand ",-41.2891319,174.7754145
THE GRAND,"67-71 COURTENAY PLACE
WELLINGTON CENTRAL
WELLINGTON 6011",Wellington,New Zealand,"THE GRAND 67-71 COURTENAY PLACE
WELLINGTON CENTRAL
WELLINGTON 6011 Wellington New Zealand ",-41.2934,174.7803389
THE GREEN MAN,"15 WILLESTON STREET
WELLINGTON CENTRAL
WELLINGTON 6011",Wellington,New Zealand,"THE GREEN MAN 15 WILLESTON STREET
WELLINGTON CENTRAL
WELLINGTON 6011 Wellington New Zealand ",-41.286919,174.777145
BAD GRANNIES,"195 Cuba Street
TE ARO
WELLINGTON 6011
NEW ZEALAND",Wellington,New Zealand,"BAD GRANNIES 195 Cuba Street
TE ARO
WELLINGTON 6011
NEW ZEALAND Wellington New Zealand ",-41.2947317,174.7751245
Fringe Bar,"26-32 ALLEN STREET
WELLINGTON CENTRAL
WELLINGTON 6011",Wellington,New Zealand,"Fringe Bar 26-32 ALLEN STREET
WELLINGTON CENTRAL
WELLINGTON 6011 Wellington New Zealand ",-41.2932709,174.7820584
CLOCKWORKS,"191 MAIN ROAD
TAWA SOUTH
WELLINGTON 6006",Wellington,New Zealand,"CLOCKWORKS 191 MAIN ROAD
TAWA SOUTH
WELLINGTON 6006 Wellington New Zealand ",-41.1694849,174.8247155
LOCAL BAR,"3-5 STRATHMORE AVENUE
STRATHMORE
WELLINGTON 6022",Wellington,New Zealand,"LOCAL BAR 3-5 STRATHMORE AVENUE
STRATHMORE
WELLINGTON 6022 Wellington New Zealand ",-41.3251509,174.8206779
THE OFFICE CAFE & BAR,"124 RIDDIFORD STREET
NEWTOWN
WELLINGTON 6004",Wellington,New Zealand,"THE OFFICE CAFE & BAR 124 RIDDIFORD STREET
NEWTOWN
WELLINGTON 6004 Wellington New Zealand ",-41.312392,174.7792339
Newlands Arms,"1 BATCHELOR STREET
NEWLANDS
WELLINGTON 6004",Wellington,New Zealand,"Newlands Arms 1 BATCHELOR STREET
NEWLANDS
WELLINGTON 6004 Wellington New Zealand ",-41.2231818,174.8215576
The Borough,"162-168 Main Road
TAWA SOUTH
WELLINGTON 5028
NEW ZEALAND",Wellington,New Zealand,"The Borough 162-168 Main Road
TAWA SOUTH
WELLINGTON 5028
NEW ZEALAND Wellington New Zealand ",-41.1707393,174.8250044
1841 BAR & RESTAURANT,"1 DISRAELI STREET
JOHNSONVILLE
WELLINGTON 6004",Wellington,New Zealand,"1841 BAR & RESTAURANT 1 DISRAELI STREET
JOHNSONVILLE
WELLINGTON 6004 Wellington New Zealand ",-41.2251799,174.8077074
TAB TRAX,"PLATFORM 1 WELLINGTON RAILWAY STATION BUNNY STREET
WELLINGTON CENTRAL
WELLINGTON 6011",Wellington,New Zealand,"TAB TRAX PLATFORM 1 WELLINGTON RAILWAY STATION BUNNY STREET
WELLINGTON CENTRAL
WELLINGTON 6011 Wellington New Zealand ",-41.2791887,174.7803636
TAB COURTENAY PLACE,"SHOP 2, 89 COURTENAY PLACE
WELLINGTON CENTRAL
WELLINGTON 6011
NEW ZEALAND",Wellington,New Zealand,"TAB COURTENAY PLACE SHOP 2, 89 COURTENAY PLACE
WELLINGTON CENTRAL
WELLINGTON 6011
NEW ZEALAND Wellington New Zealand ",-41.2930368,174.7794396
TAB Johnsonville,"28 Johnsonville Road
JOHNSONVILLE
WELLINGTON 6037
NEW ZEALAND",Wellington,New Zealand,"TAB Johnsonville 28 Johnsonville Road
JOHNSONVILLE
WELLINGTON 6037
NEW ZEALAND Wellington New Zealand ",-41.222919,174.8069651
TAWA RSA,"89 OXFORD STREET
TAWA SOUTH
WELLINGTON 6006",Wellington,New Zealand,"TAWA RSA 89 OXFORD STREET
TAWA SOUTH
WELLINGTON 6006 Wellington New Zealand ",-41.1652194,174.8279223
THE PICKLE JAR,"5 PARKVALE ROAD
KARORI
WELLINGTON 6005",Wellington,New Zealand,"THE PICKLE JAR 5 PARKVALE ROAD
KARORI
WELLINGTON 6005 Wellington New Zealand ",-41.2841912,174.737085
Zoo Bar,"227 RIDDIFORD STREET
NEWTOWN
WELLINGTON 6004",Wellington,New Zealand,"Zoo Bar 227 RIDDIFORD STREET
NEWTOWN
WELLINGTON 6004 Wellington New Zealand ",-41.3154536,174.780681
FOUR KINGS,"52 TARANAKI STREET
TE ARO
WELLINGTON 6001",Wellington,New Zealand,"FOUR KINGS 52 TARANAKI STREET
TE ARO
WELLINGTON 6001 Wellington New Zealand ",-41.292415,174.77842
TURBO BAR,"20-32 Rongotai Road
KILBIRNIE
WELLINGTON 6022
NEW ZEALAND",Wellington,New Zealand,"TURBO BAR 20-32 Rongotai Road
KILBIRNIE
WELLINGTON 6022
NEW ZEALAND Wellington New Zealand ",-41.3179565,174.7944378
CAMBRIDGE HOTEL,"28 CAMBRIDGE TERRACE
WELLINGTON CENTRAL
WELLINGTON 6011",Wellington,New Zealand,"CAMBRIDGE HOTEL 28 CAMBRIDGE TERRACE
WELLINGTON CENTRAL
WELLINGTON 6011 Wellington New Zealand ",-41.2950022,174.7828948
HOTEL BRISTOL,"127-133 CUBA STREET
WELLINGTON CENTRAL
WELLINGTON 6011",Wellington,New Zealand,"HOTEL BRISTOL 127-133 CUBA STREET
WELLINGTON CENTRAL
WELLINGTON 6011 Wellington New Zealand ",-41.2930794,174.776062
ISLAND BAY BOWLING CLUB,"260 THE PARADE
ISLAND BAY
WELLINGTON 6002",Wellington,New Zealand,"ISLAND BAY BOWLING CLUB 260 THE PARADE
ISLAND BAY
WELLINGTON 6002 Wellington New Zealand ",-41.3390346,174.7716655
THE INNKEEPER OF JOHNSONVILLE,"11-13 BRODERICK ROAD
JOHNSONVILLE
WELLINGTON 6004",Wellington,New Zealand,"THE INNKEEPER OF JOHNSONVILLE 11-13 BRODERICK ROAD
JOHNSONVILLE
WELLINGTON 6004 Wellington New Zealand ",-41.2247616,174.8064779
THE ISLAND BAY BAR,"132-134 THE PARADE
ISLAND BAY
WELLINGTON 6002",Wellington,New Zealand,"THE ISLAND BAY BAR 132-134 THE PARADE
ISLAND BAY
WELLINGTON 6002 Wellington New Zealand ",-41.3344999,174.7732456
888 Sports Bar & Restaurant,"207-209 MAIN ROAD
TAWA SOUTH
WELLINGTON 6006",Wellington,New Zealand,"888 Sports Bar & Restaurant 207-209 MAIN ROAD
TAWA SOUTH
WELLINGTON 6006 Wellington New Zealand ",-41.1689309,174.8247442
KATIKATI R.S.A. AND CITIZENS CLUB,"HENRY ROAD
KATIKATI
BAY OF PLENTY 3063",Bay of Plenty,New Zealand,"KATIKATI R.S.A. AND CITIZENS CLUB HENRY ROAD
KATIKATI
BAY OF PLENTY 3063 Bay of Plenty New Zealand ",-37.5561838,175.9058387
FORTA LEZA RESTAURANT,"2656 STATE HIGHWAY 2
KATIKATI
BAY OF PLENTY 3063",Bay of Plenty,New Zealand,"FORTA LEZA RESTAURANT 2656 STATE HIGHWAY 2
KATIKATI
BAY OF PLENTY 3063 Bay of Plenty New Zealand ",-37.5985581,175.9152532
Hippy Pipi,"500 PUKEHINA PARADE
PUKEHINA
BAY OF PLENTY 3070",Bay of Plenty,New Zealand,"Hippy Pipi 500 PUKEHINA PARADE
PUKEHINA
BAY OF PLENTY 3070 Bay of Plenty New Zealand ",-37.7718696,176.4985393
Anann,"4 PALMER PLACE
TE PUKE
BAY OF PLENTY 3071",Bay of Plenty,New Zealand,"Anann 4 PALMER PLACE
TE PUKE
BAY OF PLENTY 3071 Bay of Plenty New Zealand ",-37.7847937,176.3295564
TE PUKE CITIZENS CLUB,"179-185 JELLICOE STREET
TE PUKE
BAY OF PLENTY 3119
NEW ZEALAND",Bay of Plenty,New Zealand,"TE PUKE CITIZENS CLUB 179-185 JELLICOE STREET
TE PUKE
BAY OF PLENTY 3119
NEW ZEALAND Bay of Plenty New Zealand ",-37.7825873,176.3200991
TE PUNA TAVERN,"15 MINDEN ROAD
TE PUNA
BAY OF PLENTY 3021",Bay of Plenty,New Zealand,"TE PUNA TAVERN 15 MINDEN ROAD
TE PUNA
BAY OF PLENTY 3021 Bay of Plenty New Zealand ",-37.6965785,176.0735464
THE BOOHAI,"112 MAIN ROAD
KATIKATI
BAY OF PLENTY 3063",Bay of Plenty,New Zealand,"THE BOOHAI 112 MAIN ROAD
KATIKATI
BAY OF PLENTY 3063 Bay of Plenty New Zealand ",-37.5582573,175.9160894
Stadium Sports Bar,"91 JELLICOE STREET
TE PUKE
BAY OF PLENTY 3071",Bay of Plenty,New Zealand,"Stadium Sports Bar 91 JELLICOE STREET
TE PUKE
BAY OF PLENTY 3071 Bay of Plenty New Zealand ",-37.7846563,176.3271341
TE PUKE HOTEL,"110 JELLICOE STREET
TE PUKE
BAY OF PLENTY 3071",Bay of Plenty,New Zealand,"TE PUKE HOTEL 110 JELLICOE STREET
TE PUKE
BAY OF PLENTY 3071 Bay of Plenty New Zealand ",-37.7841598,176.3269382
TALISMAN HOTEL,"7-9 MAIN ROAD
KATIKATI
BAY OF PLENTY 3063",Bay of Plenty,New Zealand,"TALISMAN HOTEL 7-9 MAIN ROAD
KATIKATI
BAY OF PLENTY 3063 Bay of Plenty New Zealand ",-37.5522479,175.9181213
WAIHI BEACH RSA,"99 WAIHI BEACH ROAD
WAIHI BEACH
BAY OF PLENTY 2980",Bay of Plenty,New Zealand,"WAIHI BEACH RSA 99 WAIHI BEACH ROAD
WAIHI BEACH
BAY OF PLENTY 2980 Bay of Plenty New Zealand ",-37.4068551,175.9354187
RAILWAY HOTEL,"34 WELD STREET
HOKITIKA
WESTLAND 7900",West Coast,New Zealand,"RAILWAY HOTEL 34 WELD STREET
HOKITIKA
WESTLAND 7900 West Coast New Zealand ",-42.7179208,170.9636784
HOKITIKA CHARTERED CLUB,"42 HAMILTON STREET
HOKITIKA
WESTLAND 7810
NEW ZEALAND",West Coast,New Zealand,"HOKITIKA CHARTERED CLUB 42 HAMILTON STREET
HOKITIKA
WESTLAND 7810
NEW ZEALAND West Coast New Zealand ",-42.718708,170.9625244
HOTEL HARI HARI,"MAIN ROAD
HARIHARI
WESTLAND 7953",West Coast,New Zealand,"HOTEL HARI HARI MAIN ROAD
HARIHARI
WESTLAND 7953 West Coast New Zealand ",-43.15021,170.5642
PIONEER HOTEL,"80 GIBSON QUAY
HOKITIKA
WESTLAND 7900",West Coast,New Zealand,"PIONEER HOTEL 80 GIBSON QUAY
HOKITIKA
WESTLAND 7900 West Coast New Zealand ",-42.7204873,170.9650325
STUMPERS,"94-96 REVELL STREET
HOKITIKA
WESTLAND 7900",West Coast,New Zealand,"STUMPERS 94-96 REVELL STREET
HOKITIKA
WESTLAND 7900 West Coast New Zealand ",-42.7169359,170.9621519
BEACHFRONT HOTEL,"111 REVELL STREET
HOKITIKA
WESTLAND 7900",West Coast,New Zealand,"BEACHFRONT HOTEL 111 REVELL STREET
HOKITIKA
WESTLAND 7900 West Coast New Zealand ",-42.7164375,170.9624377
FOX GLACIER HOTEL,"11 COOK FLAT ROAD
FOX GLACIER
WESTLAND 7859",West Coast,New Zealand,"FOX GLACIER HOTEL 11 COOK FLAT ROAD
FOX GLACIER
WESTLAND 7859 West Coast New Zealand ",-43.464564,170.0165174
WHAKATANE HOTEL,"79 THE STRAND
WHAKATANE CENTRAL
WHAKATANE 3080",Bay of Plenty,New Zealand,"WHAKATANE HOTEL 79 THE STRAND
WHAKATANE CENTRAL
WHAKATANE 3080 Bay of Plenty New Zealand ",-37.950608,176.998116
COBB & CO,"81 THE STRAND
WHAKATANE CENTRAL
WHAKATANE 3080",Bay of Plenty,New Zealand,"COBB & CO 81 THE STRAND
WHAKATANE CENTRAL
WHAKATANE 3080 Bay of Plenty New Zealand ",-37.9506222,176.9980996
OHOPE CHARTERED CLUB,"7 Bluett Road
OHOPE
WHAKATANE 3121
NEW ZEALAND",Bay of Plenty,New Zealand,"OHOPE CHARTERED CLUB 7 Bluett Road
OHOPE
WHAKATANE 3121
NEW ZEALAND Bay of Plenty New Zealand ",-37.972941,177.058817
RANGITAIKI COSMOPOLITAN CLUB,"11 BRIDGE STREET
EDGECUMBE
WHAKATANE 3082",Bay of Plenty,New Zealand,"RANGITAIKI COSMOPOLITAN CLUB 11 BRIDGE STREET
EDGECUMBE
WHAKATANE 3082 Bay of Plenty New Zealand ",-37.9766423,176.829123
PLAINS HOTEL,"11-19 COLLEGE ROAD
EDGECUMBE
WHAKATANE 3082",Bay of Plenty,New Zealand,"PLAINS HOTEL 11-19 COLLEGE ROAD
EDGECUMBE
WHAKATANE 3082 Bay of Plenty New Zealand ",-37.9763389,176.8278769
MURUPARA HOTEL,"PINE DRIVE
MURUPARA
ROTORUA 3025
NEW ZEALAND",Bay of Plenty,New Zealand,"MURUPARA HOTEL PINE DRIVE
MURUPARA
ROTORUA 3025
NEW ZEALAND Bay of Plenty New Zealand ",-38.4555113,176.7036966
THE QUART HOUSE BAR,"115 THE STRAND
WHAKATANE CENTRAL
WHAKATANE 3080",Bay of Plenty,New Zealand,"THE QUART HOUSE BAR 115 THE STRAND
WHAKATANE CENTRAL
WHAKATANE 3080 Bay of Plenty New Zealand ",-37.9514312,176.9970745
KOPE TURF BAR,"7-9 JAMES STREET
WHAKATANE CENTRAL
WHAKATANE 3080",Bay of Plenty,New Zealand,"KOPE TURF BAR 7-9 JAMES STREET
WHAKATANE CENTRAL
WHAKATANE 3080 Bay of Plenty New Zealand ",-37.9617707,176.9812635
MATATA HOTEL,"47 ARAWA STREET
MATATA
WHAKATANE 3084",Bay of Plenty,New Zealand,"MATATA HOTEL 47 ARAWA STREET
MATATA
WHAKATANE 3084 Bay of Plenty New Zealand ",-37.8880397,176.7562286
WHAKATANE RSA CLUB,"13/23 RICHARDSON STREET
WHAKATANE CENTRAL
WHAKATANE 3158
NEW ZEALAND",Bay of Plenty,New Zealand,"WHAKATANE RSA CLUB 13/23 RICHARDSON STREET
WHAKATANE CENTRAL
WHAKATANE 3158
NEW ZEALAND Bay of Plenty New Zealand ",-37.9536822,176.9939148
WHAKATANE SPORTFISHING CLUB,"MURIWAI DRIVE
WHAKATANE CENTRAL
WHAKATANE 3080",Bay of Plenty,New Zealand,"WHAKATANE SPORTFISHING CLUB MURIWAI DRIVE
WHAKATANE CENTRAL
WHAKATANE 3080 Bay of Plenty New Zealand ",-37.949307,177.003042
KAMO CLUB,"7-11 Meldrum Street
KAMO
NORTHLAND 0141
NEW ZEALAND",Northland,New Zealand,"KAMO CLUB 7-11 Meldrum Street
KAMO
NORTHLAND 0141
NEW ZEALAND Northland New Zealand ",-35.6806,174.3017
KENSINGTON CLUB,"4-6 HUAPAI STREET
WHANGAREI CENTRAL
NORTHLAND 0112
NEW ZEALAND",Northland,New Zealand,"KENSINGTON CLUB 4-6 HUAPAI STREET
WHANGAREI CENTRAL
NORTHLAND 0112
NEW ZEALAND Northland New Zealand ",-35.7095123,174.3235462
NGUNGURU SPORTS COMPLEX,"Kopipi Crescent
WHANGAREI CENTRAL
NORTHLAND 0110
NEW ZEALAND",Northland,New Zealand,"NGUNGURU SPORTS COMPLEX Kopipi Crescent
WHANGAREI CENTRAL
NORTHLAND 0110
NEW ZEALAND Northland New Zealand ",-35.6284313,174.5041591
NORTHLAND CLUB INC,"8 Porowini Avenue
WHANGAREI CENTRAL
NORTHLAND 0110
NEW ZEALAND",Northland,New Zealand,"NORTHLAND CLUB INC 8 Porowini Avenue
WHANGAREI CENTRAL
NORTHLAND 0110
NEW ZEALAND Northland New Zealand ",-35.7295517,174.3162329
WAIPU HOTEL,"SOUTH ROAD
WAIPU
NORTHLAND 0582",Northland,New Zealand,"WAIPU HOTEL SOUTH ROAD
WAIPU
NORTHLAND 0582 Northland New Zealand ",-35.9854807,174.4473694
Jimmy Jacks Rib Shack & Craft Bar,"117-119 BANK STREET
WHANGAREI CENTRAL
NORTHLAND 0110",Northland,New Zealand,"Jimmy Jacks Rib Shack & Craft Bar 117-119 BANK STREET
WHANGAREI CENTRAL
NORTHLAND 0110 Northland New Zealand ",-35.721417,174.3202481
JUDGE - HOUSE OF ALE,"57 WALTON STREET
WHANGAREI CENTRAL
NORTHLAND 0110",Northland,New Zealand,"JUDGE - HOUSE OF ALE 57 WALTON STREET
WHANGAREI CENTRAL
NORTHLAND 0110 Northland New Zealand ",-35.7259694,174.3226449
TOTE & POKE,"79 CAMERON STREET
WHANGAREI CENTRAL
NORTHLAND 0110",Northland,New Zealand,"TOTE & POKE 79 CAMERON STREET
WHANGAREI CENTRAL
NORTHLAND 0110 Northland New Zealand ",-35.7262531,174.321354
Pure Bar & Grill,"79A CAMERON STREET
WHANGAREI CENTRAL
NORTHLAND 0110",Northland,New Zealand,"Pure Bar & Grill 79A CAMERON STREET
WHANGAREI CENTRAL
NORTHLAND 0110 Northland New Zealand ",-35.7262688,174.3213654
HIKURANGI HOTEL,"18 KING STREET
HIKURANGI
NORTHLAND 0114",Northland,New Zealand,"HIKURANGI HOTEL 18 KING STREET
HIKURANGI
NORTHLAND 0114 Northland New Zealand ",-35.5980605,174.2867149
KENSINGTON TAVERN,"3 KENSINGTON AVENUE
WHANGAREI CENTRAL
NORTHLAND 0110",Northland,New Zealand,"KENSINGTON TAVERN 3 KENSINGTON AVENUE
WHANGAREI CENTRAL
NORTHLAND 0110 Northland New Zealand ",-35.7091736,174.3205476
POROTI TAVERN,"MANGAKAHIA ROAD
WHANGAREI CENTRAL
NORTHLAND 0110",Northland,New Zealand,"POROTI TAVERN MANGAKAHIA ROAD
WHANGAREI CENTRAL
NORTHLAND 0110 Northland New Zealand ",-35.7375186,174.1306873
ONERAHI TAVERN,"CORNER WAVERLY STREET AND ONERAHI ROAD
ONERAHI
NORTHLAND 0110",Northland,New Zealand,"ONERAHI TAVERN CORNER WAVERLY STREET AND ONERAHI ROAD
ONERAHI
NORTHLAND 0110 Northland New Zealand ",-35.7541667,174.3675
THE GRAND HOTEL (WHANGAREI),"CORNER ROSE AND BANK STREETS
WHANGAREI CENTRAL
NORTHLAND 0110",Northland,New Zealand,"THE GRAND HOTEL (WHANGAREI) CORNER ROSE AND BANK STREETS
WHANGAREI CENTRAL
NORTHLAND 0110 Northland New Zealand ",-35.7263467,174.3193432
Coalies Sports Bar And Grill,"2 STATION ROAD
KAMO
NORTHLAND 0141",Northland,New Zealand,"Coalies Sports Bar And Grill 2 STATION ROAD
KAMO
NORTHLAND 0141 Northland New Zealand ",-35.6818241,174.3007386
TIKIPUNGA TAVERN,"3 WANAKA STREET
WHANGAREI CENTRAL
NORTHLAND 0110",Northland,New Zealand,"TIKIPUNGA TAVERN 3 WANAKA STREET
WHANGAREI CENTRAL
NORTHLAND 0110 Northland New Zealand ",-35.6842095,174.3205417
THE WHANGAREI RETURNED SERVICES ASSOCIATION INCORPORATED,"9 RUST AVENUE
WHANGAREI CENTRAL
NORTHLAND 0110",Northland,New Zealand,"THE WHANGAREI RETURNED SERVICES ASSOCIATION INCORPORATED 9 RUST AVENUE
WHANGAREI CENTRAL
NORTHLAND 0110 Northland New Zealand ",-35.7268672,174.323561
Kensington Fun House,"183 Manchester Street
CHRISTCHURCH CENTRAL
CHRISTCHURCH 8011
NEW ZEALAND",Canterbury,New Zealand,"Kensington Fun House 183 Manchester Street
CHRISTCHURCH CENTRAL
CHRISTCHURCH 8011
NEW ZEALAND Canterbury New Zealand ",-43.5326202,172.6394848
Armadillo's Beckenham,"155 COLOMBO STREET
BECKENHAM
CHRISTCHURCH 8002",Canterbury,New Zealand,"Armadillo's Beckenham 155 COLOMBO STREET
BECKENHAM
CHRISTCHURCH 8002 Canterbury New Zealand ",-43.5566559,172.6367035
PUNTERS CORNER SPORTS BAR AND TAB,"284 Rangiuru Road
OTAKI
KAPITI COAST 5512
NEW ZEALAND",Wellington,New Zealand,"PUNTERS CORNER SPORTS BAR AND TAB 284 Rangiuru Road
OTAKI
KAPITI COAST 5512
NEW ZEALAND Wellington New Zealand ",-40.7516571,175.1377202
Fusion Bar & Grill,"112 High Street
LOWER HUTT CENTRAL
LOWER HUTT 5010
NEW ZEALAND",Wellington,New Zealand,"Fusion Bar & Grill 112 High Street
LOWER HUTT CENTRAL
LOWER HUTT 5010
NEW ZEALAND Wellington New Zealand ",-41.210356,174.901507
Ruakaka Tavern,"CORNER MARSDEN POINT ROAD AND SIME ROAD
MARSDEN POINT-RUAKAKA
NORTHLAND 0171",Northland,New Zealand,"Ruakaka Tavern CORNER MARSDEN POINT ROAD AND SIME ROAD
MARSDEN POINT-RUAKAKA
NORTHLAND 0171 Northland New Zealand ",-35.8721885,174.4568939
Good Home Lincoln Road,"159 LINCOLN ROAD
HENDERSON
AUCKLAND 0612",Auckland,New Zealand,"Good Home Lincoln Road 159 LINCOLN ROAD
HENDERSON
AUCKLAND 0612 Auckland New Zealand ",-36.862474,174.6295257
MASONIC HOTEL (RAWENE),"8 Parnell Street
RAWENE
NORTHLAND 0473
NEW ZEALAND",Northland,New Zealand,"MASONIC HOTEL (RAWENE) 8 Parnell Street
RAWENE
NORTHLAND 0473
NEW ZEALAND Northland New Zealand ",-35.3936785,173.5052794
BUTLERS REEF,"1133 South Road
OAKURA
TARANAKI 4650
NEW ZEALAND",Taranaki,New Zealand,"BUTLERS REEF 1133 South Road
OAKURA
TARANAKI 4650
NEW ZEALAND Taranaki New Zealand ",-39.1158391,173.9573698
LA MEXICA,"109 The Strand
TAURANGA CENTRAL
TAURANGA 3110
NEW ZEALAND",Bay of Plenty,New Zealand,"LA MEXICA 109 The Strand
TAURANGA CENTRAL
TAURANGA 3110
NEW ZEALAND Bay of Plenty New Zealand ",-37.683876,176.169964
Clyde Sports Bar,"MARINE PARADE
WAIROA
HAWKES BAY 4192",Hawke's Bay,New Zealand,"Clyde Sports Bar MARINE PARADE
WAIROA
HAWKES BAY 4192 Hawke's Bay New Zealand ",-39.0338762,177.4247523
Mr Wang's Bar,"244-256 DOMINION ROAD
MOUNT EDEN
AUCKLAND 1024",Auckland,New Zealand,"Mr Wang's Bar 244-256 DOMINION ROAD
MOUNT EDEN
AUCKLAND 1024 Auckland New Zealand ",-36.89027,174.7465841
EAST COAST BAYS RSA,"784 Beach Road
BROWNS BAY
NORTH SHORE CITY 0630
NEW ZEALAND",Auckland,New Zealand,"EAST COAST BAYS RSA 784 Beach Road
BROWNS BAY
NORTH SHORE CITY 0630
NEW ZEALAND Auckland New Zealand ",-36.7145734,174.7428482
GISBORNE RSA CLUB,"CORNER CHILDERS ROAD AND BRIGHT STREET
GISBORNE CENTRAL
GISBORNE 4010",Gisborne,New Zealand,"GISBORNE RSA CLUB CORNER CHILDERS ROAD AND BRIGHT STREET
GISBORNE CENTRAL
GISBORNE 4010 Gisborne New Zealand ",-38.666625,178.0233216
CLUB HOTEL (SHANNON),"2 BALLANCE STREET
SHANNON
MANAWATU 5555",Manawatu-Wanganui,New Zealand,"CLUB HOTEL (SHANNON) 2 BALLANCE STREET
SHANNON
MANAWATU 5555 Manawatu-Wanganui New Zealand ",-40.5475148,175.4107887
HORSE & HOUND BAR PETONE,"219 JACKSON STREET
PETONE
LOWER HUTT 5012",Wellington,New Zealand,"HORSE & HOUND BAR PETONE 219 JACKSON STREET
PETONE
LOWER HUTT 5012 Wellington New Zealand ",-41.2255786,174.8802286
Pig and Whistle Pub,"41 BALLARAT STREET
QUEENSTOWN
OTAGO 9300
NEW ZEALAND",Otago,New Zealand,"Pig and Whistle Pub 41 BALLARAT STREET
QUEENSTOWN
OTAGO 9300
NEW ZEALAND Otago New Zealand ",-45.0316154,168.6624484
Hillcrest Haven,"276 CAMBRIDGE ROAD
HILLCREST
HAMILTON 3216",Waikato,New Zealand,"Hillcrest Haven 276 CAMBRIDGE ROAD
HILLCREST
HAMILTON 3216 Waikato New Zealand ",-37.8014237,175.3219331
Club Hastings,"308 VICTORIA STREET
HASTINGS CENTRAL
HAWKES BAY 4201",Hawke's Bay,New Zealand,"Club Hastings 308 VICTORIA STREET
HASTINGS CENTRAL
HAWKES BAY 4201 Hawke's Bay New Zealand ",-39.6405925,176.8513293
The Rocker Box,"476 POLLEN STREET
THAMES
WAIKATO 2801",Waikato,New Zealand,"The Rocker Box 476 POLLEN STREET
THAMES
WAIKATO 2801 Waikato New Zealand ",-37.1401284,175.5430267
Phat Duck Ashburton,"360 WEST STREET
ASHBURTON
CANTERBURY 8300",Canterbury,New Zealand,"Phat Duck Ashburton 360 WEST STREET
ASHBURTON
CANTERBURY 8300 Canterbury New Zealand ",-43.8963729,171.7592315
AVONDALE RETURNED SERVICES ASSOCIATION,"48 Rosebank Road
AVONDALE
AUCKLAND 1026
NEW ZEALAND",Auckland,New Zealand,"AVONDALE RETURNED SERVICES ASSOCIATION 48 Rosebank Road
AVONDALE
AUCKLAND 1026
NEW ZEALAND Auckland New Zealand ",-36.8947706,174.6977955
The Baaa Sports Bar & Grill,"746 GREAT KING STREET
NORTH DUNEDIN
DUNEDIN 9016",Otago,New Zealand,"The Baaa Sports Bar & Grill 746 GREAT KING STREET
NORTH DUNEDIN
DUNEDIN 9016 Otago New Zealand ",-45.8591555,170.5134106
The Flying Mullet Ale House,"4/38 GRAVATT ROAD
PAPAMOA
BAY OF PLENTY 3118
NEW ZEALAND",Bay of Plenty,New Zealand,"The Flying Mullet Ale House 4/38 GRAVATT ROAD
PAPAMOA
BAY OF PLENTY 3118
NEW ZEALAND Bay of Plenty New Zealand ",-37.7011641,176.2805506
SPORTS BAR 185,"UNIT 9
185 GREAT SOUTH ROAD
MANUREWA
MANUKAU 1702
NEW ZEALAND",Auckland,New Zealand,"SPORTS BAR 185 UNIT 9
185 GREAT SOUTH ROAD
MANUREWA
MANUKAU 1702
NEW ZEALAND Auckland New Zealand ",-37.0222747,174.8968521
"Woodside Bar, Kitchen & Functions","3 RONWOOD AVENUE
MANUKAU CITY
MANUKAU 1701",Auckland,New Zealand,"Woodside Bar, Kitchen & Functions 3 RONWOOD AVENUE
MANUKAU CITY
MANUKAU 1701 Auckland New Zealand ",-36.9888835,174.8807687
THOROUGHBRED SPORTS BAR & RESTAURANT,"2 THE FURLONG
TAKANINI
PAPAKURA 1702",Auckland,New Zealand,"THOROUGHBRED SPORTS BAR & RESTAURANT 2 THE FURLONG
TAKANINI
PAPAKURA 1702 Auckland New Zealand ",-37.0484209,174.9257835
The Blacksmith,"Unit 1 
30 Walters Road
TAKANINI
PAPAKURA 2112
NEW ZEALAND",Auckland,New Zealand,"The Blacksmith Unit 1 
30 Walters Road
TAKANINI
PAPAKURA 2112
NEW ZEALAND Auckland New Zealand ",-37.0475531,174.930903
The Crescent Bar & Grill,"CLYDE TERRACE
KAITANGATA
OTAGO 9200",Otago,New Zealand,"The Crescent Bar & Grill CLYDE TERRACE
KAITANGATA
OTAGO 9200 Otago New Zealand ",-46.2850791,169.8435266
The Jolly Pub & Kitchen,"93 MAZENGARB ROAD
PARAPARAUMU
KAPITI COAST 5254",Wellington,New Zealand,"The Jolly Pub & Kitchen 93 MAZENGARB ROAD
PARAPARAUMU
KAPITI COAST 5254 Wellington New Zealand ",-40.8867893,175.0021531
Mainstreet Sports Bar,"37 HIGH STREET
RANGIORA
CANTERBURY 7400",Canterbury,New Zealand,"Mainstreet Sports Bar 37 HIGH STREET
RANGIORA
CANTERBURY 7400 Canterbury New Zealand ",-43.3032974,172.5972856
Love Punjab Restaurant and Bar,"220 GREAT SOUTH ROAD
MANUREWA
MANUKAU 1702",Auckland,New Zealand,"Love Punjab Restaurant and Bar 220 GREAT SOUTH ROAD
MANUREWA
MANUKAU 1702 Auckland New Zealand ",-37.0228136,174.8983875
"Woodside Bar, Kitchen & Functions","639 Great South Rd
MANUKAU CITY
MANUKAU 1701
NEW ZEALAND",Auckland,New Zealand,"Woodside Bar, Kitchen & Functions 639 Great South Rd
MANUKAU CITY
MANUKAU 1701
NEW ZEALAND Auckland New Zealand ",-36.9888835,174.8807687
The Salty Dog Inn,"242 MAHURANGI EAST ROAD
SNELLS BEACH
RODNEY DISTRICT 1241",Auckland,New Zealand,"The Salty Dog Inn 242 MAHURANGI EAST ROAD
SNELLS BEACH
RODNEY DISTRICT 1241 Auckland New Zealand ",-36.4180309,174.7230745
Malfroy's Bar,"172-176 MALFROY ROAD
ROTORUA CENTRAL
ROTORUA 3201",Bay of Plenty,New Zealand,"Malfroy's Bar 172-176 MALFROY ROAD
ROTORUA CENTRAL
ROTORUA 3201 Bay of Plenty New Zealand ",-38.14485,176.2371207
Railway Richmond,"321 QUEEN STREET
RICHMOND
NELSON 7020
NEW ZEALAND",Tasman,New Zealand,"Railway Richmond 321 QUEEN STREET
RICHMOND
NELSON 7020
NEW ZEALAND Tasman New Zealand ",-41.3366198,173.1812671
Elsie's Restaurant & Bar,"3 GEORGE STREET
TUAKAU
FRANKLIN 1892",Waikato,New Zealand,"Elsie's Restaurant & Bar 3 GEORGE STREET
TUAKAU
FRANKLIN 1892 Waikato New Zealand ",-37.2577065,174.9470903
Kamo Hotel,"567 KAMO ROAD
WHANGAREI CENTRAL
NORTHLAND 0110",Northland,New Zealand,"Kamo Hotel 567 KAMO ROAD
WHANGAREI CENTRAL
NORTHLAND 0110 Northland New Zealand ",-35.682511,174.300272
The Elmwood Trading Co.,"1 NORMANS ROAD
MERIVALE
CHRISTCHURCH 8014",Canterbury,New Zealand,"The Elmwood Trading Co. 1 NORMANS ROAD
MERIVALE
CHRISTCHURCH 8014 Canterbury New Zealand ",-43.5094306,172.6066337
BAR 101,"192 Victoria Street
HAMILTON CENTRAL
HAMILTON 3204
NEW ZEALAND",Waikato,New Zealand,"BAR 101 192 Victoria Street
HAMILTON CENTRAL
HAMILTON 3204
NEW ZEALAND Waikato New Zealand ",-37.7892688,175.2843711
New Oxford Hotel,"289-295 OXFORD STREET
LEVIN
MANAWATU 5500",Manawatu-Wanganui,New Zealand,"New Oxford Hotel 289-295 OXFORD STREET
LEVIN
MANAWATU 5500 Manawatu-Wanganui New Zealand ",-40.6198731,175.2882964
Roadhouse Bar and Grill,"CORNER LAINGS ROAD AND QUEENS DRIVE
LOWER HUTT CENTRAL
LOWER HUTT 5010",Wellington,New Zealand,"Roadhouse Bar and Grill CORNER LAINGS ROAD AND QUEENS DRIVE
LOWER HUTT CENTRAL
LOWER HUTT 5010 Wellington New Zealand ",-41.2108794,174.9013678
RAZZA BAR & CAFE,"28 TASMAN ROAD
TWIZEL
CANTERBURY 8773",Canterbury,New Zealand,"RAZZA BAR & CAFE 28 TASMAN ROAD
TWIZEL
CANTERBURY 8773 Canterbury New Zealand ",-44.2567204,170.0974691
Titahi Bay Returned Services Association Incorporated,"74 MAIN ROAD
TITAHI BAY
PORIRUA 5022
NEW ZEALAND",Wellington,New Zealand,"Titahi Bay Returned Services Association Incorporated 74 MAIN ROAD
TITAHI BAY
PORIRUA 5022
NEW ZEALAND Wellington New Zealand ",-41.1087047,174.8399933
Seven Bar Ltd,"3 KING STREET
UPPER HUTT CENTRAL
UPPER HUTT 6007",Wellington,New Zealand,"Seven Bar Ltd 3 KING STREET
UPPER HUTT CENTRAL
UPPER HUTT 6007 Wellington New Zealand ",-41.1236225,175.0748628
Belmont Bar,"148 LAKE ROAD
BELMONT
NORTH SHORE CITY 1309",Auckland,New Zealand,"Belmont Bar 148 LAKE ROAD
BELMONT
NORTH SHORE CITY 1309 Auckland New Zealand ",-36.8078685,174.7902411
The Final Whistle Sports Bar,"77 STEVENS STREET
PHILLIPSTOWN
CHRISTCHURCH 8011",Canterbury,New Zealand,"The Final Whistle Sports Bar 77 STEVENS STREET
PHILLIPSTOWN
CHRISTCHURCH 8011 Canterbury New Zealand ",-43.5406379,172.6558185
BAR 101,"171 Victoria Street
HAMILTON CENTRAL
HAMILTON 3204
NEW ZEALAND",Waikato,New Zealand,"BAR 101 171 Victoria Street
HAMILTON CENTRAL
HAMILTON 3204
NEW ZEALAND Waikato New Zealand ",-37.7894184,175.284584
Bar 59,"59-61 PEEL STREET
GISBORNE CENTRAL
GISBORNE 4010",Gisborne,New Zealand,"Bar 59 59-61 PEEL STREET
GISBORNE CENTRAL
GISBORNE 4010 Gisborne New Zealand ",-38.66656,178.0254225
Currizza's Tavern,"342 West Heretaunga Street West
HASTINGS CENTRAL
HAWKES BAY 4201
NEW ZEALAND",Hawke's Bay,New Zealand,"Currizza's Tavern 342 West Heretaunga Street West
HASTINGS CENTRAL
HAWKES BAY 4201
NEW ZEALAND Hawke's Bay New Zealand ",-39.6394643,176.840465
The Prince Albert,"20 Alison Avenue
Albert Town
WANAKA
OTAGO 9305
NEW ZEALAND",Otago,New Zealand,"The Prince Albert 20 Alison Avenue
Albert Town
WANAKA
OTAGO 9305
NEW ZEALAND Otago New Zealand ",-44.6832272,169.1888976
The Junction Bar,"700 POLLEN STREET
THAMES
WAIKATO 3500
NEW ZEALAND",Waikato,New Zealand,"The Junction Bar 700 POLLEN STREET
THAMES
WAIKATO 3500
NEW ZEALAND Waikato New Zealand ",-37.1360044,175.5410222
Bar 29,"29 George Street
TUAKAU
FRANKLIN 2121
NEW ZEALAND",Waikato,New Zealand,"Bar 29 29 George Street
TUAKAU
FRANKLIN 2121
NEW ZEALAND Waikato New Zealand ",-37.2589063,174.9466305
On the Rocks,"97-99 KITCHENER ROAD
MILFORD
AUCKLAND 0741",Auckland,New Zealand,"On the Rocks 97-99 KITCHENER ROAD
MILFORD
AUCKLAND 0741 Auckland New Zealand ",-36.7729626,174.7668174
The Vic 31 Bar & Cafe,"31 VICTORIA STREET
CHRISTCHURCH CENTRAL
CHRISTCHURCH 8001",Canterbury,New Zealand,"The Vic 31 Bar & Cafe 31 VICTORIA STREET
CHRISTCHURCH CENTRAL
CHRISTCHURCH 8001 Canterbury New Zealand ",-43.5264225,172.6329885
TONYS PLACE,"53 OXFORD STREET
LEVIN
MANAWATU 5500",Manawatu-Wanganui,New Zealand,"TONYS PLACE 53 OXFORD STREET
LEVIN
MANAWATU 5500 Manawatu-Wanganui New Zealand ",-40.6299969,175.2783269
Fox and Hounds,"92 Roberts Street
TAUPO
TAUPO DISTRICT 3330
NEW ZEALAND",Waikato,New Zealand,"Fox and Hounds 92 Roberts Street
TAUPO
TAUPO DISTRICT 3330
NEW ZEALAND Waikato New Zealand ",-38.6903916,176.0736672
Malt N Steel,"72 QUEEN STREET
WAIUKU
FRANKLIN 2123",Auckland,New Zealand,"Malt N Steel 72 QUEEN STREET
WAIUKU
FRANKLIN 2123 Auckland New Zealand ",-37.2505561,174.731031
The Local,"109B MEADOWLAND DRIVE
HOWICK
MANUKAU 1704",Auckland,New Zealand,"The Local 109B MEADOWLAND DRIVE
HOWICK
MANUKAU 1704 Auckland New Zealand ",-36.912585,174.93031
Wapiti Sports Bar,"2/12 Carrington Road
POINT CHEVALIER
AUCKLAND 1022
NEW ZEALAND",Auckland,New Zealand,"Wapiti Sports Bar 2/12 Carrington Road
POINT CHEVALIER
AUCKLAND 1022
NEW ZEALAND Auckland New Zealand ",-36.8709698,174.710041
COUNTIES INN,"25 PAERATA ROAD
PUKEKOHE
FRANKLIN 1800
NEW ZEALAND",Auckland,New Zealand,"COUNTIES INN 25 PAERATA ROAD
PUKEKOHE
FRANKLIN 1800
NEW ZEALAND Auckland New Zealand ",-37.1887567,174.9023321
Armadillos Belfast,"812 MAIN NORTH ROAD
BELFAST
CHRISTCHURCH 8005",Canterbury,New Zealand,"Armadillos Belfast 812 MAIN NORTH ROAD
BELFAST
CHRISTCHURCH 8005 Canterbury New Zealand ",-43.4444095,172.6332322
Rope and Twine,"301 KING EDWARD STREET
DUNEDIN CENTRAL
DUNEDIN 9054",Otago,New Zealand,"Rope and Twine 301 KING EDWARD STREET
DUNEDIN CENTRAL
DUNEDIN 9054 Otago New Zealand ",-45.8965695,170.500776
Triple Crown,"SHOP 14 47 VINE STREET
WHANGAREI CENTRAL
NORTHLAND 0110",Northland,New Zealand,"Triple Crown SHOP 14 47 VINE STREET
WHANGAREI CENTRAL
NORTHLAND 0110 Northland New Zealand ",-35.7265149,174.3206278
Richardsons Restaurant & Bar,"211 RICHARDSON ROAD
OWAIRAKA
AUCKLAND 1003",Auckland,New Zealand,"Richardsons Restaurant & Bar 211 RICHARDSON ROAD
OWAIRAKA
AUCKLAND 1003 Auckland New Zealand ",-36.9004616,174.7192078
Woolston Sports Bar,"669-675 FERRY ROAD
WOOLSTON
CHRISTCHURCH 8002
NEW ZEALAND",Canterbury,New Zealand,"Woolston Sports Bar 669-675 FERRY ROAD
WOOLSTON
CHRISTCHURCH 8002
NEW ZEALAND Canterbury New Zealand ",-43.5486268,172.6820514
Mo's Sports Bar & Grill,"63-65 PEEL STREET
GISBORNE CENTRAL
GISBORNE 4010",Gisborne,New Zealand,"Mo's Sports Bar & Grill 63-65 PEEL STREET
GISBORNE CENTRAL
GISBORNE 4010 Gisborne New Zealand ",-38.6666691,178.0252695
FRANKTON RAILWAY BOWLING CLUB,"51A RIFLE RANGE ROAD
FRANKTON
HAMILTON 3204",Waikato,New Zealand,"FRANKTON RAILWAY BOWLING CLUB 51A RIFLE RANGE ROAD
FRANKTON
HAMILTON 3204 Waikato New Zealand ",-37.7883946,175.2508193
Marble Bar,"Shop 17
Gate Pa Shopping Centre
1000 Cameron Road
TAURANGA CENTRAL
TAURANGA 3112
NEW ZEALAND",Bay of Plenty,New Zealand,"Marble Bar Shop 17
Gate Pa Shopping Centre
1000 Cameron Road
TAURANGA CENTRAL
TAURANGA 3112
NEW ZEALAND Bay of Plenty New Zealand ",-37.7144587,176.14147
Club Metro,"13 RIDGEWAY STREET
WANGANUI
WANGANUI DISTRICT 4540",Manawatu-Wanganui,New Zealand,"Club Metro 13 RIDGEWAY STREET
WANGANUI
WANGANUI DISTRICT 4540 Manawatu-Wanganui New Zealand ",-39.9323958,175.055627
THE HOWICK RETURNED SERVICES AND ASSOCIATION COMMUNITY CLUB INCORPORATED,"25 WELLINGTON STREET
HOWICK
MANUKAU 1704",Auckland,New Zealand,"THE HOWICK RETURNED SERVICES AND ASSOCIATION COMMUNITY CLUB INCORPORATED 25 WELLINGTON STREET
HOWICK
MANUKAU 1704 Auckland New Zealand ",-36.8942795,174.9292297
Grand Slam Sports Bar,"23 MASKELL STREET
GLENDOWIE
AUCKLAND 1071",Auckland,New Zealand,"Grand Slam Sports Bar 23 MASKELL STREET
GLENDOWIE
AUCKLAND 1071 Auckland New Zealand ",-36.8592304,174.8613113
The WeighBridge,"132 GREAT SOUTH ROAD
PAPATOETOE
AUCKLAND 2025",Auckland,New Zealand,"The WeighBridge 132 GREAT SOUTH ROAD
PAPATOETOE
AUCKLAND 2025 Auckland New Zealand ",-36.9684462,174.8598334
The Mates Bar,"16A SHAMROCK DRIVE
KUMEU
RODNEY DISTRICT 1250",Auckland,New Zealand,"The Mates Bar 16A SHAMROCK DRIVE
KUMEU
RODNEY DISTRICT 1250 Auckland New Zealand ",-36.7756556,174.5538483
Soma Bar and Restaurant,"10/35 TAMAKI DRIVE
MISSION BAY
AUCKLAND 1005",Auckland,New Zealand,"Soma Bar and Restaurant 10/35 TAMAKI DRIVE
MISSION BAY
AUCKLAND 1005 Auckland New Zealand ",-36.8477868,174.8293578
Valentines Hornby,"7-11 CHALMERS STREET
HORNBY
CHRISTCHURCH 8042",Canterbury,New Zealand,"Valentines Hornby 7-11 CHALMERS STREET
HORNBY
CHRISTCHURCH 8042 Canterbury New Zealand ",-43.542859,172.5219944
Porterhouse Blues,"7A King Street
UPPER HUTT CENTRAL
UPPER HUTT 5018
NEW ZEALAND",Wellington,New Zealand,"Porterhouse Blues 7A King Street
UPPER HUTT CENTRAL
UPPER HUTT 5018
NEW ZEALAND Wellington New Zealand ",-41.123352,175.0747528
Luanne's Bistro,"68 ARARINO STREET
TRENTHAM
UPPER HUTT 6007",Wellington,New Zealand,"Luanne's Bistro 68 ARARINO STREET
TRENTHAM
UPPER HUTT 6007 Wellington New Zealand ",-41.1375147,175.0377002
Ha'apai Veu Bar,"Unit H 
24 Dunrobin Place
Pakuranga
HALF MOON BAY
AUCKLAND 2010
NEW ZEALAND",Auckland,New Zealand,"Ha'apai Veu Bar Unit H 
24 Dunrobin Place
Pakuranga
HALF MOON BAY
AUCKLAND 2010
NEW ZEALAND Auckland New Zealand ",-19.75,-174.366667
COLLARDS SPORTS BAR,"WHANGATANE DRIVE
KAITAIA
NORTHLAND 0410",Northland,New Zealand,"COLLARDS SPORTS BAR WHANGATANE DRIVE
KAITAIA
NORTHLAND 0410 Northland New Zealand ",-35.0895861,173.2575012
Nexus Wine and Cafe,"38 BRIDGE STREET
TOKOROA
WAIKATO 3420",Waikato,New Zealand,"Nexus Wine and Cafe 38 BRIDGE STREET
TOKOROA
WAIKATO 3420 Waikato New Zealand ",-38.2181564,175.8699063
The Realm Bar & Grill,"7-11 MOXHAM AVENUE
HATAITAI
WELLINGTON 6003",Wellington,New Zealand,"The Realm Bar & Grill 7-11 MOXHAM AVENUE
HATAITAI
WELLINGTON 6003 Wellington New Zealand ",-41.3046742,174.7940493
Stratford District Citizens and Services Club Inc,"60 Juliet Street
STRATFORD
TARANAKI 4332
NEW ZEALAND",Taranaki,New Zealand,"Stratford District Citizens and Services Club Inc 60 Juliet Street
STRATFORD
TARANAKI 4332
NEW ZEALAND Taranaki New Zealand ",-39.3379091,174.2860045
The Swamp Tavern,"670 MAIN SOUTH ROAD
ISLINGTON
CHRISTCHURCH 8004",Canterbury,New Zealand,"The Swamp Tavern 670 MAIN SOUTH ROAD
ISLINGTON
CHRISTCHURCH 8004 Canterbury New Zealand ",-43.5485893,172.4916989
Ferry Tavern,"1060 FERRY ROAD
FERRYMEAD
CHRISTCHURCH 8023
NEW ZEALAND",Canterbury,New Zealand,"Ferry Tavern 1060 FERRY ROAD
FERRYMEAD
CHRISTCHURCH 8023
NEW ZEALAND Canterbury New Zealand ",-43.5587206,172.7072083
Papa Mo's,"T13, Exclesa Centre
4 Golden Sands Drive
PAPAMOA BEACH
BAY OF PLENTY 3118
NEW ZEALAND",Bay of Plenty,New Zealand,"Papa Mo's T13, Exclesa Centre
4 Golden Sands Drive
PAPAMOA BEACH
BAY OF PLENTY 3118
NEW ZEALAND Bay of Plenty New Zealand ",-37.7173319,176.3419551
Barracks Sports Bar,"170 St Hill Street
WANGANUI
WANGANUI DISTRICT 4500
NEW ZEALAND",Manawatu-Wanganui,New Zealand,"Barracks Sports Bar 170 St Hill Street
WANGANUI
WANGANUI DISTRICT 4500
NEW ZEALAND Manawatu-Wanganui New Zealand ",-39.9318002,175.048048
Applejack Bar & Eatery,"2 DUNROBIN PLACE
HIGHLAND PARK
MANUKAU 1704",Auckland,New Zealand,"Applejack Bar & Eatery 2 DUNROBIN PLACE
HIGHLAND PARK
MANUKAU 1704 Auckland New Zealand ",-36.8980922,174.9053234
Pitt St Pub,"243 KARANGAHAPE ROAD
NEWTON
AUCKLAND 1010
NEW ZEALAND",Auckland,New Zealand,"Pitt St Pub 243 KARANGAHAPE ROAD
NEWTON
AUCKLAND 1010
NEW ZEALAND Auckland New Zealand ",-36.8574987,174.7588326
Merrin Street Brewery Bar,"SHOP 4 AVONHEAD SHOPPING CENTRE 210 WITHELLS ROAD
AVONHEAD
CHRISTCHURCH 8004",Canterbury,New Zealand,"Merrin Street Brewery Bar SHOP 4 AVONHEAD SHOPPING CENTRE 210 WITHELLS ROAD
AVONHEAD
CHRISTCHURCH 8004 Canterbury New Zealand ",-43.5106423,172.5574393
The Jolly Pub & Kitchen,"93 MAZENGARB ROAD
PARAPARAUMU
KAPITI COAST 5032
NEW ZEALAND",Wellington,New Zealand,"The Jolly Pub & Kitchen 93 MAZENGARB ROAD
PARAPARAUMU
KAPITI COAST 5032
NEW ZEALAND Wellington New Zealand ",-40.8867893,175.0021531
SANDBAR PUB,"103 MANA ESPLANADE
MANA-CAMBORNE
PORIRUA 5026
NEW ZEALAND",Wellington,New Zealand,"SANDBAR PUB 103 MANA ESPLANADE
MANA-CAMBORNE
PORIRUA 5026
NEW ZEALAND Wellington New Zealand ",-41.0920156,174.8678596
THE MARINER,"19 WHITEHOUSE ROAD
TITAHI BAY
PORIRUA 5022
NEW ZEALAND",Wellington,New Zealand,"THE MARINER 19 WHITEHOUSE ROAD
TITAHI BAY
PORIRUA 5022
NEW ZEALAND Wellington New Zealand ",-41.1087231,174.8377757
KASPERS SPORTS BAR,"1302 TUTANEKAI STREET
ROTORUA CENTRAL
ROTORUA 3010
NEW ZEALAND",Bay of Plenty,New Zealand,"KASPERS SPORTS BAR 1302 TUTANEKAI STREET
ROTORUA CENTRAL
ROTORUA 3010
NEW ZEALAND Bay of Plenty New Zealand ",-38.1394517,176.251693
CITY SPORTS BAR,"20 HAMILTON STREET
TAURANGA CENTRAL
TAURANGA 3110
NEW ZEALAND",Bay of Plenty,New Zealand,"CITY SPORTS BAR 20 HAMILTON STREET
TAURANGA CENTRAL
TAURANGA 3110
NEW ZEALAND Bay of Plenty New Zealand ",-37.6824473,176.1690646
CHEERS TAVERN,"15 OWENS PLACE
MT MAUNGANUI
BAY OF PLENTY 3116
NEW ZEALAND",Bay of Plenty,New Zealand,"CHEERS TAVERN 15 OWENS PLACE
MT MAUNGANUI
BAY OF PLENTY 3116
NEW ZEALAND Bay of Plenty New Zealand ",-37.6791702,176.2226575
THE MINERS TAVERN,"GLASGOW STREET
HUNTLY
WAIKATO 3700",Waikato,New Zealand,"THE MINERS TAVERN GLASGOW STREET
HUNTLY
WAIKATO 3700 Waikato New Zealand ",-37.5573081,175.1615142
The Brook Bar and Eatery,"16 SOUTHBROOK ROAD
RANGIORA
CANTERBURY 7400",Canterbury,New Zealand,"The Brook Bar and Eatery 16 SOUTHBROOK ROAD
RANGIORA
CANTERBURY 7400 Canterbury New Zealand ",-43.3238962,172.5991621
THE CUTTING SPORTS CAFE,"32 MIRAMAR AVENUE
MIRAMAR
WELLINGTON 6022
NEW ZEALAND",Wellington,New Zealand,"THE CUTTING SPORTS CAFE 32 MIRAMAR AVENUE
MIRAMAR
WELLINGTON 6022
NEW ZEALAND Wellington New Zealand ",-41.3155627,174.8140255
Duke of Wellington,"CORNER WATERLOO QUAY AND BUNNY STREET
WELLINGTON CENTRAL
WELLINGTON 6011",Wellington,New Zealand,"Duke of Wellington CORNER WATERLOO QUAY AND BUNNY STREET
WELLINGTON CENTRAL
WELLINGTON 6011 Wellington New Zealand ",-41.2804111,174.7799086
The Horses Bar,"17 PLUMMERS POINT ROAD RD2
OMOKOROA
BAY OF PLENTY 3021",Bay of Plenty,New Zealand,"The Horses Bar 17 PLUMMERS POINT ROAD RD2
OMOKOROA
BAY OF PLENTY 3021 Bay of Plenty New Zealand ",-37.6788447,176.0268876
COBB & CO,"81 THE STRAND
WHAKATANE CENTRAL
WHAKATANE 3120
NEW ZEALAND",Bay of Plenty,New Zealand,"COBB & CO 81 THE STRAND
WHAKATANE CENTRAL
WHAKATANE 3120
NEW ZEALAND Bay of Plenty New Zealand ",-37.9506222,176.9980996
Two Turkeys Restaurant & Bar,"182-188 GREAT SOUTH ROAD
PAPAKURA
SOUTH AUCKLAND 1703",Auckland,New Zealand,"Two Turkeys Restaurant & Bar 182-188 GREAT SOUTH ROAD
PAPAKURA
SOUTH AUCKLAND 1703 Auckland New Zealand ",-37.0632878,174.9429619
The Brass Boxer Sports Bar,"509 MT ALBERT ROAD
THREE KINGS
AUCKLAND 1042
NEW ZEALAND",Auckland,New Zealand,"The Brass Boxer Sports Bar 509 MT ALBERT ROAD
THREE KINGS
AUCKLAND 1042
NEW ZEALAND Auckland New Zealand ",-36.9087986,174.7560152
MERCURY BAR,"5 MERCURY LANE
NEWTON
AUCKLAND 1010
NEW ZEALAND",Auckland,New Zealand,"MERCURY BAR 5 MERCURY LANE
NEWTON
AUCKLAND 1010
NEW ZEALAND Auckland New Zealand ",-36.8581759,174.7588844
REDWOOD TAVERN,"70 CLEGHORN STREET
BLENHEIM
MARLBOROUGH 7201
NEW ZEALAND",Marlborough,New Zealand,"REDWOOD TAVERN 70 CLEGHORN STREET
BLENHEIM
MARLBOROUGH 7201
NEW ZEALAND Marlborough New Zealand ",-41.5290489,173.9562377
GOLDEN CHANCE,"6 BLEDISLOE ROAD
MARAENUI
NAPIER 4110
NEW ZEALAND",Hawke's Bay,New Zealand,"GOLDEN CHANCE 6 BLEDISLOE ROAD
MARAENUI
NAPIER 4110
NEW ZEALAND Hawke's Bay New Zealand ",-39.5145059,176.9042907
Lumberjacks Tavern,"123 HAKIAHA STREET
TAUMARUNUI CENTRAL
TAUMARUNUI 2600",Manawatu-Wanganui,New Zealand,"Lumberjacks Tavern 123 HAKIAHA STREET
TAUMARUNUI CENTRAL
TAUMARUNUI 2600 Manawatu-Wanganui New Zealand ",-38.8832003,175.2659647
TAB Newtown,"225 Riddiford Street
NEWTOWN
WELLINGTON 6021
NEW ZEALAND",Wellington,New Zealand,"TAB Newtown 225 Riddiford Street
NEWTOWN
WELLINGTON 6021
NEW ZEALAND Wellington New Zealand ",-41.3153601,174.7804604
Lucky's Barcade and Social,"125 ELLIOT STREET
HOWICK
MANUKAU 1704",Auckland,New Zealand,"Lucky's Barcade and Social 125 ELLIOT STREET
HOWICK
MANUKAU 1704 Auckland New Zealand ",-36.9018688,174.9272929
The Duke Tavern,"19 YORK STREET
RUSSELL
NORTHLAND 0202",Northland,New Zealand,"The Duke Tavern 19 YORK STREET
RUSSELL
NORTHLAND 0202 Northland New Zealand ",-35.2614204,174.1224366
WAIKATO COMMERCE CLUB,"197 Collingwood Street
HAMILTON CENTRAL
HAMILTON 3204
NEW ZEALAND",Waikato,New Zealand,"WAIKATO COMMERCE CLUB 197 Collingwood Street
HAMILTON CENTRAL
HAMILTON 3204
NEW ZEALAND Waikato New Zealand ",-37.7925102,175.2788586
Friends Restaurant and Bar,"49 Marine Parade
NAPIER CITY
NAPIER 4110
NEW ZEALAND",Hawke's Bay,New Zealand,"Friends Restaurant and Bar 49 Marine Parade
NAPIER CITY
NAPIER 4110
NEW ZEALAND Hawke's Bay New Zealand ",-39.4875419,176.9191953
Castle 789,"789 MAIN STREET
PALMERSTON NORTH CENTRAL
PALMERSTON NORTH 5301",Manawatu-Wanganui,New Zealand,"Castle 789 789 MAIN STREET
PALMERSTON NORTH CENTRAL
PALMERSTON NORTH 5301 Manawatu-Wanganui New Zealand ",-40.3474899,175.6297991
Jack Dusty's Papamoa,"546 PAPAMOA BEACH ROAD
PAPAMOA
BAY OF PLENTY 3003",Bay of Plenty,New Zealand,"Jack Dusty's Papamoa 546 PAPAMOA BEACH ROAD
PAPAMOA
BAY OF PLENTY 3003 Bay of Plenty New Zealand ",-37.6688444,176.1533687
The Village Bar,"1 PATUMAHOE ROAD
PATUMAHOE
FRANKLIN 1850",Auckland,New Zealand,"The Village Bar 1 PATUMAHOE ROAD
PATUMAHOE
FRANKLIN 1850 Auckland New Zealand ",-37.187847,174.8282018
Dishy's Bar,"1/586 GREAT SOUTH ROAD
PAPATOETOE
AUCKLAND 2025",Auckland,New Zealand,"Dishy's Bar 1/586 GREAT SOUTH ROAD
PAPATOETOE
AUCKLAND 2025 Auckland New Zealand ",-36.9806746,174.877385
Mumbai Spice,"29 Carlyle Street
NAPIER CITY
NAPIER 4110
NEW ZEALAND",Hawke's Bay,New Zealand,"Mumbai Spice 29 Carlyle Street
NAPIER CITY
NAPIER 4110
NEW ZEALAND Hawke's Bay New Zealand ",-39.4919259,176.9107918
Ngongotaha Tavern,"11B HALL ROAD
NGONGOTAHA
ROTORUA DISTRICT 3202",Bay of Plenty,New Zealand,"Ngongotaha Tavern 11B HALL ROAD
NGONGOTAHA
ROTORUA DISTRICT 3202 Bay of Plenty New Zealand ",-38.08111,176.2109137
The Hawera Local,"110 PRINCES STREET
HAWERA
TARANAKI 4800",Taranaki,New Zealand,"The Hawera Local 110 PRINCES STREET
HAWERA
TARANAKI 4800 Taranaki New Zealand ",-39.5879374,174.2845091
Greerton Sports Bar,"1315 CAMERON ROAD
TAURANGA CENTRAL
TAURANGA 3001",Bay of Plenty,New Zealand,"Greerton Sports Bar 1315 CAMERON ROAD
TAURANGA CENTRAL
TAURANGA 3001 Bay of Plenty New Zealand ",-37.7261496,176.1331521
Maungatapu Sports Bar,"285 MAUNGATAPU ROAD
TAURANGA CENTRAL
TAURANGA 3001",Bay of Plenty,New Zealand,"Maungatapu Sports Bar 285 MAUNGATAPU ROAD
TAURANGA CENTRAL
TAURANGA 3001 Bay of Plenty New Zealand ",-37.7164031,176.1791157
CREOLE'S BAR & CAFE,"308-310 HIBISCUS COAST HIGHWAY STATE HIGHWAY 1
OREWA
RODNEY DISTRICT 0946",Auckland,New Zealand,"CREOLE'S BAR & CAFE 308-310 HIBISCUS COAST HIGHWAY STATE HIGHWAY 1
OREWA
RODNEY DISTRICT 0946 Auckland New Zealand ",-36.5875278,174.6965472
Paihia Sports Bar,"10 Selwyn Road
PAIHIA
NORTHLAND 0200
NEW ZEALAND",Northland,New Zealand,"Paihia Sports Bar 10 Selwyn Road
PAIHIA
NORTHLAND 0200
NEW ZEALAND Northland New Zealand ",-35.2819395,174.0905812
The Lincoln,"1295 FENTON STREET
ROTORUA CENTRAL
ROTORUA 3201",Bay of Plenty,New Zealand,"The Lincoln 1295 FENTON STREET
ROTORUA CENTRAL
ROTORUA 3201 Bay of Plenty New Zealand ",-38.1393037,176.2534563
Waipu Hotel,"4 South Road
WAIPU
NORTHLAND 0510
NEW ZEALAND",Northland,New Zealand,"Waipu Hotel 4 South Road
WAIPU
NORTHLAND 0510
NEW ZEALAND Northland New Zealand ",-35.9854807,174.4473694
The Rib House,"UNIT 21
123 ORMISTON ROAD
FLAT BUSH
AUCKLAND 2016
NEW ZEALAND",Auckland,New Zealand,"The Rib House UNIT 21
123 ORMISTON ROAD
FLAT BUSH
AUCKLAND 2016
NEW ZEALAND Auckland New Zealand ",-36.9642661,174.9028571
Worlds End Bar and Restaurant,"SHOP 7 FRASER COVE 229-233 FRASER STREET
TAURANGA CENTRAL
TAURANGA 3001",Bay of Plenty,New Zealand,"Worlds End Bar and Restaurant SHOP 7 FRASER COVE 229-233 FRASER STREET
TAURANGA CENTRAL
TAURANGA 3001 Bay of Plenty New Zealand ",-37.712382,176.1514233
Lakes Sports Bar,"204 Taurikura Drive
TAURANGA SOUTH
TAURANGA 3110
NEW ZEALAND",Bay of Plenty,New Zealand,"Lakes Sports Bar 204 Taurikura Drive
TAURANGA SOUTH
TAURANGA 3110
NEW ZEALAND Bay of Plenty New Zealand ",-37.7507616,176.0972052
HILLCREST TAVERN,"247 Clyde Street
CLAUDELANDS
HAMILTON 3216
NEW ZEALAND",Waikato,New Zealand,"HILLCREST TAVERN 247 Clyde Street
CLAUDELANDS
HAMILTON 3216
NEW ZEALAND Waikato New Zealand ",-37.7891255,175.307607
Kina's Sports Bar,"42 MANNERING STREET
TOKOROA
WAIKATO 3420",Waikato,New Zealand,"Kina's Sports Bar 42 MANNERING STREET
TOKOROA
WAIKATO 3420 Waikato New Zealand ",-38.2163955,175.8695191
Cutlers Entertainment,"181-184 HIGH STREET
LOWER HUTT CENTRAL
LOWER HUTT 5010",Wellington,New Zealand,"Cutlers Entertainment 181-184 HIGH STREET
LOWER HUTT CENTRAL
LOWER HUTT 5010 Wellington New Zealand ",-41.2094846,174.9030317
Victoria Tavern,"140 JACKSON STREET
PETONE
LOWER HUTT 5012",Wellington,New Zealand,"Victoria Tavern 140 JACKSON STREET
PETONE
LOWER HUTT 5012 Wellington New Zealand ",-41.2242295,174.874366
TAVERN HAREWOOD BAR AND GRILL,"Parkside Plaza 
333 HAREWOOD ROAD
BISHOPDALE
CHRISTCHURCH 8005
NEW ZEALAND",Canterbury,New Zealand,"TAVERN HAREWOOD BAR AND GRILL Parkside Plaza 
333 HAREWOOD ROAD
BISHOPDALE
CHRISTCHURCH 8005
NEW ZEALAND Canterbury New Zealand ",-43.4882441,172.5861031
STOCK X CHANGE SHIRLEY,"110 MARSHLAND ROAD
SHIRLEY
CHRISTCHURCH 8061
NEW ZEALAND",Canterbury,New Zealand,"STOCK X CHANGE SHIRLEY 110 MARSHLAND ROAD
SHIRLEY
CHRISTCHURCH 8061
NEW ZEALAND Canterbury New Zealand ",-43.499815,172.662946
Armadillos Halswell,"29 ENSIGN STREET
HALSWELL
CHRISTCHURCH 7674",Canterbury,New Zealand,"Armadillos Halswell 29 ENSIGN STREET
HALSWELL
CHRISTCHURCH 7674 Canterbury New Zealand ",-43.574557,172.5672672
Ascot Sportshouse and Eatery,"198 HILTON HIGHWAY
WASHDYKE
CANTERBURY 8602",Canterbury,New Zealand,"Ascot Sportshouse and Eatery 198 HILTON HIGHWAY
WASHDYKE
CANTERBURY 8602 Canterbury New Zealand ",-44.3554883,171.2378238
DIGGERS TAVERN MOSGIEL,"6 CHURCH STREET
MOSGIEL
DUNEDIN 9032",Otago,New Zealand,"DIGGERS TAVERN MOSGIEL 6 CHURCH STREET
MOSGIEL
DUNEDIN 9032 Otago New Zealand ",-45.8741615,170.3492225
Carriers Arms Hotel,"96 PALMERSTON STREET
RIVERTON
SOUTHLAND 9822",Southland,New Zealand,"Carriers Arms Hotel 96 PALMERSTON STREET
RIVERTON
SOUTHLAND 9822 Southland New Zealand ",-46.3491667,168.0175
GLASINE CAFE,"257 ELLES ROAD
STRATHERN
INVERCARGILL 9501
NEW ZEALAND",Southland,New Zealand,"GLASINE CAFE 257 ELLES ROAD
STRATHERN
INVERCARGILL 9501
NEW ZEALAND Southland New Zealand ",-46.4274324,168.3612319
Harlequins Bar and Restaurant,"1130 GREAT NORTH ROAD
POINT CHEVALIER
AUCKLAND 1022",Auckland,New Zealand,"Harlequins Bar and Restaurant 1130 GREAT NORTH ROAD
POINT CHEVALIER
AUCKLAND 1022 Auckland New Zealand ",-36.8695708,174.7128926
Loading Ramp,"8 Treachers Lane
HAVELOCK NORTH
HAWKES BAY 4130
NEW ZEALAND",Hawke's Bay,New Zealand,"Loading Ramp 8 Treachers Lane
HAVELOCK NORTH
HAWKES BAY 4130
NEW ZEALAND Hawke's Bay New Zealand ",-39.6689691,176.8772388
Finn's Bistro Bar,"CORNER TONGARIRO AND TUWHARETOA STREETS
TAUPO
TAUPO DISTRICT 3351",Waikato,New Zealand,"Finn's Bistro Bar CORNER TONGARIRO AND TUWHARETOA STREETS
TAUPO
TAUPO DISTRICT 3351 Waikato New Zealand ",-38.6885094,176.0697056
THE WHANGAREI RETURNED SERVICES ASSOCIATION INCORPORATED,"12-16 Hannah Street
WHANGAREI CENTRAL
NORTHLAND 0110
NEW ZEALAND",Northland,New Zealand,"THE WHANGAREI RETURNED SERVICES ASSOCIATION INCORPORATED 12-16 Hannah Street
WHANGAREI CENTRAL
NORTHLAND 0110
NEW ZEALAND Northland New Zealand ",-35.7268672,174.323561
Memory Layne,"37 O'SHANNESSEY STREET
PAPAKURA
SOUTH AUCKLAND 1703",Auckland,New Zealand,"Memory Layne 37 O'SHANNESSEY STREET
PAPAKURA
SOUTH AUCKLAND 1703 Auckland New Zealand ",-37.06038,174.942473
Kauri Arms Tavern,"195 COMMERCE STREET
KAITAIA
NORTHLAND 0410",Northland,New Zealand,"Kauri Arms Tavern 195 COMMERCE STREET
KAITAIA
NORTHLAND 0410 Northland New Zealand ",-35.1108696,173.2612772
Bar 2013,"101 Karamu Road South
HASTINGS CENTRAL
HAWKES BAY 4201
NEW ZEALAND",Hawke's Bay,New Zealand,"Bar 2013 101 Karamu Road South
HASTINGS CENTRAL
HAWKES BAY 4201
NEW ZEALAND Hawke's Bay New Zealand ",-39.6430473,176.8437821
TAB PORIRUA,"3 SERLBY PLACE
PORIRUA
WELLINGTON 6006
NEW ZEALAND",Wellington,New Zealand,"TAB PORIRUA 3 SERLBY PLACE
PORIRUA
WELLINGTON 6006
NEW ZEALAND Wellington New Zealand ",-41.1344892,174.8405407
GRETNA HOTEL,"117 HAUTAPU STREET
TAIHAPE
MANAWATU 4720
NEW ZEALAND",Manawatu-Wanganui,New Zealand,"GRETNA HOTEL 117 HAUTAPU STREET
TAIHAPE
MANAWATU 4720
NEW ZEALAND Manawatu-Wanganui New Zealand ",-39.6758333,175.7983333
HENNESSY'S IRISH BAR,"1208-1210 TUTANEKAI STREET
ROTORUA CENTRAL
ROTORUA 3201
NEW ZEALAND",Bay of Plenty,New Zealand,"HENNESSY'S IRISH BAR 1208-1210 TUTANEKAI STREET
ROTORUA CENTRAL
ROTORUA 3201
NEW ZEALAND Bay of Plenty New Zealand ",-38.1364627,176.2517201
CROWN & ANCHOR,"4 PRINCESS STREET
PUTARURU
WAIKATO 2371",Waikato,New Zealand,"CROWN & ANCHOR 4 PRINCESS STREET
PUTARURU
WAIKATO 2371 Waikato New Zealand ",-38.05154,175.779244
Worlds End Bar and Restaurant,"SHOP 7 FRASER COVE 229-233 FRASER STREET
TAURANGA CENTRAL
TAURANGA 3001
TAURANGA CENTRAL
TAURANGA 3001
NEW ZEALAND",Bay of Plenty,New Zealand,"Worlds End Bar and Restaurant SHOP 7 FRASER COVE 229-233 FRASER STREET
TAURANGA CENTRAL
TAURANGA 3001
TAURANGA CENTRAL
TAURANGA 3001
NEW ZEALAND Bay of Plenty New Zealand ",-37.712382,176.1514233
KOPU STATION HOTEL,"1 Kopu Road
Kopu
THAMES
WAIKATO 3578
NEW ZEALAND",Waikato,New Zealand,"KOPU STATION HOTEL 1 Kopu Road
Kopu
THAMES
WAIKATO 3578
NEW ZEALAND Waikato New Zealand ",-37.184069,175.569954
Rhyleys Bar and Grill,"80 THE STRAND
WHAKATANE CENTRAL
WHAKATANE 3080",Bay of Plenty,New Zealand,"Rhyleys Bar and Grill 80 THE STRAND
WHAKATANE CENTRAL
WHAKATANE 3080 Bay of Plenty New Zealand ",-37.9503059,176.9979414
THE BALMORAL BOWLING CLUB INCORPORATED,"14 MONT LE GRAND ROAD
BALMORAL
AUCKLAND 1003",Auckland,New Zealand,"THE BALMORAL BOWLING CLUB INCORPORATED 14 MONT LE GRAND ROAD
BALMORAL
AUCKLAND 1003 Auckland New Zealand ",-36.8836111,174.7502778
WESTERN LIGHTS INN,"217 TRIANGLE ROAD
MASSEY
AUCKLAND 0614",Auckland,New Zealand,"WESTERN LIGHTS INN 217 TRIANGLE ROAD
MASSEY
AUCKLAND 0614 Auckland New Zealand ",-36.8413742,174.62096
ORIGINS BAR,"WESTGATE COMPLEX CORNER N W M'WAY AND STATE HIGHWAY 16 SHOP L1
HENDERSON
AUCKLAND 0612",Auckland,New Zealand,"ORIGINS BAR WESTGATE COMPLEX CORNER N W M'WAY AND STATE HIGHWAY 16 SHOP L1
HENDERSON
AUCKLAND 0612 Auckland New Zealand ",-36.8213672,174.6123723
Zoo Eatery & Lounge,"385 GREAT NORTH ROAD
HENDERSON
AUCKLAND 0612",Auckland,New Zealand,"Zoo Eatery & Lounge 385 GREAT NORTH ROAD
HENDERSON
AUCKLAND 0612 Auckland New Zealand ",-36.8789334,174.6317411
PACIFIC BAR & RESTAURANT,"10 TIDAL ROAD
MANGERE
MANUKAU 1701",Auckland,New Zealand,"PACIFIC BAR & RESTAURANT 10 TIDAL ROAD
MANGERE
MANUKAU 1701 Auckland New Zealand ",-36.9755987,174.8167962
BRIDGE PARK BOWLING CLUB INC,"27A TAYLOR ROAD
MANGERE BRIDGE
MANUKAU 2151
NEW ZEALAND",Auckland,New Zealand,"BRIDGE PARK BOWLING CLUB INC 27A TAYLOR ROAD
MANGERE BRIDGE
MANUKAU 2151
NEW ZEALAND Auckland New Zealand ",-36.9457432,174.7839745
PANMURE SUPERBOWL,"523A ELLERSLIE PANMURE HIGHWAY
MT WELLINGTON
AUCKLAND 1006",Auckland,New Zealand,"PANMURE SUPERBOWL 523A ELLERSLIE PANMURE HIGHWAY
MT WELLINGTON
AUCKLAND 1006 Auckland New Zealand ",-36.8990644,174.847335
OPAL LOUNGE,"628 GREAT SOUTH ROAD
OTAHUHU
AUCKLAND 1062",Auckland,New Zealand,"OPAL LOUNGE 628 GREAT SOUTH ROAD
OTAHUHU
AUCKLAND 1062 Auckland New Zealand ",-36.9554478,174.8512429
WHITEHOUSE TAVERN,"DUMAS PLACE
PAPAKURA
SOUTH AUCKLAND 1703",Auckland,New Zealand,"WHITEHOUSE TAVERN DUMAS PLACE
PAPAKURA
SOUTH AUCKLAND 1703 Auckland New Zealand ",-37.0743349,174.9304635
The Lumsden Freehouse,"444 KHYBER PASS ROAD
NEWMARKET
AUCKLAND 1149",Auckland,New Zealand,"The Lumsden Freehouse 444 KHYBER PASS ROAD
NEWMARKET
AUCKLAND 1149 Auckland New Zealand ",-36.867368,174.77756
New Zealand All Golds Cosmopolitan Club,"1ST FLOOR, MEMBERS STAND
AVONDALE RACE COURSE 
2-48 ASH STREET
AVONDALE
AUCKLAND 1746
NEW ZEALAND",Auckland,New Zealand,"New Zealand All Golds Cosmopolitan Club 1ST FLOOR, MEMBERS STAND
AVONDALE RACE COURSE 
2-48 ASH STREET
AVONDALE
AUCKLAND 1746
NEW ZEALAND Auckland New Zealand ",-36.8978146,174.6911488
TITIRANGI GOLF CLUB INCORPORATED,"LINKS ROAD
NEW LYNN
WAITAKERE CITY 1007",Auckland,New Zealand,"TITIRANGI GOLF CLUB INCORPORATED LINKS ROAD
NEW LYNN
WAITAKERE CITY 1007 Auckland New Zealand ",-36.9176156,174.6877759
THE FARRIERS ARMS,"17 NORTHUMBERLAND STREET
WAIPUKURAU
HAWKES BAY 4200
NEW ZEALAND",Hawke's Bay,New Zealand,"THE FARRIERS ARMS 17 NORTHUMBERLAND STREET
WAIPUKURAU
HAWKES BAY 4200
NEW ZEALAND Hawke's Bay New Zealand ",-39.9936937,176.5545996
ROBBIES RICCARTON,"201 CLARENCE STREET
RICCARTON
CHRISTCHURCH 8041",Canterbury,New Zealand,"ROBBIES RICCARTON 201 CLARENCE STREET
RICCARTON
CHRISTCHURCH 8041 Canterbury New Zealand ",-43.5297891,172.603186
PARKHOUSE TAVERN,"6 TENAHAUN PLACE
HILLMORTON
CHRISTCHURCH 8002",Canterbury,New Zealand,"PARKHOUSE TAVERN 6 TENAHAUN PLACE
HILLMORTON
CHRISTCHURCH 8002 Canterbury New Zealand ",-43.5435298,172.5687514
GARDEN CITY BOWL,"15-21 IVERSEN TERRACE
PHILLIPSTOWN
CHRISTCHURCH 8011",Canterbury,New Zealand,"GARDEN CITY BOWL 15-21 IVERSEN TERRACE
PHILLIPSTOWN
CHRISTCHURCH 8011 Canterbury New Zealand ",-43.5415632,172.6482354
EDGEWARE SPORTS BAR,"72 EDGEWARE ROAD
ST ALBANS
CHRISTCHURCH 8014",Canterbury,New Zealand,"EDGEWARE SPORTS BAR 72 EDGEWARE ROAD
ST ALBANS
CHRISTCHURCH 8014 Canterbury New Zealand ",-43.5135697,172.6375252
WAIHOLA CAFE & BAR,"GREENWICH STREET
WAIHOLA
DUNEDIN 9057",Otago,New Zealand,"WAIHOLA CAFE & BAR GREENWICH STREET
WAIHOLA
DUNEDIN 9057 Otago New Zealand ",-46.0230212,170.0949803
NORTH EAST VALLEY BOWLING CLUB,"139 NORTH ROAD
NORTH EAST VALLEY
DUNEDIN 9001",Otago,New Zealand,"NORTH EAST VALLEY BOWLING CLUB 139 NORTH ROAD
NORTH EAST VALLEY
DUNEDIN 9001 Otago New Zealand ",-45.8507657,170.5240088
COOPERS BEACH COMBINED BOWLING CLUB,"STATE HIGHWAY 10
COOPERS BEACH
NORTHLAND 0557",Northland,New Zealand,"COOPERS BEACH COMBINED BOWLING CLUB STATE HIGHWAY 10
COOPERS BEACH
NORTHLAND 0557 Northland New Zealand ",-34.9926973,173.50429
FAR NORTH (KAITAIA) RSA,"12-18 MATTHEWS AVENUE
KAITAIA
NORTHLAND 0410",Northland,New Zealand,"FAR NORTH (KAITAIA) RSA 12-18 MATTHEWS AVENUE
KAITAIA
NORTHLAND 0410 Northland New Zealand ",-35.1130964,173.2657468
PAIHIA EX-SERVICEMEN'S ASSOCIATION,"CORNER SCHOOL AND JOYCES ROADS
PAIHIA
NORTHLAND 0200",Northland,New Zealand,"PAIHIA EX-SERVICEMEN'S ASSOCIATION CORNER SCHOOL AND JOYCES ROADS
PAIHIA
NORTHLAND 0200 Northland New Zealand ",-35.2846221,174.0900421
THE KAIKOHE AND DISTRICT MEMORIAL RSA INCORPORATED,"158 BROADWAY
KAIKOHE
NORTHLAND 0405",Northland,New Zealand,"THE KAIKOHE AND DISTRICT MEMORIAL RSA INCORPORATED 158 BROADWAY
KAIKOHE
NORTHLAND 0405 Northland New Zealand ",-35.409082,173.7968079
KAWAKAWA AND DISTRICT RSA,"29 ALBERT STREET
KAWAKAWA
NORTHLAND 0210",Northland,New Zealand,"KAWAKAWA AND DISTRICT RSA 29 ALBERT STREET
KAWAKAWA
NORTHLAND 0210 Northland New Zealand ",-35.3824868,174.0660131
GREYMOUTH RSA MEMORIAL CLUB,"181 TAINUI STREET
GREYMOUTH
GREY DISTRICT 7805",West Coast,New Zealand,"GREYMOUTH RSA MEMORIAL CLUB 181 TAINUI STREET
GREYMOUTH
GREY DISTRICT 7805 West Coast New Zealand ",-42.4561791,171.2071705
GREYMOUTH WMC AND MSA,"41 GUINESS STREET
GREYMOUTH
GREY DISTRICT 7805",West Coast,New Zealand,"GREYMOUTH WMC AND MSA 41 GUINESS STREET
GREYMOUTH
GREY DISTRICT 7805 West Coast New Zealand ",-42.4497442,171.2089557
RUNANGA WMC & MUTUAL SCHOOL OF ARTS,"CORNER PITT AND MCGOWAN STREETS
RUNANGA-RAPAHOE
GREY DISTRICT 7854",West Coast,New Zealand,"RUNANGA WMC & MUTUAL SCHOOL OF ARTS CORNER PITT AND MCGOWAN STREETS
RUNANGA-RAPAHOE
GREY DISTRICT 7854 West Coast New Zealand ",-42.3995721,171.2514687
FRANKTON JUNCTION BOWLING GREENS,"73 COMMERCE STREET
FRANKTON
HAMILTON 3204",Waikato,New Zealand,"FRANKTON JUNCTION BOWLING GREENS 73 COMMERCE STREET
FRANKTON
HAMILTON 3204 Waikato New Zealand ",-37.7867721,175.26742
THE STORTY BAR,"1014 HERETAUNGA STREET WEST
HASTINGS CENTRAL
HAWKES BAY 4201",Hawke's Bay,New Zealand,"THE STORTY BAR 1014 HERETAUNGA STREET WEST
HASTINGS CENTRAL
HAWKES BAY 4201 Hawke's Bay New Zealand ",-39.632012,176.832339
HAWARDEN TAVERN,"1 GLADSTONE STREET
HAWARDEN
CHRISTCHURCH 8274",Canterbury,New Zealand,"HAWARDEN TAVERN 1 GLADSTONE STREET
HAWARDEN
CHRISTCHURCH 8274 Canterbury New Zealand ",-42.9208947,172.6405403
2ND NZEF ASSOCIATION (SOUTHLAND BRANCH) INC,"177 DON STREET
INVERCARGILL CENTRAL
INVERCARGILL 9501",Southland,New Zealand,"2ND NZEF ASSOCIATION (SOUTHLAND BRANCH) INC 177 DON STREET
INVERCARGILL CENTRAL
INVERCARGILL 9501 Southland New Zealand ",-46.4109455,168.3594857
MANGAWHAI CLUB,"MOLESWORTH DRIVE
MANGAWHAI
NORTHLAND 0505",Northland,New Zealand,"MANGAWHAI CLUB MOLESWORTH DRIVE
MANGAWHAI
NORTHLAND 0505 Northland New Zealand ",-36.0989244,174.5874401
MAUNGATUROTO HOTEL,"35 HURNDAL STREET
MAUNGATUROTO
NORTHLAND 0520",Northland,New Zealand,"MAUNGATUROTO HOTEL 35 HURNDAL STREET
MAUNGATUROTO
NORTHLAND 0520 Northland New Zealand ",-36.1043131,174.3648299
RUAWAI BOWLING CLUB,"2 REEVE STREET
RUAWAI
NORTHLAND 0530",Northland,New Zealand,"RUAWAI BOWLING CLUB 2 REEVE STREET
RUAWAI
NORTHLAND 0530 Northland New Zealand ",-36.1355324,174.0221628
PUNTERS CORNER SPORTS BAR AND TAB,"2 MAIN STREET
OTAKI
KAPITI COAST 5560",Wellington,New Zealand,"PUNTERS CORNER SPORTS BAR AND TAB 2 MAIN STREET
OTAKI
KAPITI COAST 5560 Wellington New Zealand ",-40.7516571,175.1377202
EASTBOURNE SPORTS & SERVICES CLUB,"H W SHORTT PARK TUATORU STREET
EASTBOURNE
LOWER HUTT 6008",Wellington,New Zealand,"EASTBOURNE SPORTS & SERVICES CLUB H W SHORTT PARK TUATORU STREET
EASTBOURNE
LOWER HUTT 6008 Wellington New Zealand ",-41.294795,174.8942453
NAENAE BOWLING CLUB INCORPORATED,"135 WITAKO STREET
NAENAE
LOWER HUTT 5011
NEW ZEALAND",Wellington,New Zealand,"NAENAE BOWLING CLUB INCORPORATED 135 WITAKO STREET
NAENAE
LOWER HUTT 5011
NEW ZEALAND Wellington New Zealand ",-41.2008333,174.9486111
PARK AVENUE BOWLING CLUB,"TREADWELL STREET
NAENAE
LOWER HUTT 6009",Wellington,New Zealand,"PARK AVENUE BOWLING CLUB TREADWELL STREET
NAENAE
LOWER HUTT 6009 Wellington New Zealand ",-41.2008333,174.9486111
RANGITIKEI CLUB,"10-12 BOWEN STREET
FEILDING
MANAWATU 5600",Manawatu-Wanganui,New Zealand,"RANGITIKEI CLUB 10-12 BOWEN STREET
FEILDING
MANAWATU 5600 Manawatu-Wanganui New Zealand ",-40.2256278,175.5623879
PICTON RETURNED SERVICES ASSOCIATION,"66 WELLINGTON STREET
PICTON
MARLBOROUGH 7372",Marlborough,New Zealand,"PICTON RETURNED SERVICES ASSOCIATION 66 WELLINGTON STREET
PICTON
MARLBOROUGH 7372 Marlborough New Zealand ",-41.2914407,174.0081732
PADDY BARRY'S IRISH BAR,"51 SCOTT STREET
BLENHEIM
MARLBOROUGH 7273",Marlborough,New Zealand,"PADDY BARRY'S IRISH BAR 51 SCOTT STREET
BLENHEIM
MARLBOROUGH 7273 Marlborough New Zealand ",-41.5162565,173.9571197
Oxleys Rock Bar & Cafe,"1 WELLINGTON STREET
PICTON
MARLBOROUGH 7372",Marlborough,New Zealand,"Oxleys Rock Bar & Cafe 1 WELLINGTON STREET
PICTON
MARLBOROUGH 7372 Marlborough New Zealand ",-41.2893106,174.008024
TOOT & WHISTLE INN,"7 AUCKLAND STREET
PICTON
MARLBOROUGH 7372",Marlborough,New Zealand,"TOOT & WHISTLE INN 7 AUCKLAND STREET
PICTON
MARLBOROUGH 7372 Marlborough New Zealand ",-41.2887613,174.0051309
THE ROYAL HOTEL,"152 BRIDGE STREET
NELSON CENTRAL
NELSON 7010
NEW ZEALAND",Nelson,New Zealand,"THE ROYAL HOTEL 152 BRIDGE STREET
NELSON CENTRAL
NELSON 7010
NEW ZEALAND Nelson New Zealand ",-41.272805,173.286804
INGLEWOOD CLUB,"35 MOA STREET
INGLEWOOD
TARANAKI 4651",Taranaki,New Zealand,"INGLEWOOD CLUB 35 MOA STREET
INGLEWOOD
TARANAKI 4651 Taranaki New Zealand ",-39.1559265,174.2074687
THE BLACK HARP,"CORNER DEVON AND GOVER STREETS
NEW PLYMOUTH CENTRAL
NEW PLYMOUTH 4310",Taranaki,New Zealand,"THE BLACK HARP CORNER DEVON AND GOVER STREETS
NEW PLYMOUTH CENTRAL
NEW PLYMOUTH 4310 Taranaki New Zealand ",-39.0588873,174.0802537
The Daily,"CORNER MAIN STREET AND THE SQUARE
PALMERSTON NORTH CENTRAL
PALMERSTON NORTH 5301",Manawatu-Wanganui,New Zealand,"The Daily CORNER MAIN STREET AND THE SQUARE
PALMERSTON NORTH CENTRAL
PALMERSTON NORTH 5301 Manawatu-Wanganui New Zealand ",-40.3557104,175.6120677
THE FRANKTON ALE HOUSE,"CORNER STATE HIGHWAY 6 AND GRAY STREET
FRANKTON
OTAGO 9197",Otago,New Zealand,"THE FRANKTON ALE HOUSE CORNER STATE HIGHWAY 6 AND GRAY STREET
FRANKTON
OTAGO 9197 Otago New Zealand ",-45.0163239,168.7313949
WANAKA DISTRICTS CLUB,"45 PLANTATION ROAD
WANAKA
OTAGO 9305",Otago,New Zealand,"WANAKA DISTRICTS CLUB 45 PLANTATION ROAD
WANAKA
OTAGO 9305 Otago New Zealand ",-44.6906598,169.1397104
BULLS RETURNED SERVICES ASSOCIATION,"55 HIGH STREET
BULLS
MANAWATU 4818
NEW ZEALAND",Manawatu-Wanganui,New Zealand,"BULLS RETURNED SERVICES ASSOCIATION 55 HIGH STREET
BULLS
MANAWATU 4818
NEW ZEALAND Manawatu-Wanganui New Zealand ",-40.1737859,175.3866765
MARTON HOTEL,"CORNER HAMMOND STREET AND BROADWAY
MARTON
MANAWATU 5460",Manawatu-Wanganui,New Zealand,"MARTON HOTEL CORNER HAMMOND STREET AND BROADWAY
MARTON
MANAWATU 5460 Manawatu-Wanganui New Zealand ",-40.0793203,175.3792768
GORGE ROAD COUNTRY CLUB,"CORNER STATE HIGHWAY 92 AND MORTON MAINS ROAD
WAITUNA
INVERCARGILL 9521",Southland,New Zealand,"GORGE ROAD COUNTRY CLUB CORNER STATE HIGHWAY 92 AND MORTON MAINS ROAD
WAITUNA
INVERCARGILL 9521 Southland New Zealand ",-46.4700965,168.6995544
SETTLER'S ARMS TAVERN,"MATAMAU & ORMONDVILLE ROAD
ORMONDVILLE
MANAWATU 5491",Manawatu-Wanganui,New Zealand,"SETTLER'S ARMS TAVERN MATAMAU & ORMONDVILLE ROAD
ORMONDVILLE
MANAWATU 5491 Manawatu-Wanganui New Zealand ",-40.1113611,176.2648287
TONGARIRO CHARTERED CLUB,"KATAPO STREET
TURANGI
TAUPO DISTRICT 3353",Waikato,New Zealand,"TONGARIRO CHARTERED CLUB KATAPO STREET
TURANGI
TAUPO DISTRICT 3353 Waikato New Zealand ",-38.9884334,175.8132946
Mount Sports Bar,"70 Maunganui Road
MT MAUNGANUI
BAY OF PLENTY 3116
NEW ZEALAND",Bay of Plenty,New Zealand,"Mount Sports Bar 70 Maunganui Road
MT MAUNGANUI
BAY OF PLENTY 3116
NEW ZEALAND Bay of Plenty New Zealand ",-37.6355489,176.1820333
GERALDINE TOWN & COUNTRY CLUB INC,"190 TALBOT STREET
GERALDINE
CANTERBURY 8751",Canterbury,New Zealand,"GERALDINE TOWN & COUNTRY CLUB INC 190 TALBOT STREET
GERALDINE
CANTERBURY 8751 Canterbury New Zealand ",-44.1038301,171.2445071
SOUTH CANTERBURY RETURNED SERVICES ASSOCIATION,"21 WAI-ITI ROAD
TIMARU
TIMARU 7910",Canterbury,New Zealand,"SOUTH CANTERBURY RETURNED SERVICES ASSOCIATION 21 WAI-ITI ROAD
TIMARU
TIMARU 7910 Canterbury New Zealand ",-44.3906263,171.242879
THE SAIL,"51 SOPHIA STREET
TIMARU
TIMARU 7910",Canterbury,New Zealand,"THE SAIL 51 SOPHIA STREET
TIMARU
TIMARU 7910 Canterbury New Zealand ",-44.3957148,171.2511877
The Little Totara,"1 TURON CRESCENT
TOTARA PARK
UPPER HUTT 5018",Wellington,New Zealand,"The Little Totara 1 TURON CRESCENT
TOTARA PARK
UPPER HUTT 5018 Wellington New Zealand ",-41.1103467,175.0817943
OTEMATATA DISTRICT CLUB,"SEFTON LANE
OTEMATATA
NORTH OTAGO 8950",Canterbury,New Zealand,"OTEMATATA DISTRICT CLUB SEFTON LANE
OTEMATATA
NORTH OTAGO 8950 Canterbury New Zealand ",-44.6034496,170.1920259
IL BORDELLO,"146 VIVIAN STREET
WELLINGTON CENTRAL
WELLINGTON 6011",Wellington,New Zealand,"IL BORDELLO 146 VIVIAN STREET
WELLINGTON CENTRAL
WELLINGTON 6011 Wellington New Zealand ",-41.294869,174.7755351
EVA BEVA,"31-35 DIXON STREET
TE ARO
WELLINGTON 6001",Wellington,New Zealand,"EVA BEVA 31-35 DIXON STREET
TE ARO
WELLINGTON 6001 Wellington New Zealand ",-41.2921422,174.7775382
Te Puke Club,"14 KING STREET
TE PUKE
BAY OF PLENTY 3071",Bay of Plenty,New Zealand,"Te Puke Club 14 KING STREET
TE PUKE
BAY OF PLENTY 3071 Bay of Plenty New Zealand ",-37.7841598,176.3269382
KAMO CLUB,"7-11 MELDRUM STREET
KAMO
NORTHLAND 0141",Northland,New Zealand,"KAMO CLUB 7-11 MELDRUM STREET
KAMO
NORTHLAND 0141 Northland New Zealand ",-35.6749725,174.3081474
NGUNGURU SPORTS COMPLEX,"KOPIPI CRESCENT
WHANGAREI CENTRAL
NORTHLAND 0110",Northland,New Zealand,"NGUNGURU SPORTS COMPLEX KOPIPI CRESCENT
WHANGAREI CENTRAL
NORTHLAND 0110 Northland New Zealand ",-35.6284313,174.5041591
NORTHLAND CLUB INC,"8 POROWINI AVENUE
WHANGAREI CENTRAL
NORTHLAND 0110",Northland,New Zealand,"NORTHLAND CLUB INC 8 POROWINI AVENUE
WHANGAREI CENTRAL
NORTHLAND 0110 Northland New Zealand ",-35.7295517,174.3162329
CHURCHILL CLUB OF GLENDOWIE,"259 RIDDELL ROAD
GLENDOWIE
AUCKLAND 1071",Auckland,New Zealand,"CHURCHILL CLUB OF GLENDOWIE 259 RIDDELL ROAD
GLENDOWIE
AUCKLAND 1071 Auckland New Zealand ",-36.861908,174.8804184
PAPATOETOE HUNTERS CORNER BOWLING CLUB INCORPORATED,"247 GREAT SOUTH ROAD
PAPATOETOE
AUCKLAND 2025",Auckland,New Zealand,"PAPATOETOE HUNTERS CORNER BOWLING CLUB INCORPORATED 247 GREAT SOUTH ROAD
PAPATOETOE
AUCKLAND 2025 Auckland New Zealand ",-36.9723011,174.8622926
KAIPARA MEMORIAL RSA,"49 COMMERCIAL ROAD
HELENSVILLE
RODNEY DISTRICT 0800",Auckland,New Zealand,"KAIPARA MEMORIAL RSA 49 COMMERCIAL ROAD
HELENSVILLE
RODNEY DISTRICT 0800 Auckland New Zealand ",-36.6765532,174.4509408
NORTH SHORE COSMOPOLITAN CLUB INC,"65 PAUL MATTHEW ROAD
ALBANY
NORTH SHORE CITY 0632",Auckland,New Zealand,"NORTH SHORE COSMOPOLITAN CLUB INC 65 PAUL MATTHEW ROAD
ALBANY
NORTH SHORE CITY 0632 Auckland New Zealand ",-36.7512183,174.7139445
THE ROCK WAIHEKE,"11 BELGIUM STREET
OSTEND
AUCKLAND 1081
NEW ZEALAND",Auckland,New Zealand,"THE ROCK WAIHEKE 11 BELGIUM STREET
OSTEND
AUCKLAND 1081
NEW ZEALAND Auckland New Zealand ",-36.7959553,175.0451593
WINNERS SPORTS TAVERN,"12 COMMERCE STREET
AUCKLAND CENTRAL
AUCKLAND 1010",Auckland,New Zealand,"WINNERS SPORTS TAVERN 12 COMMERCE STREET
AUCKLAND CENTRAL
AUCKLAND 1010 Auckland New Zealand ",-36.8456925,174.767967
AVONDALE BOWLING CLUB,"15 HIGHBURY STREET
AVONDALE
AUCKLAND 1026",Auckland,New Zealand,"AVONDALE BOWLING CLUB 15 HIGHBURY STREET
AVONDALE
AUCKLAND 1026 Auckland New Zealand ",-36.8924979,174.6949661
STAR TAVERN,"6 LIGHTHOUSE ROAD
CAPE FOULWIND
BULLER 7621",West Coast,New Zealand,"STAR TAVERN 6 LIGHTHOUSE ROAD
CAPE FOULWIND
BULLER 7621 West Coast New Zealand ",-41.749733,171.4818784
SANDFORD ARMS TAVERN,"BRIDGE STREET
ONGAONGA
HAWKES BAY 4170",Hawke's Bay,New Zealand,"SANDFORD ARMS TAVERN BRIDGE STREET
ONGAONGA
HAWKES BAY 4170 Hawke's Bay New Zealand ",-39.9118804,176.4156699
GISBORNE 2ND NZEF ASSOCIATION,"333 PALMERSTON ROAD
GISBORNE CENTRAL
GISBORNE 4010",Gisborne,New Zealand,"GISBORNE 2ND NZEF ASSOCIATION 333 PALMERSTON ROAD
GISBORNE CENTRAL
GISBORNE 4010 Gisborne New Zealand ",-38.6609252,178.0218435
STILLWATER HOTEL,"1376 STATE HIGHWAY 7
STILLWATER
GREYMOUTH 7805",West Coast,New Zealand,"STILLWATER HOTEL 1376 STATE HIGHWAY 7
STILLWATER
GREYMOUTH 7805 West Coast New Zealand ",-42.43727,171.350306
THE QUADRANT,"CORNER ALMA AND VICTORIA STREETS
HAMILTON CENTRAL
HAMILTON 3204",Waikato,New Zealand,"THE QUADRANT CORNER ALMA AND VICTORIA STREETS
HAMILTON CENTRAL
HAMILTON 3204 Waikato New Zealand ",-37.7865538,175.2818637
Sand Bar,"27 Collingwood Street
HAMILTON CENTRAL
HAMILTON 3204
NEW ZEALAND",Waikato,New Zealand,"Sand Bar 27 Collingwood Street
HAMILTON CENTRAL
HAMILTON 3204
NEW ZEALAND Waikato New Zealand ",-37.7907132,175.284862
HASTINGS RETURNED SERVICES ASSOCIATION CLUB,"AVENUE ROAD WEST
HASTINGS CENTRAL
HAWKES BAY 4201",Hawke's Bay,New Zealand,"HASTINGS RETURNED SERVICES ASSOCIATION CLUB AVENUE ROAD WEST
HASTINGS CENTRAL
HAWKES BAY 4201 Hawke's Bay New Zealand ",-39.6360085,176.8406133
WAIKIWI TAVERN,"35 GIMBLETT STREET
WAIKIWI
INVERCARGILL 9501",Southland,New Zealand,"WAIKIWI TAVERN 35 GIMBLETT STREET
WAIKIWI
INVERCARGILL 9501 Southland New Zealand ",-46.3817297,168.3476517
MAKAREWA COUNTRY CLUB,"CORNER STATE HIGHWAY 6 AND POMONA ROAD
MAKAREWA
INVERCARGILL 9521",Southland,New Zealand,"MAKAREWA COUNTRY CLUB CORNER STATE HIGHWAY 6 AND POMONA ROAD
MAKAREWA
INVERCARGILL 9521 Southland New Zealand ",-46.3364865,168.3486678
ROBBIES BAR & BISTRO KAIKOURA,"134 BEACH ROAD
KAIKOURA TOWNSHIP
CANTERBURY 8280",Canterbury,New Zealand,"ROBBIES BAR & BISTRO KAIKOURA 134 BEACH ROAD
KAIKOURA TOWNSHIP
CANTERBURY 8280 Canterbury New Zealand ",-42.3867084,173.6793483
PAPAROA HOTEL,"MAIN ROAD STATE HIGHWAY 12
PAPAROA
NORTHLAND 0585",Northland,New Zealand,"PAPAROA HOTEL MAIN ROAD STATE HIGHWAY 12
PAPAROA
NORTHLAND 0585 Northland New Zealand ",-36.1029919,174.2324743
PARAPARAUMU RSA CLUB,"110 AMOHIA STREET
PARAPARAUMU
KAPITI COAST 5032
NEW ZEALAND",Wellington,New Zealand,"PARAPARAUMU RSA CLUB 110 AMOHIA STREET
PARAPARAUMU
KAPITI COAST 5032
NEW ZEALAND Wellington New Zealand ",-40.8936833,174.9796723
PARROT & JIGGER,"BUILDING 3 499-509 HUTT ROAD
LOWER HUTT CENTRAL
LOWER HUTT 5010",Wellington,New Zealand,"PARROT & JIGGER BUILDING 3 499-509 HUTT ROAD
LOWER HUTT CENTRAL
LOWER HUTT 5010 Wellington New Zealand ",-41.2119636,174.8899519
WHISTLESTOP TAB & BAR,"BUILDING 2 499-509 HUTT ROAD
LOWER HUTT CENTRAL
LOWER HUTT 5010",Wellington,New Zealand,"WHISTLESTOP TAB & BAR BUILDING 2 499-509 HUTT ROAD
LOWER HUTT CENTRAL
LOWER HUTT 5010 Wellington New Zealand ",-41.212156,174.890135
TAITA RETURNED SERVICES ASSOCIATION,"14 TOCKER STREET
TAITA
LOWER HUTT 5011",Wellington,New Zealand,"TAITA RETURNED SERVICES ASSOCIATION 14 TOCKER STREET
TAITA
LOWER HUTT 5011 Wellington New Zealand ",-41.1712952,174.9848972
MASTERTON COSMOPOLITAN CLUB,"195-197 CHAPEL STREET
MASTERTON
MASTERTON DISTRICT 5840",Wellington,New Zealand,"MASTERTON COSMOPOLITAN CLUB 195-197 CHAPEL STREET
MASTERTON
MASTERTON DISTRICT 5840 Wellington New Zealand ",-40.9558175,175.6512487
TE AROHA CLUB INCORPORATED,"42 CENTENNIAL AVENUE
TE AROHA
WAIKATO 3320",Waikato,New Zealand,"TE AROHA CLUB INCORPORATED 42 CENTENNIAL AVENUE
TE AROHA
WAIKATO 3320 Waikato New Zealand ",-37.532817,175.7075558
Guffle Bar,"29A Hastings Street
NAPIER CITY
NAPIER 4110
NEW ZEALAND",Hawke's Bay,New Zealand,"Guffle Bar 29A Hastings Street
NAPIER CITY
NAPIER 4110
NEW ZEALAND Hawke's Bay New Zealand ",-39.4890181,176.9177577
THE VERDICT,"189 BRIDGE STREET
NELSON CENTRAL
NELSON 7001",Nelson,New Zealand,"THE VERDICT 189 BRIDGE STREET
NELSON CENTRAL
NELSON 7001 Nelson New Zealand ",-41.272465,173.2886025
TE KAHA HOTEL,"STATE HIGHWAY 35
TE KAHA
OPOTIKI DISTRICT 3093",Bay of Plenty,New Zealand,"TE KAHA HOTEL STATE HIGHWAY 35
TE KAHA
OPOTIKI DISTRICT 3093 Bay of Plenty New Zealand ",-37.7399659,177.6763386
SHOOTERS,"511-513 MAIN STREET
PALMERSTON NORTH CENTRAL
PALMERSTON NORTH 5301",Manawatu-Wanganui,New Zealand,"SHOOTERS 511-513 MAIN STREET
PALMERSTON NORTH CENTRAL
PALMERSTON NORTH 5301 Manawatu-Wanganui New Zealand ",-40.3545503,175.6141799
TUI PUBLIC HOUSE,"341 CHURCH STREET
PALMERSTON NORTH CENTRAL
PALMERSTON NORTH 5301",Manawatu-Wanganui,New Zealand,"TUI PUBLIC HOUSE 341 CHURCH STREET
PALMERSTON NORTH CENTRAL
PALMERSTON NORTH 5301 Manawatu-Wanganui New Zealand ",-40.3574924,175.6123634
TwentyTwo Kitchen and Bar,"22 Fitzherbert Avenue
PALMERSTON NORTH CENTRAL
PALMERSTON NORTH 4410
NEW ZEALAND",Manawatu-Wanganui,New Zealand,"TwentyTwo Kitchen and Bar 22 Fitzherbert Avenue
PALMERSTON NORTH CENTRAL
PALMERSTON NORTH 4410
NEW ZEALAND Manawatu-Wanganui New Zealand ",-40.357942,175.6122316
THE PLIMMERTON BOWLING CLUB,"GRAYS ROAD
PLIMMERTON
PORIRUA 6006",Wellington,New Zealand,"THE PLIMMERTON BOWLING CLUB GRAYS ROAD
PLIMMERTON
PORIRUA 6006 Wellington New Zealand ",-41.0856486,174.8701065
THE LEDGE,"1 SERLBY PLACE
PORIRUA
WELLINGTON 6006",Wellington,New Zealand,"THE LEDGE 1 SERLBY PLACE
PORIRUA
WELLINGTON 6006 Wellington New Zealand ",-41.1342983,174.8405756
VALENTINES ROTORUA,"1119 AMOHAU STREET
ROTORUA CENTRAL
ROTORUA 3201",Bay of Plenty,New Zealand,"VALENTINES ROTORUA 1119 AMOHAU STREET
ROTORUA CENTRAL
ROTORUA 3201 Bay of Plenty New Zealand ",-38.1397218,176.2532219
Aparima Restaurant & Bar,"17 Orepuki - Riverton Highway
RIVERTON
SOUTHLAND 9822
NEW ZEALAND",Southland,New Zealand,"Aparima Restaurant & Bar 17 Orepuki - Riverton Highway
RIVERTON
SOUTHLAND 9822
NEW ZEALAND Southland New Zealand ",-46.3536742,168.0068335
STRATFORD CLUB,"JULIET STREET
STRATFORD
TARANAKI 4352",Taranaki,New Zealand,"STRATFORD CLUB JULIET STREET
STRATFORD
TARANAKI 4352 Taranaki New Zealand ",-39.3379091,174.2860045
DEJAVU RESTAURANT & BAR,"305 BROADWAY
STRATFORD
TARANAKI 4352",Taranaki,New Zealand,"DEJAVU RESTAURANT & BAR 305 BROADWAY
STRATFORD
TARANAKI 4352 Taranaki New Zealand ",-39.3405937,174.2849814
Armadillos Bar & Grill,"121 HIGH STREET
MOTUEKA
TASMAN DISTRICT 7160",Tasman,New Zealand,"Armadillos Bar & Grill 121 HIGH STREET
MOTUEKA
TASMAN DISTRICT 7160 Tasman New Zealand ",-41.1102361,173.0109529
MANGAKINO HOTEL,"55 RANGATIRA DRIVE
MANGAKINO
WAIKATO 2391",Waikato,New Zealand,"MANGAKINO HOTEL 55 RANGATIRA DRIVE
MANGAKINO
WAIKATO 2391 Waikato New Zealand ",-38.36941,175.774149
JCS SPORTS BAR,"5 RATA STREET WAIRAKEI
TAUPO
TAUPO DISTRICT 3351",Waikato,New Zealand,"JCS SPORTS BAR 5 RATA STREET WAIRAKEI
TAUPO
TAUPO DISTRICT 3351 Waikato New Zealand ",-38.6195733,176.1019591
TOMI'S,"18 TUWHARETOA STREET
TAUPO
TAUPO DISTRICT 3351",Waikato,New Zealand,"TOMI'S 18 TUWHARETOA STREET
TAUPO
TAUPO DISTRICT 3351 Waikato New Zealand ",-38.6885823,176.070104
COBB & CO (TAURANGA),"105 THE STRAND
TAURANGA CENTRAL
TAURANGA 3001",Bay of Plenty,New Zealand,"COBB & CO (TAURANGA) 105 THE STRAND
TAURANGA CENTRAL
TAURANGA 3001 Bay of Plenty New Zealand ",-37.683714,176.169836
MOUNT TURF & SPORTS BAR,"223 MAUNGANUI ROAD
MT MAUNGANUI
BAY OF PLENTY 3150",Bay of Plenty,New Zealand,"MOUNT TURF & SPORTS BAR 223 MAUNGANUI ROAD
MT MAUNGANUI
BAY OF PLENTY 3150 Bay of Plenty New Zealand ",-37.6424493,176.1864617
TAB MOUNT MAUNGANUI,"1 OWENS PLACE
MT MAUNGANUI
BAY OF PLENTY 3150",Bay of Plenty,New Zealand,"TAB MOUNT MAUNGANUI 1 OWENS PLACE
MT MAUNGANUI
BAY OF PLENTY 3150 Bay of Plenty New Zealand ",-37.6787169,176.2222226
HIBERNIAN HOTEL,"4 LATTER STREET
TIMARU GARDENS
TIMARU 8601",Canterbury,New Zealand,"HIBERNIAN HOTEL 4 LATTER STREET
TIMARU GARDENS
TIMARU 8601 Canterbury New Zealand ",-44.399763,171.2528799
Alexandra Hotel,"815 FRANKLIN STREET
PIRONGIA
WAIKATO 2450",Waikato,New Zealand,"Alexandra Hotel 815 FRANKLIN STREET
PIRONGIA
WAIKATO 2450 Waikato New Zealand ",-37.9911596,175.2009145
AVOCA HOTEL,"448 STATE HIGHWAY 4 UPOKANGARO
WANGANUI
WANGANUI DISTRICT 4540",Manawatu-Wanganui,New Zealand,"AVOCA HOTEL 448 STATE HIGHWAY 4 UPOKANGARO
WANGANUI
WANGANUI DISTRICT 4540 Manawatu-Wanganui New Zealand ",-39.8686256,175.1144256
TURBO BAR,"20-32 RONGATAI ROAD
KILBIRNIE
WELLINGTON 6022",Wellington,New Zealand,"TURBO BAR 20-32 RONGATAI ROAD
KILBIRNIE
WELLINGTON 6022 Wellington New Zealand ",-41.3179565,174.7944378
WAIHI BEACH HOTEL,"WILSON ROAD
WAIHI BEACH
BAY OF PLENTY 2980",Bay of Plenty,New Zealand,"WAIHI BEACH HOTEL WILSON ROAD
WAIHI BEACH
BAY OF PLENTY 2980 Bay of Plenty New Zealand ",-37.408978,175.938079
TE PUKE MEMORIAL RSA,"16 OXFORD STREET
TE PUKE
BAY OF PLENTY 3119
NEW ZEALAND",Bay of Plenty,New Zealand,"TE PUKE MEMORIAL RSA 16 OXFORD STREET
TE PUKE
BAY OF PLENTY 3119
NEW ZEALAND Bay of Plenty New Zealand ",-37.7862808,176.3281426
FRANZ JOSEF GLACIER HOTEL,"STATE HIGHWAY 6
FRANZ JOSEF
WESTLAND 7952",West Coast,New Zealand,"FRANZ JOSEF GLACIER HOTEL STATE HIGHWAY 6
FRANZ JOSEF
WESTLAND 7952 West Coast New Zealand ",-43.3863847,170.1820269
MURUPARA HOTEL,"PINE DRIVE
MURUPARA
ROTORUA 3272",Bay of Plenty,New Zealand,"MURUPARA HOTEL PINE DRIVE
MURUPARA
ROTORUA 3272 Bay of Plenty New Zealand ",-38.4555113,176.7036966
PARUA BAY TAVERN,"WHANGAREI HEADS ROAD
PARUA BAY
NORTHLAND 0240",Northland,New Zealand,"PARUA BAY TAVERN WHANGAREI HEADS ROAD
PARUA BAY
NORTHLAND 0240 Northland New Zealand ",-35.7728484,174.4517783
ICONIC,"236 High Street
CHRISTCHURCH CENTRAL
CHRISTCHURCH 8011
NEW ZEALAND",Canterbury,New Zealand,"ICONIC 236 High Street
CHRISTCHURCH CENTRAL
CHRISTCHURCH 8011
NEW ZEALAND Canterbury New Zealand ",-43.5327466,172.6380469
Terminus,"1 GREAT KING STREET
NORTH DUNEDIN
DUNEDIN 9016",Otago,New Zealand,"Terminus 1 GREAT KING STREET
NORTH DUNEDIN
DUNEDIN 9016 Otago New Zealand ",-45.873564,170.5058293
@ Our Place,"350 Gloucester Street
TARADALE
NAPIER 4112
NEW ZEALAND",Hawke's Bay,New Zealand,"@ Our Place 350 Gloucester Street
TARADALE
NAPIER 4112
NEW ZEALAND Hawke's Bay New Zealand ",-39.5381029,176.8481893
THE LEDGE,"10 Lydney Place
PORIRUA
WELLINGTON 6006
NEW ZEALAND",Wellington,New Zealand,"THE LEDGE 10 Lydney Place
PORIRUA
WELLINGTON 6006
NEW ZEALAND Wellington New Zealand ",-41.1347633,174.8415612
Robbie Burns Pub,"374 George Street
DUNEDIN CENTRAL
DUNEDIN 9016
NEW ZEALAND",Otago,New Zealand,"Robbie Burns Pub 374 George Street
DUNEDIN CENTRAL
DUNEDIN 9016
NEW ZEALAND Otago New Zealand ",-45.8684446,170.5070452
ASHBURTON CLUB & MUTUAL SCHOOL OF ARTS INC,"217-243 BURNETT STREET
ASHBURTON
CANTERBURY 8300",Canterbury,New Zealand,"ASHBURTON CLUB & MUTUAL SCHOOL OF ARTS INC 217-243 BURNETT STREET
ASHBURTON
CANTERBURY 8300 Canterbury New Zealand ",-43.9053751,171.74911
ASHBURTON RSA,"12-16 COX STREET
ASHBURTON
CANTERBURY 8300",Canterbury,New Zealand,"ASHBURTON RSA 12-16 COX STREET
ASHBURTON
CANTERBURY 8300 Canterbury New Zealand ",-43.9013868,171.7537155
SOMERSET TAVERN,"284-294 EAST STREET
ASHBURTON
CANTERBURY 8300",Canterbury,New Zealand,"SOMERSET TAVERN 284-294 EAST STREET
ASHBURTON
CANTERBURY 8300 Canterbury New Zealand ",-43.9044751,171.7479644
AVONDALE RETURNED SERVICES ASSOCIATION,"7 LAYARD STREET
AVONDALE
AUCKLAND 1026",Auckland,New Zealand,"AVONDALE RETURNED SERVICES ASSOCIATION 7 LAYARD STREET
AVONDALE
AUCKLAND 1026 Auckland New Zealand ",-36.8947706,174.6977955
BLOCKHOUSE BAY BOWLING CLUB,"33 TERRY STREET
BLOCKHOUSE BAY
AUCKLAND 1007",Auckland,New Zealand,"BLOCKHOUSE BAY BOWLING CLUB 33 TERRY STREET
BLOCKHOUSE BAY
AUCKLAND 1007 Auckland New Zealand ",-36.9184568,174.7051469
The Buffet House,"527 East Coast Road
BROWNS BAY
NORTH SHORE CITY 0630
NEW ZEALAND",Auckland,New Zealand,"The Buffet House 527 East Coast Road
BROWNS BAY
NORTH SHORE CITY 0630
NEW ZEALAND Auckland New Zealand ",-36.7306594,174.7335013
TAINUI TAVERN,"33 MORRIN ROAD
PANMURE
AUCKLAND 1072
NEW ZEALAND",Auckland,New Zealand,"TAINUI TAVERN 33 MORRIN ROAD
PANMURE
AUCKLAND 1072
NEW ZEALAND Auckland New Zealand ",-36.8902281,174.8519123
GREY LYNN RETURNED SERVICES SOCIAL CLUB INCORPORATED,"1 FRANCIS STREET
GREY LYNN
AUCKLAND 1245",Auckland,New Zealand,"GREY LYNN RETURNED SERVICES SOCIAL CLUB INCORPORATED 1 FRANCIS STREET
GREY LYNN
AUCKLAND 1245 Auckland New Zealand ",-36.8590013,174.7302852
MARITIME CLUB INC,"68 ANZAC AVENUE
AUCKLAND CENTRAL
AUCKLAND 1010",Auckland,New Zealand,"MARITIME CLUB INC 68 ANZAC AVENUE
AUCKLAND CENTRAL
AUCKLAND 1010 Auckland New Zealand ",-36.8474507,174.7727819
ONEHUNGA & DISTRICT RSA,"57 PRINCES STREET
ONEHUNGA
AUCKLAND 1006",Auckland,New Zealand,"ONEHUNGA & DISTRICT RSA 57 PRINCES STREET
ONEHUNGA
AUCKLAND 1006 Auckland New Zealand ",-36.9254172,174.7852107
ONEHUNGA WORKINGMEN'S CLUB,"158 THE MALL
ONEHUNGA
AUCKLAND 1006",Auckland,New Zealand,"ONEHUNGA WORKINGMEN'S CLUB 158 THE MALL
ONEHUNGA
AUCKLAND 1006 Auckland New Zealand ",-36.923549,174.784805
THE ORAKEI RETURNED SERVICES ASSOCIATION INCORPORATED,"178 KEPA ROAD
ORAKEI
AUCKLAND 1005",Auckland,New Zealand,"THE ORAKEI RETURNED SERVICES ASSOCIATION INCORPORATED 178 KEPA ROAD
ORAKEI
AUCKLAND 1005 Auckland New Zealand ",-36.861243,174.8250615
WAIHEKE RSA CLUB,"29 BELGIUM STREET
OSTEND
AUCKLAND 1240",Auckland,New Zealand,"WAIHEKE RSA CLUB 29 BELGIUM STREET
OSTEND
AUCKLAND 1240 Auckland New Zealand ",-36.7961918,175.0474578
CLUB BULLER,"44-46 QUEEN STREET
WESTPORT RURAL
BULLER 7621",West Coast,New Zealand,"CLUB BULLER 44-46 QUEEN STREET
WESTPORT RURAL
BULLER 7621 West Coast New Zealand ",-41.7506889,171.600344
MELBOURNE HOTEL,"284 PALMERSTON STREET
WESTPORT URBAN
BULLER 7621",West Coast,New Zealand,"MELBOURNE HOTEL 284 PALMERSTON STREET
WESTPORT URBAN
BULLER 7621 West Coast New Zealand ",-37.8136276,144.9630576
ETTRICK TAVERN,"RAPID 5163 STATE HIGHWAY 8 RD2
ROXBURGH
OTAGO 9156",Otago,New Zealand,"ETTRICK TAVERN RAPID 5163 STATE HIGHWAY 8 RD2
ROXBURGH
OTAGO 9156 Otago New Zealand ",-45.6383596,169.3691182
GOLDFIELDS HOTEL,"130 SCOTLAND STREET
ROXBURGH
OTAGO 9156",Otago,New Zealand,"GOLDFIELDS HOTEL 130 SCOTLAND STREET
ROXBURGH
OTAGO 9156 Otago New Zealand ",-45.5422919,169.3153698
NEW BRIGHTON WORKINGMENS CLUB,"202 MARINE PARADE
NEW BRIGHTON
CHRISTCHURCH 8007",Canterbury,New Zealand,"NEW BRIGHTON WORKINGMENS CLUB 202 MARINE PARADE
NEW BRIGHTON
CHRISTCHURCH 8007 Canterbury New Zealand ",-43.5056602,172.7301491
PAPANUI CLUB,"310 SAWYERS ARMS ROAD
HAREWOOD
CHRISTCHURCH 8051",Canterbury,New Zealand,"PAPANUI CLUB 310 SAWYERS ARMS ROAD
HAREWOOD
CHRISTCHURCH 8051 Canterbury New Zealand ",-43.478224,172.5900921
RICHMOND WMC & MSA,"75 LONDON STREET
RICHMOND
CHRISTCHURCH 8001",Canterbury,New Zealand,"RICHMOND WMC & MSA 75 LONDON STREET
RICHMOND
CHRISTCHURCH 8001 Canterbury New Zealand ",-43.5189032,172.6556624
WOOLSTON WORKINGMENS CLUB,"43 HARGOOD STREET
WOOLSTON
CHRISTCHURCH 8002",Canterbury,New Zealand,"WOOLSTON WORKINGMENS CLUB 43 HARGOOD STREET
WOOLSTON
CHRISTCHURCH 8002 Canterbury New Zealand ",-43.5443716,172.6805258
WAIKOUAITI BEACH TAVERN,"156 BEACH STREET
WAIKOUAITI
DUNEDIN 9063",Otago,New Zealand,"WAIKOUAITI BEACH TAVERN 156 BEACH STREET
WAIKOUAITI
DUNEDIN 9063 Otago New Zealand ",-45.6094527,170.6712491
SOUTHERN SPORTS BAR & GRILL,"649 PRINCES STREET
DUNEDIN CENTRAL
DUNEDIN 9054",Otago,New Zealand,"SOUTHERN SPORTS BAR & GRILL 649 PRINCES STREET
DUNEDIN CENTRAL
DUNEDIN 9054 Otago New Zealand ",-45.8764696,170.5026438
ARTHUR DALEY'S TAVERN,"215 MAIN SOUTH ROAD
GREEN ISLAND
DUNEDIN 9006",Otago,New Zealand,"ARTHUR DALEY'S TAVERN 215 MAIN SOUTH ROAD
GREEN ISLAND
DUNEDIN 9006 Otago New Zealand ",-45.9021335,170.4276714
HEREKINO TAVERN,"WHANGAPE ROAD
HEREKINO
NORTHLAND 0551",Northland,New Zealand,"HEREKINO TAVERN WHANGAPE ROAD
HEREKINO
NORTHLAND 0551 Northland New Zealand ",-35.2679672,173.2103118
RUSSELL RSA,"CHAPEL STREET
RUSSELL
NORTHLAND 0202",Northland,New Zealand,"RUSSELL RSA CHAPEL STREET
RUSSELL
NORTHLAND 0202 Northland New Zealand ",-35.2619401,174.1227001
FRANKLIN CLUB INCORPORATED,"7 EAST STREET
PUKEKOHE
FRANKLIN 1800",Auckland,New Zealand,"FRANKLIN CLUB INCORPORATED 7 EAST STREET
PUKEKOHE
FRANKLIN 1800 Auckland New Zealand ",-37.2007987,174.9092589
TAB PUKEKOHE,"UNIT 5 65 EDINBURGH STREET
PUKEKOHE
FRANKLIN 1800",Auckland,New Zealand,"TAB PUKEKOHE UNIT 5 65 EDINBURGH STREET
PUKEKOHE
FRANKLIN 1800 Auckland New Zealand ",-37.199627,174.9045019
GORE DISTRICT MEMORIAL RSA INC,"12 CIVIC AVENUE
GORE
SOUTHLAND 9700",Southland,New Zealand,"GORE DISTRICT MEMORIAL RSA INC 12 CIVIC AVENUE
GORE
SOUTHLAND 9700 Southland New Zealand ",-46.1019305,168.9426855
AHAURA HOTEL,"CLIFTON STREET
AHAURA
GREY DISTRICT 7871",West Coast,New Zealand,"AHAURA HOTEL CLIFTON STREET
AHAURA
GREY DISTRICT 7871 West Coast New Zealand ",-42.3497129,171.5403119
REVINGTONS HOTEL,"46 TAINUI STREET
GREYMOUTH
GREY DISTRICT 7805",West Coast,New Zealand,"REVINGTONS HOTEL 46 TAINUI STREET
GREYMOUTH
GREY DISTRICT 7805 West Coast New Zealand ",-42.4482122,171.2101062
RAPAHOE HOTEL,"BEACH ROAD
RAPAHOE
GREYMOUTH 7821",West Coast,New Zealand,"RAPAHOE HOTEL BEACH ROAD
RAPAHOE
GREYMOUTH 7821 West Coast New Zealand ",-42.375,171.2409098
MAGPIES,"116 KING STREET
HASTINGS CENTRAL
HAWKES BAY 4201",Hawke's Bay,New Zealand,"MAGPIES 116 KING STREET
HASTINGS CENTRAL
HAWKES BAY 4201 Hawke's Bay New Zealand ",-39.640825,176.8410966
HASTINGS DARTS ASSOCIATION,"205 NELSON STREET SOUTH
HASTINGS CENTRAL
HAWKES BAY 4201",Hawke's Bay,New Zealand,"HASTINGS DARTS ASSOCIATION 205 NELSON STREET SOUTH
HASTINGS CENTRAL
HAWKES BAY 4201 Hawke's Bay New Zealand ",-39.6399326,176.8384092
FOXTON RETURNED SERVICES ASSOCIATION,"1 EASTON STREET
FOXTON
MANAWATU 5551",Manawatu-Wanganui,New Zealand,"FOXTON RETURNED SERVICES ASSOCIATION 1 EASTON STREET
FOXTON
MANAWATU 5551 Manawatu-Wanganui New Zealand ",-40.4671955,175.280856
LEVIN RETURNED SERVICES ASSOCIATION,"5 DEVON STREET
LEVIN
MANAWATU 5500",Manawatu-Wanganui,New Zealand,"LEVIN RETURNED SERVICES ASSOCIATION 5 DEVON STREET
LEVIN
MANAWATU 5500 Manawatu-Wanganui New Zealand ",-40.6190732,175.2884742
CLUB SOUTHLAND,"115 LEET STREET
INVERCARGILL CENTRAL
INVERCARGILL 9501",Southland,New Zealand,"CLUB SOUTHLAND 115 LEET STREET
INVERCARGILL CENTRAL
INVERCARGILL 9501 Southland New Zealand ",-46.407641,168.3543954
APPLEBY TAVERN,"CORNER NITH STREET AND BALMORAL DRIVE
APPLEBY
INVERCARGILL 9501",Southland,New Zealand,"APPLEBY TAVERN CORNER NITH STREET AND BALMORAL DRIVE
APPLEBY
INVERCARGILL 9501 Southland New Zealand ",-46.4243125,168.3508344
TILLERMANS MUSIC LOUNGE,"14-16 DON STREET
INVERCARGILL CENTRAL
INVERCARGILL 9501",Southland,New Zealand,"TILLERMANS MUSIC LOUNGE 14-16 DON STREET
INVERCARGILL CENTRAL
INVERCARGILL 9501 Southland New Zealand ",-46.4106169,168.3485182
PLAYERS ENTERTAINMENT,"25 TAY STREET
INVERCARGILL CENTRAL
INVERCARGILL 9501",Southland,New Zealand,"PLAYERS ENTERTAINMENT 25 TAY STREET
INVERCARGILL CENTRAL
INVERCARGILL 9501 Southland New Zealand ",-46.4133832,168.3491991
DARGAVILLE BOWLING CLUB,"CORNER NORMANBY AND PARORE STREETS
DARGAVILLE
NORTHLAND 0310",Northland,New Zealand,"DARGAVILLE BOWLING CLUB CORNER NORMANBY AND PARORE STREETS
DARGAVILLE
NORTHLAND 0310 Northland New Zealand ",-35.9395082,173.8712465
NORTHERN WAIROA RETURNED SERVICES ASSOCIATION,"HOKIANGA ROAD
DARGAVILLE
NORTHLAND 0310",Northland,New Zealand,"NORTHERN WAIROA RETURNED SERVICES ASSOCIATION HOKIANGA ROAD
DARGAVILLE
NORTHLAND 0310 Northland New Zealand ",-35.9377198,173.87145
WAIKANAE HOTEL,"34 MAIN ROAD
WAIKANAE
KAPITI COAST 6010",Wellington,New Zealand,"WAIKANAE HOTEL 34 MAIN ROAD
WAIKANAE
KAPITI COAST 6010 Wellington New Zealand ",-40.8733215,175.0678558
OTAKI RSA CLUBROOMS,"9 RAUKAWA STREET
OTAKI
KAPITI COAST 5560",Wellington,New Zealand,"OTAKI RSA CLUBROOMS 9 RAUKAWA STREET
OTAKI
KAPITI COAST 5560 Wellington New Zealand ",-40.7520246,175.1400292
PARAPARAUMU RSA CLUB,"110 AMOHIA STREET
PARAPARAUMU
KAPITI COAST 5254",Wellington,New Zealand,"PARAPARAUMU RSA CLUB 110 AMOHIA STREET
PARAPARAUMU
KAPITI COAST 5254 Wellington New Zealand ",-40.9110639,175.011509
NAENAE BOWLING CLUB INCORPORATED,"135 WITAKO STREET
NAENAE
LOWER HUTT 6009",Wellington,New Zealand,"NAENAE BOWLING CLUB INCORPORATED 135 WITAKO STREET
NAENAE
LOWER HUTT 6009 Wellington New Zealand ",-41.2008333,174.9486111
STOKES VALLEY RSA CLUBROOMS,"21 HAWTHORN CRESCENT
STOKES VALLEY
LOWER HUTT 5019",Wellington,New Zealand,"STOKES VALLEY RSA CLUBROOMS 21 HAWTHORN CRESCENT
STOKES VALLEY
LOWER HUTT 5019 Wellington New Zealand ",-41.1711836,174.9847288
BRIDGE PARK BOWLING CLUB INC,"27A TAYLOR ROAD
MANGERE BRIDGE
MANUKAU 1701",Auckland,New Zealand,"BRIDGE PARK BOWLING CLUB INC 27A TAYLOR ROAD
MANGERE BRIDGE
MANUKAU 1701 Auckland New Zealand ",-36.9457432,174.7839745
HOWICK CLUB INC,"107 BOTANY ROAD
HOWICK
MANUKAU 1704",Auckland,New Zealand,"HOWICK CLUB INC 107 BOTANY ROAD
HOWICK
MANUKAU 1704 Auckland New Zealand ",-36.909125,174.9159198
MANGERE BOWLING CLUB INC,"360 MASSEY ROAD
MANGERE EAST
MANUKAU 1701",Auckland,New Zealand,"MANGERE BOWLING CLUB INC 360 MASSEY ROAD
MANGERE EAST
MANUKAU 1701 Auckland New Zealand ",-36.9670118,174.8271564
MANGERE COSMOPOLITAN CLUB,"94-100 BADER DRIVE
MANGERE
MANUKAU 1701",Auckland,New Zealand,"MANGERE COSMOPOLITAN CLUB 94-100 BADER DRIVE
MANGERE
MANUKAU 1701 Auckland New Zealand ",-36.9678777,174.7985688
MANUREWA RSA,"2/8 MAICH ROAD
MANUREWA
MANUKAU 1702",Auckland,New Zealand,"MANUREWA RSA 2/8 MAICH ROAD
MANUREWA
MANUKAU 1702 Auckland New Zealand ",-37.0216667,174.8944444
WEYMOUTH COSMOPOLITAN & SPORTS CLUB,"151 SYKES ROAD
MANUREWA
MANUKAU 1702",Auckland,New Zealand,"WEYMOUTH COSMOPOLITAN & SPORTS CLUB 151 SYKES ROAD
MANUREWA
MANUKAU 1702 Auckland New Zealand ",-37.0417919,174.8815305
STARBOROUGH TAVERN,"23 GOULTER STREET
SEDDON
MARLBOROUGH 7353",Marlborough,New Zealand,"STARBOROUGH TAVERN 23 GOULTER STREET
SEDDON
MARLBOROUGH 7353 Marlborough New Zealand ",-41.6717277,174.0772074
MATAMATA MEMORIAL R.S.A. INCORPORATED,"NGAIO STREET
MATAMATA
WAIKATO 2271",Waikato,New Zealand,"MATAMATA MEMORIAL R.S.A. INCORPORATED NGAIO STREET
MATAMATA
WAIKATO 2271 Waikato New Zealand ",-37.807337,175.775928
MORRINSVILLE DISTRICT RSA,"27 STUDHOLME STREET
MORRINSVILLE
WAIKATO 2251",Waikato,New Zealand,"MORRINSVILLE DISTRICT RSA 27 STUDHOLME STREET
MORRINSVILLE
WAIKATO 2251 Waikato New Zealand ",-37.6608966,175.5300729
TAHUNA TAVERN,"3 HUIA STREET
TAHUNA
WAIKATO 2250",Waikato,New Zealand,"TAHUNA TAVERN 3 HUIA STREET
TAHUNA
WAIKATO 2250 Waikato New Zealand ",-37.4982504,175.4937012
TE AROHA MEMORIAL RSA,"67 REWI STREET
TE AROHA
WAIKATO 3320",Waikato,New Zealand,"TE AROHA MEMORIAL RSA 67 REWI STREET
TE AROHA
WAIKATO 3320 Waikato New Zealand ",-37.5432364,175.710527
WEST END BOWLING CLUB,"101 CUTFIELD ROAD
NEW PLYMOUTH CENTRAL
NEW PLYMOUTH 4310",Taranaki,New Zealand,"WEST END BOWLING CLUB 101 CUTFIELD ROAD
NEW PLYMOUTH CENTRAL
NEW PLYMOUTH 4310 Taranaki New Zealand ",-39.065942,174.0631167
GLENFIELD BOWLING CLUB,"3 ROSS AVENUE
GLENFIELD
NORTH SHORE CITY 1310",Auckland,New Zealand,"GLENFIELD BOWLING CLUB 3 ROSS AVENUE
GLENFIELD
NORTH SHORE CITY 1310 Auckland New Zealand ",-36.7752801,174.7233018
THE BAYS CLUB INCORPORATED,"2 ANZAC ROAD
BROWNS BAY
NORTH SHORE CITY 1311",Auckland,New Zealand,"THE BAYS CLUB INCORPORATED 2 ANZAC ROAD
BROWNS BAY
NORTH SHORE CITY 1311 Auckland New Zealand ",-36.7169431,174.748821
THE BIRKENHEAD BOWLING CLUB INCORPORATED,"93 MOKOIA ROAD
BIRKENHEAD
NORTH SHORE CITY 1310",Auckland,New Zealand,"THE BIRKENHEAD BOWLING CLUB INCORPORATED 93 MOKOIA ROAD
BIRKENHEAD
NORTH SHORE CITY 1310 Auckland New Zealand ",-36.8114529,174.7221793
ASHHURST MEMORIAL RSA,"74 CAMBRIDGE AVENUE
ASHHURST
MANAWATU 5451",Manawatu-Wanganui,New Zealand,"ASHHURST MEMORIAL RSA 74 CAMBRIDGE AVENUE
ASHHURST
MANAWATU 5451 Manawatu-Wanganui New Zealand ",-40.2916667,175.7547222
MANAWATU DARTS ASSOCIATION HALL,"324 TREMAINE AVENUE
PALMERSTON NORTH CENTRAL
PALMERSTON NORTH 5301",Manawatu-Wanganui,New Zealand,"MANAWATU DARTS ASSOCIATION HALL 324 TREMAINE AVENUE
PALMERSTON NORTH CENTRAL
PALMERSTON NORTH 5301 Manawatu-Wanganui New Zealand ",-40.3501617,175.5885615
PALMERSTON NORTH COSMOPOLITAN CLUB,"22 LINTON STREET
PALMERSTON NORTH CENTRAL
PALMERSTON NORTH 5301",Manawatu-Wanganui,New Zealand,"PALMERSTON NORTH COSMOPOLITAN CLUB 22 LINTON STREET
PALMERSTON NORTH CENTRAL
PALMERSTON NORTH 5301 Manawatu-Wanganui New Zealand ",-40.359531,175.609698
WHITE HORSE INN,"2180 State Highway 56
LONGBURN
MANAWATU 4412
NEW ZEALAND",Manawatu-Wanganui,New Zealand,"WHITE HORSE INN 2180 State Highway 56
LONGBURN
MANAWATU 4412
NEW ZEALAND Manawatu-Wanganui New Zealand ",-40.383668,175.5436137
TAKARO BOWLING CLUB,"6 FEATHERSTON STREET
TAKARO
PALMERSTON NORTH 5301",Manawatu-Wanganui,New Zealand,"TAKARO BOWLING CLUB 6 FEATHERSTON STREET
TAKARO
PALMERSTON NORTH 5301 Manawatu-Wanganui New Zealand ",-40.3574462,175.5905604
CAFE DE PARIS HOTEL,"267 MAIN STREET
PALMERSTON NORTH CENTRAL
PALMERSTON NORTH 5301",Manawatu-Wanganui,New Zealand,"CAFE DE PARIS HOTEL 267 MAIN STREET
PALMERSTON NORTH CENTRAL
PALMERSTON NORTH 5301 Manawatu-Wanganui New Zealand ",-40.3586264,175.6052033
PORIRUA RETURNED SERVICES ASSOCIATION INC,"5 MCKILLOP STREET
PORIRUA
WELLINGTON 6006",Wellington,New Zealand,"PORIRUA RETURNED SERVICES ASSOCIATION INC 5 MCKILLOP STREET
PORIRUA
WELLINGTON 6006 Wellington New Zealand ",-41.1377621,174.8487713
THE BUFFALO CLUB,"10 BRECON STREET
QUEENSTOWN
OTAGO 9197",Otago,New Zealand,"THE BUFFALO CLUB 10 BRECON STREET
QUEENSTOWN
OTAGO 9197 Otago New Zealand ",-45.0315634,168.658595
BULLS RETURNED SERVICES ASSOCIATION,"55 HIGH STREET
BULLS
MANAWATU 5452",Manawatu-Wanganui,New Zealand,"BULLS RETURNED SERVICES ASSOCIATION 55 HIGH STREET
BULLS
MANAWATU 5452 Manawatu-Wanganui New Zealand ",-40.1737859,175.3866765
CRITERION HOTEL (BULLS),"110 BRIDGE STREET
BULLS
MANAWATU 5452",Manawatu-Wanganui,New Zealand,"CRITERION HOTEL (BULLS) 110 BRIDGE STREET
BULLS
MANAWATU 5452 Manawatu-Wanganui New Zealand ",-40.1764789,175.3859015
ROTORUA CITIZENS CLUB,"CORNER ARAWA AND RANGIURU STREETS
ROTORUA CENTRAL
ROTORUA 3201",Bay of Plenty,New Zealand,"ROTORUA CITIZENS CLUB CORNER ARAWA AND RANGIURU STREETS
ROTORUA CENTRAL
ROTORUA 3201 Bay of Plenty New Zealand ",-38.1347102,176.2503168
RAETIHI COSMOPOLITAN CLUB INC,"32 SEDDON STREET
RAETIHI
MANAWATU 5462",Manawatu-Wanganui,New Zealand,"RAETIHI COSMOPOLITAN CLUB INC 32 SEDDON STREET
RAETIHI
MANAWATU 5462 Manawatu-Wanganui New Zealand ",-39.4273134,175.2799108
TAUMARUNUI RSA CLUB,"24 MARAE STREET
TAUMARUNUI CENTRAL
TAUMARUNUI 2600",Manawatu-Wanganui,New Zealand,"TAUMARUNUI RSA CLUB 24 MARAE STREET
TAUMARUNUI CENTRAL
TAUMARUNUI 2600 Manawatu-Wanganui New Zealand ",-38.885226,175.2615164
TAUMARUNUI COSMOPOLITAN CLUB,"CORNER KATARINA AND MIRIAMA STREETS
TAUMARUNUI CENTRAL
TAUMARUNUI 2600",Manawatu-Wanganui,New Zealand,"TAUMARUNUI COSMOPOLITAN CLUB CORNER KATARINA AND MIRIAMA STREETS
TAUMARUNUI CENTRAL
TAUMARUNUI 2600 Manawatu-Wanganui New Zealand ",-38.8843229,175.2615791
PUTARURU DISTRICT SERVICES MEMORIAL CLUB INCORPORATED,"35 BUCKLAND STREET
PUTARURU
WAIKATO 2371",Waikato,New Zealand,"PUTARURU DISTRICT SERVICES MEMORIAL CLUB INCORPORATED 35 BUCKLAND STREET
PUTARURU
WAIKATO 2371 Waikato New Zealand ",-38.0500345,175.7789276
TOKOROA CLUB,"CHAMBERS STREET
TOKOROA
WAIKATO 3420",Waikato,New Zealand,"TOKOROA CLUB CHAMBERS STREET
TOKOROA
WAIKATO 3420 Waikato New Zealand ",-38.2146166,175.867544
RAILWAY HOTEL OTAUTAU,"76 KING STREET
OTAUTAU
SOUTHLAND 9653",Southland,New Zealand,"RAILWAY HOTEL OTAUTAU 76 KING STREET
OTAUTAU
SOUTHLAND 9653 Southland New Zealand ",-46.1445069,167.9965636
WAIAU TOWN & COUNTRY CLUB,"41 KING STREET
TUATAPERE
SOUTHLAND 9655",Southland,New Zealand,"WAIAU TOWN & COUNTRY CLUB 41 KING STREET
TUATAPERE
SOUTHLAND 9655 Southland New Zealand ",-46.1366587,167.6917401
STRATFORD AND DISTRICTS RSA CLUB,"CORNER MIRANDA AND FENTON STREETS
STRATFORD
TARANAKI 4352",Taranaki,New Zealand,"STRATFORD AND DISTRICTS RSA CLUB CORNER MIRANDA AND FENTON STREETS
STRATFORD
TARANAKI 4352 Taranaki New Zealand ",-39.3402021,174.2892796
COMMERCIAL EKETAHUNA,"42 MAIN STREET
EKETAHUNA
MANAWATU 4900
NEW ZEALAND",Manawatu-Wanganui,New Zealand,"COMMERCIAL EKETAHUNA 42 MAIN STREET
EKETAHUNA
MANAWATU 4900
NEW ZEALAND Manawatu-Wanganui New Zealand ",-40.6445758,175.7035315
CLUB WAIMEA,"345 QUEEN STREET
RICHMOND
NELSON 7002",Tasman,New Zealand,"CLUB WAIMEA 345 QUEEN STREET
RICHMOND
NELSON 7002 Tasman New Zealand ",-41.3356631,173.1788747
MOTUEKA MEMORIAL RSA INCORPORATED,"49 HIGH STREET
MOTUEKA
TASMAN DISTRICT 7160",Tasman,New Zealand,"MOTUEKA MEMORIAL RSA INCORPORATED 49 HIGH STREET
MOTUEKA
TASMAN DISTRICT 7160 Tasman New Zealand ",-41.105873,173.0114977
MAPUA TAVERN,"151 ARANUI ROAD
MAPUA
TASMAN DISTRICT 7155",Tasman,New Zealand,"MAPUA TAVERN 151 ARANUI ROAD
MAPUA
TASMAN DISTRICT 7155 Tasman New Zealand ",-41.2565605,173.1020679
JUNCTION HOTEL (TAKAKA),"15 COMMERCIAL STREET
TAKAKA
TASMAN DISTRICT 7172",Tasman,New Zealand,"JUNCTION HOTEL (TAKAKA) 15 COMMERCIAL STREET
TAKAKA
TASMAN DISTRICT 7172 Tasman New Zealand ",-40.8600885,172.8057933
TAUPO DARTS ASSOCIATION,"22 A C BATHS RESERVE
TAUPO
TAUPO DISTRICT 3351",Waikato,New Zealand,"TAUPO DARTS ASSOCIATION 22 A C BATHS RESERVE
TAUPO
TAUPO DISTRICT 3351 Waikato New Zealand ",-38.6784856,176.0947594
LUCKY LIZARD,"32 RICHMOND AVENUE RAINBOW POINT
TAUPO
TAUPO DISTRICT 3351",Waikato,New Zealand,"LUCKY LIZARD 32 RICHMOND AVENUE RAINBOW POINT
TAUPO
TAUPO DISTRICT 3351 Waikato New Zealand ",-38.7153162,176.0912646
TOKAANU-TURANGI & DISTRICTS MEMORIAL RSA,"14 KATOPU PLACE
TURANGI
TAUPO DISTRICT 3353",Waikato,New Zealand,"TOKAANU-TURANGI & DISTRICTS MEMORIAL RSA 14 KATOPU PLACE
TURANGI
TAUPO DISTRICT 3353 Waikato New Zealand ",-38.9882383,175.8122392
BOWLS TAURANGA SOUTH,"15 TUTCHEN STREET
TAURANGA CENTRAL
TAURANGA 3001",Bay of Plenty,New Zealand,"BOWLS TAURANGA SOUTH 15 TUTCHEN STREET
TAURANGA CENTRAL
TAURANGA 3001 Bay of Plenty New Zealand ",-37.7000482,176.1598354
CLUB MOUNT MAUNGANUI,"45 KAWAKA STREET
MT MAUNGANUI
BAY OF PLENTY 3150",Bay of Plenty,New Zealand,"CLUB MOUNT MAUNGANUI 45 KAWAKA STREET
MT MAUNGANUI
BAY OF PLENTY 3150 Bay of Plenty New Zealand ",-37.6500351,176.1877941
SL8TE,"SHOP 14 PALM BEACH SHOPPING PLAZA 7 GRAVATT ROAD
PAPAMOA
BAY OF PLENTY 3003",Bay of Plenty,New Zealand,"SL8TE SHOP 14 PALM BEACH SHOPPING PLAZA 7 GRAVATT ROAD
PAPAMOA
BAY OF PLENTY 3003 Bay of Plenty New Zealand ",-37.6991531,176.2828499
TAIRUA BOWLING CLUB INCORPORATED,"HORNSEA ROAD
TAIRUA
WAIKATO 2853",Waikato,New Zealand,"TAIRUA BOWLING CLUB INCORPORATED HORNSEA ROAD
TAIRUA
WAIKATO 2853 Waikato New Zealand ",-36.9972619,175.8548369
THAMES COAST BOWLING CLUB INCORPORATED,"WESTS CRESCENT
THAMES
WAIKATO 2801",Waikato,New Zealand,"THAMES COAST BOWLING CLUB INCORPORATED WESTS CRESCENT
THAMES
WAIKATO 2801 Waikato New Zealand ",-37.0467602,175.5204046
WOLSELEY HOTEL,"STATE HIGHWAY 1
WINCHESTER
CANTERBURY 8750",Canterbury,New Zealand,"WOLSELEY HOTEL STATE HIGHWAY 1
WINCHESTER
CANTERBURY 8750 Canterbury New Zealand ",-44.187088,171.2778472
THE JOLLY POTTER,"121 KING STREET
TEMUKA
CANTERBURY 7986",Canterbury,New Zealand,"THE JOLLY POTTER 121 KING STREET
TEMUKA
CANTERBURY 7986 Canterbury New Zealand ",-44.2437558,171.2772544
NORTHTOWN TAVERN,"18A HOBBS STREET
TIMARU GARDENS
TIMARU 8601",Canterbury,New Zealand,"NORTHTOWN TAVERN 18A HOBBS STREET
TIMARU GARDENS
TIMARU 8601 Canterbury New Zealand ",-44.3831838,171.2351173
CARLTON HOTEL,"66 STAFFORD STREET
TIMARU GARDENS
TIMARU 8601",Canterbury,New Zealand,"CARLTON HOTEL 66 STAFFORD STREET
TIMARU GARDENS
TIMARU 8601 Canterbury New Zealand ",-44.3994014,171.2558732
CREEK HOTEL,"161 KING STREET
TIMARU GARDENS
TIMARU 8601",Canterbury,New Zealand,"CREEK HOTEL 161 KING STREET
TIMARU GARDENS
TIMARU 8601 Canterbury New Zealand ",-44.4167935,171.2448509
ROYAL HOTEL (TEMUKA),"75 KING STREET
TEMUKA
CANTERBURY 7986",Canterbury,New Zealand,"ROYAL HOTEL (TEMUKA) 75 KING STREET
TEMUKA
CANTERBURY 7986 Canterbury New Zealand ",-44.245212,171.2775969
TUAKAU COSMOPOLITAN CLUB,"MADILL STREET
TUAKAU
FRANKLIN 1892",Waikato,New Zealand,"TUAKAU COSMOPOLITAN CLUB MADILL STREET
TUAKAU
FRANKLIN 1892 Waikato New Zealand ",-37.2600365,174.9474934
KAIAPOI WMC AND MSA,"115 RAVEN STREET
KAIAPOI
CANTERBURY 7630",Canterbury,New Zealand,"KAIAPOI WMC AND MSA 115 RAVEN STREET
KAIAPOI
CANTERBURY 7630 Canterbury New Zealand ",-43.3823814,172.6558532
OXFORD WORKINGMENS CLUB & MSA,"160 HIGH STREET
OXFORD
CANTERBURY 8253",Canterbury,New Zealand,"OXFORD WORKINGMENS CLUB & MSA 160 HIGH STREET
OXFORD
CANTERBURY 8253 Canterbury New Zealand ",-43.2937767,172.197749
WOODEND HOTEL,"2 MAIN ROAD
WOODEND
CANTERBURY 7610",Canterbury,New Zealand,"WOODEND HOTEL 2 MAIN ROAD
WOODEND
CANTERBURY 7610 Canterbury New Zealand ",-43.3213129,172.6651345
MASONIC HOTEL (ST. ANDREWS),"WAIMATE HIGHWAY (STATE HIGHWAY 1)
ST ANDREWS
SOUTH CANTERBURY 8790",Canterbury,New Zealand,"MASONIC HOTEL (ST. ANDREWS) WAIMATE HIGHWAY (STATE HIGHWAY 1)
ST ANDREWS
SOUTH CANTERBURY 8790 Canterbury New Zealand ",-44.5299147,171.1905506
EMPIRE TAVERN,"86 QUEEN STREET
WAIMATE
SOUTH CANTERBURY 8791",Canterbury,New Zealand,"EMPIRE TAVERN 86 QUEEN STREET
WAIMATE
SOUTH CANTERBURY 8791 Canterbury New Zealand ",-44.7336115,171.0465973
CAMBRIDGE COSMOPOLITAN CLUB,"92 BURNS STREET
CAMBRIDGE
WAIKATO 3434",Waikato,New Zealand,"CAMBRIDGE COSMOPOLITAN CLUB 92 BURNS STREET
CAMBRIDGE
WAIKATO 3434 Waikato New Zealand ",-37.907336,175.47211
GLEN EDEN BOWLING CLUB,"25A GLENDALE ROAD
GLEN EDEN
AUCKLAND 1004",Auckland,New Zealand,"GLEN EDEN BOWLING CLUB 25A GLENDALE ROAD
GLEN EDEN
AUCKLAND 1004 Auckland New Zealand ",-36.9111167,174.6471354
GLEN EDEN RSA,"9 GLENDALE ROAD
GLEN EDEN
AUCKLAND 1004",Auckland,New Zealand,"GLEN EDEN RSA 9 GLENDALE ROAD
GLEN EDEN
AUCKLAND 1004 Auckland New Zealand ",-36.9106221,174.6496374
AWAKINO HOTEL,"STATE HIGHWAY 3
AWAKINO
TARANAKI 4376
NEW ZEALAND",Waikato,New Zealand,"AWAKINO HOTEL STATE HIGHWAY 3
AWAKINO
TARANAKI 4376
NEW ZEALAND Waikato New Zealand ",-38.6527759,174.6289335
CASTLECLIFF CLUB INC,"TENNYSON STREET
CASTLECLIFF
WANGANUI DISTRICT 4501",Manawatu-Wanganui,New Zealand,"CASTLECLIFF CLUB INC TENNYSON STREET
CASTLECLIFF
WANGANUI DISTRICT 4501 Manawatu-Wanganui New Zealand ",-39.9421605,174.9927026
ST JOHN'S CLUB,"158 GLASGOW STREET
WANGANUI
WANGANUI DISTRICT 4540",Manawatu-Wanganui,New Zealand,"ST JOHN'S CLUB 158 GLASGOW STREET
WANGANUI
WANGANUI DISTRICT 4540 Manawatu-Wanganui New Zealand ",-39.925,175.0397222
SEATOUN RETURNED SERVICES ASSOCIATION,"16 DUNDAS STREET
SEATOUN
WELLINGTON 6003",Wellington,New Zealand,"SEATOUN RETURNED SERVICES ASSOCIATION 16 DUNDAS STREET
SEATOUN
WELLINGTON 6003 Wellington New Zealand ",-41.32272,174.8301477
THE CRAFTY TAVERN,"1-3 COURTENAY PLACE
WELLINGTON CENTRAL
WELLINGTON 6011",Wellington,New Zealand,"THE CRAFTY TAVERN 1-3 COURTENAY PLACE
WELLINGTON CENTRAL
WELLINGTON 6011 Wellington New Zealand ",-41.2933333,174.7816667
TE PUKE CITIZENS CLUB,"179-185 JELLICOE STREET
TE PUKE
BAY OF PLENTY 3071",Bay of Plenty,New Zealand,"TE PUKE CITIZENS CLUB 179-185 JELLICOE STREET
TE PUKE
BAY OF PLENTY 3071 Bay of Plenty New Zealand ",-37.7825873,176.3200991
TE PUKE MEMORIAL RSA,"16 OXFORD STREET
TE PUKE
BAY OF PLENTY 3071",Bay of Plenty,New Zealand,"TE PUKE MEMORIAL RSA 16 OXFORD STREET
TE PUKE
BAY OF PLENTY 3071 Bay of Plenty New Zealand ",-37.7825873,176.3200991
HOKITIKA CHARTERED CLUB,"42 HAMILTON STREET
HOKITIKA
WESTLAND 7900",West Coast,New Zealand,"HOKITIKA CHARTERED CLUB 42 HAMILTON STREET
HOKITIKA
WESTLAND 7900 West Coast New Zealand ",-42.718708,170.9625244
COMMERCIAL HOTEL,"35 THE STRAND
WHAKATANE CENTRAL
WHAKATANE 3080",Bay of Plenty,New Zealand,"COMMERCIAL HOTEL 35 THE STRAND
WHAKATANE CENTRAL
WHAKATANE 3080 Bay of Plenty New Zealand ",-37.9505543,177.0004337
OHOPE CHARTERED CLUB,"PO BOX 3081
OHOPE
WHAKATANE 3085",Bay of Plenty,New Zealand,"OHOPE CHARTERED CLUB PO BOX 3081
OHOPE
WHAKATANE 3085 Bay of Plenty New Zealand ",-37.972941,177.058817
WHAKATANE RSA CLUB,"RICHARDSON STREET
WHAKATANE CENTRAL
WHAKATANE 3080",Bay of Plenty,New Zealand,"WHAKATANE RSA CLUB RICHARDSON STREET
WHAKATANE CENTRAL
WHAKATANE 3080 Bay of Plenty New Zealand ",-37.9536822,176.9939148
KENSINGTON CLUB,"HUAPAI STREET
WHANGAREI CENTRAL
NORTHLAND 0110",Northland,New Zealand,"KENSINGTON CLUB HUAPAI STREET
WHANGAREI CENTRAL
NORTHLAND 0110 Northland New Zealand ",-35.709727,174.3236387
Shotgun Betty's,"37 VINE STREET
WHANGAREI CENTRAL
NORTHLAND 0110",Northland,New Zealand,"Shotgun Betty's 37 VINE STREET
WHANGAREI CENTRAL
NORTHLAND 0110 Northland New Zealand ",-35.7255159,174.318999
New Zealand All Golds Cosmopolitan Club,"1ST FLOOR OLD GRANDSTAND BUILDING 2-48 ASH STREET
AVONDALE
AUCKLAND 1026",Auckland,New Zealand,"New Zealand All Golds Cosmopolitan Club 1ST FLOOR OLD GRANDSTAND BUILDING 2-48 ASH STREET
AVONDALE
AUCKLAND 1026 Auckland New Zealand ",-36.8955871,174.6913423
Group One Turf Bar,"COMMERCE STREET
CAMBRIDGE
WAIKATO 3434",Waikato,New Zealand,"Group One Turf Bar COMMERCE STREET
CAMBRIDGE
WAIKATO 3434 Waikato New Zealand ",-37.8953563,175.4718272
TE RAPA TAVERN,"2 Mainstreet Place
TE RAPA
HAMILTON 3200
NEW ZEALAND",Waikato,New Zealand,,-37.7600764,175.2429883
THE QUADRANT,"391 Victoria Street
HAMILTON CENTRAL
HAMILTON 3204
NEW ZEALAND",Waikato,New Zealand,,-37.7865538,175.2818637
ALEWAYS HOTEL,"40 HIGH STREET
FRANKTON
HAMILTON 3204",Waikato,New Zealand,,-37.7886383,175.2637463
The Local,"36 BRYANT ROAD
TE RAPA
HAMILTON 3240",Waikato,New Zealand,,-37.7571213,175.2477067
The Junction,"165 COMMERCE STREET
FRANKTON
HAMILTON 3204",Waikato,New Zealand,,-37.7879542,175.2650942
Lucky Finns,"26-28 HOOD STREET
HAMILTON CENTRAL
HAMILTON 3204",Waikato,New Zealand,,-37.7905281,175.2844316
THE COCK AND BULL (HAMILTON),"4 MAUI STREET
PUKETE
HAMILTON 2001",Waikato,New Zealand,,-37.741674,175.229902
WAIKATO COMMERCE CLUB,"197 COLLINGWOOD STREET
HAMILTON CENTRAL
HAMILTON 3204",Waikato,New Zealand,,-37.7925102,175.2788586
THE ELBOWROOM SPORTS BAR,"1001 TOMOANA ROAD
HASTINGS CENTRAL
HAWKES BAY 4201",Hawke's Bay,New Zealand,,-39.6282154,176.8509755
ZABEELS SPORTS BAR,"115 KING STREET
HASTINGS CENTRAL
HAWKES BAY 4201",Hawke's Bay,New Zealand,,-39.6397047,176.8422662
Bollywood Star Restaurant,"102-106 HERETAUNGA STREET
HASTINGS CENTRAL
HAWKES BAY 4201",Hawke's Bay,New Zealand,,-39.6420555,176.8437653
CRU BAR,"303 EASTBOURNE STREET EAST
HASTINGS CENTRAL
HAWKES BAY 4201",Hawke's Bay,New Zealand,,-39.640671,176.840285
Level 1,"303 EASTBOURNE STREET WEST
HASTINGS CENTRAL
HAWKES BAY 4201",Hawke's Bay,New Zealand,,-39.6404043,176.8401325
HASTINGS DARTS ASSOCIATION,"205 NELSON STREET SOUTH
HASTINGS CENTRAL
HAWKES BAY 4120
NEW ZEALAND",Hawke's Bay,New Zealand,,-39.6399326,176.8384092
HAVELOCK NORTH CLUB,"4 CAMPBELL STREET
HAVELOCK NORTH
HAWKES BAY 4201",Hawke's Bay,New Zealand,,-39.6723331,176.8795176
NATIONAL SERVICE CLUB,"MARKET STREET
HASTINGS CENTRAL
HAWKES BAY 4201",Hawke's Bay,New Zealand,,-39.6392289,176.8444958
CLIVE HOTEL,"193 MAIN ROAD
CLIVE
HAWKES BAY 4152",Hawke's Bay,New Zealand,,-39.5837511,176.9162323
TURK'S BAR,"5 NAPIER ROAD
HAVELOCK NORTH
HAWKES BAY 4201",Hawke's Bay,New Zealand,,-39.6695727,176.8775534
TAB STORTFORD LODGE,"1017 HERETAUNGA STREET
HASTINGS CENTRAL
HAWKES BAY 4201",Hawke's Bay,New Zealand,,-39.6318499,176.8328606
STORTFORD LODGE SOCIAL CLUB,"103 STORTFORD STREET
HASTINGS CENTRAL
HAWKES BAY 4201",Hawke's Bay,New Zealand,,-39.6313063,176.8313253
HORSE AND HOUND HASTINGS,"1012 KARAMU ROAD
HASTINGS CENTRAL
HAWKES BAY 4201",Hawke's Bay,New Zealand,,-39.6356494,176.856212
MAGPIES,"116 King Street North
HASTINGS CENTRAL
HAWKES BAY 4122
NEW ZEALAND",Hawke's Bay,New Zealand,,-39.6395461,176.8419165
FLAXMERE TAVERN,"SWANSEA ROAD
FLAXMERE EAST
HAWKES BAY 4201",Hawke's Bay,New Zealand,,-39.6268008,176.7878996
BAYVIEW HOTEL,"COAST ROAD
KAIAUA
FRANKLIN 1870",Waikato,New Zealand,,-37.1091305,175.2964535
OHINEMURI CLUB INCORPORATED,"PRINCES STREET
PAEROA
WAIKATO 3640
NEW ZEALAND",Waikato,New Zealand,,-37.3816559,175.6711215
PAEROA HOTEL,"4 BELMONT ROAD
PAEROA
WAIKATO 2951",Waikato,New Zealand,,-37.3769444,175.6680556
COMMERCIAL HOTEL (WAIHI),"SEDDON STREET
WAIHI
WAIKATO 2981",Waikato,New Zealand,,-37.3920948,175.8391171
One3one Bar & Kitchen,"131 NORMANBY ROAD
PAEROA
WAIKATO 2951",Waikato,New Zealand,,-37.38174,175.6722366
STERLING TAVERN,"112 SEDDON STREET
WAIHI
WAIKATO 2981",Waikato,New Zealand,,-37.3902072,175.8430308
ROB ROY HOTEL,"CORNER ROSEMONT ROAD AND SEDDON STREET
WAIHI
WAIKATO 2981",Waikato,New Zealand,,-37.391492,175.8406858
NGATEA HOTEL,"32 ORCHARD WEST ROAD
NGATEA
WAIKATO 2852",Waikato,New Zealand,,-37.2758333,175.4952778
WAIHI MEMORIAL R.S.A. (INCORPORATED),"71 SEDDON STREET
WAIHI
WAIKATO 3610
NEW ZEALAND",Waikato,New Zealand,,-37.3916068,175.8387376
FOXTON RETURNED SERVICES ASSOCIATION,"1 EASTON STREET
FOXTON
MANAWATU 4814
NEW ZEALAND",Manawatu-Wanganui,New Zealand,,-40.4671955,175.280856
LEVIN CLUB,"262 OXFORD STREET
LEVIN
MANAWATU 5500",Manawatu-Wanganui,New Zealand,,-40.6210897,175.2877032
LEVIN COSMOPOLITAN CLUB,"47-51 OXFORD STREET SOUTH
LEVIN
MANAWATU 5500",Manawatu-Wanganui,New Zealand,,-40.6301679,175.2782588
FATBOYZ BAR COBB AND CO,"CORNER DURHAM AND OXFORD STREETS
LEVIN
MANAWATU 5500",Manawatu-Wanganui,New Zealand,,-40.6237762,175.2846674
LEVIN SPORTS BAR,"19 QUEEN STREET WEST
LEVIN
MANAWATU 5500",Manawatu-Wanganui,New Zealand,,-40.6217268,175.2857382
POST OFFICE HOTEL,"57 MAIN STREET
FOXTON
MANAWATU 5551",Manawatu-Wanganui,New Zealand,,-40.4737917,175.2817317
MANAWATU HOTEL,"1 AVENUE ROAD
FOXTON
MANAWATU 5551",Manawatu-Wanganui,New Zealand,,-40.4776271,175.2835204
O'MALLEY'S BAR,"102 OXFORD STREET
LEVIN
MANAWATU 5500",Manawatu-Wanganui,New Zealand,,-40.6262113,175.2823945
THE OLD LEITHFIELD HOTEL,"11 OLD MAIN NORTH ROAD
LEITHFIELD BEACH
CANTERBURY 8251",Canterbury,New Zealand,,-43.1915637,172.7414128
MONTEITHS BREWERY BAR,"47 AMURI AVENUE
HANMER SPRINGS
CANTERBURY 8273",Canterbury,New Zealand,,-42.522631,172.8300684
AMBERLEY HOTEL,"84 CARTERS ROAD
AMBERLEY
CANTERBURY 7410",Canterbury,New Zealand,,-43.1531448,172.7294922
WAIAU LODGE HOTEL,"18 LYNDON PLACE
WAIAU
CANTERBURY 8275",Canterbury,New Zealand,,-42.656317,173.040525
ALPINE VILLAGE INN,"10 JACKS PASS ROAD
HANMER SPRINGS
CANTERBURY 8273",Canterbury,New Zealand,,-42.521099,172.8284912
ROTHERHAM HOTEL,"42 GEORGE STREET
ROTHERHAM
CANTERBURY 7379",Canterbury,New Zealand,,-42.6964414,172.9461821
CHEVIOT HOTEL,"58 HALL STREET
CHEVIOT
CANTERBURY 8271",Canterbury,New Zealand,,-42.8108713,173.2741623
RAILWAY TAVERN,"40 DOUGLAS ROAD
AMBERLEY
CANTERBURY 7410",Canterbury,New Zealand,,-43.1525987,172.7245426
CULVERDEN HOTEL,"24 MOUNTAIN VIEW ROAD
CULVERDEN
CANTERBURY 8272",Canterbury,New Zealand,,-42.7745119,172.8479437
CLUB SOUTHLAND,"115 LEET STREET
INVERCARGILL CENTRAL
INVERCARGILL 9801
NEW ZEALAND",Southland,New Zealand,,-46.407641,168.3543954
WAIKIWI TAVERN,"181 North Road
WAIKIWI
INVERCARGILL 9810
NEW ZEALAND",Southland,New Zealand,,-46.3817297,168.3476517
NORTHERN TAVERN,"CORNER SYDNEY AND ST ANDREW STREETS
GLENGARRY
INVERCARGILL 9501",Southland,New Zealand,,-46.4027113,168.3643804
SOUTHLAND TAVERN,"CORNER ELLES ROAD AND MCQUARRIE STREET
STRATHERN
INVERCARGILL 9812",Southland,New Zealand,,-46.4357774,168.3615009
HOMESTEAD,"303 DEE STREET
INVERCARGILL CENTRAL
INVERCARGILL 9501",Southland,New Zealand,,-46.3995381,168.3474776
KELVIN HOTEL,"18 KELVIN STREET
INVERCARGILL CENTRAL
INVERCARGILL 9501",Southland,New Zealand,,-46.412122,168.3503162
ASCOT PARK MOTOR HOTEL,"41 RACECOURSE ROAD
HAWTHORNDALE
INVERCARGILL 9501",Southland,New Zealand,,-46.4041514,168.3926141
CLIFTON CLUB INN,"CORNER ARMAGH AND WICKLOW STREETS
CLIFTON
INVERCARGILL 9501",Southland,New Zealand,,-46.4513211,168.3644915
NEWFIELD TAVERN,"CENTRE STREET
NEWFIELD
INVERCARGILL 9501",Southland,New Zealand,,-46.4226594,168.3900626
WAXY O'SHEA'S,"90 DEE STREET
INVERCARGILL CENTRAL
INVERCARGILL 9501",Southland,New Zealand,,-46.4101798,168.3468911
GLENGARRY TAVERN AKA EASTERN SUBURBS TAVERN,"61 GLENGARRY CRESCENT
GLENGARRY
INVERCARGILL 9501",Southland,New Zealand,,-46.4016542,168.386604
INVERCARGILL WMC,"154 ESK STREET
INVERCARGILL CENTRAL
INVERCARGILL 9501",Southland,New Zealand,,-46.4115783,168.355896
GOLDEN AGE TAVERN,"86 GORE STREET
BLUFF
INVERCARGILL 9503",Southland,New Zealand,,-46.5992202,168.3440399
TAB SOUTH INVERCARGILL,"261 ELLES ROAD
INVERCARGILL
SOUTHLAND 9812",Southland,New Zealand,,-46.4279623,168.3611708
EAGLE HOTEL,"134 GORE STREET
BLUFF
INVERCARGILL 9503",Southland,New Zealand,,-46.5989524,168.3417801
GLASINE CAFE,"257 ELLES ROAD
RICHMOND
INVERCARGILL 9501",Southland,New Zealand,,-46.4274324,168.3612319
WHITEHOUSE HOTEL,"31-39 RIVERTON LORNVILLE HIGHWAY
INVERCARGILL
SOUTHLAND 9812",Southland,New Zealand,,-46.3444721,168.3423467
NEW COMMERCIAL HOTEL (KAIKOURA),"20 BRIGHTON STREET
KAIKOURA TOWNSHIP
CANTERBURY 8280",Canterbury,New Zealand,,-42.4115519,173.6856508
ADELPHI HOTEL,"WEST END
KAIKOURA TOWNSHIP
CANTERBURY 8280",Canterbury,New Zealand,,-42.4002752,173.6808246
SUNTRAP LOBSTER INN TAVERN,"115 BEACH ROAD
KAIKOURA TOWNSHIP
CANTERBURY 8280",Canterbury,New Zealand,,-42.3891535,173.6790831
THREE FURLONGS HOTEL,"MAIN ROAD
KAIWAKA
NORTHLAND 0573",Northland,New Zealand,,-36.1628094,174.4438412
MANGAWHAI CLUB,"Molesworth Drive
MANGAWHAI
NORTHLAND 0505
NEW ZEALAND",Northland,New Zealand,,-36.0989244,174.5874401
NORTHERN WAIROA RETURNED SERVICES ASSOCIATION,"26 HOKIANGA ROAD
DARGAVILLE
NORTHLAND 0310
NEW ZEALAND",Northland,New Zealand,,-35.9410656,173.8682263
NORTHERN WAIROA HOTEL,"70 VICTORIA STREET
DARGAVILLE
NORTHLAND 0310",Northland,New Zealand,,-35.9419231,173.8692437
MANGAWHAI TAVERN,"MOIR ROAD
MANGAWHAI
NORTHLAND 0505",Northland,New Zealand,,-36.1238547,174.58017
RUAWAI BOWLING CLUB,"2 Reeves Street
RUAWAI
NORTHLAND 0530
NEW ZEALAND",Northland,New Zealand,,-36.1355324,174.0221628
Dargaville Central Hotel,"18-22 VICTORIA STREET
DARGAVILLE
NORTHLAND 0310",Northland,New Zealand,,-35.9435874,173.8676629
THE PINETREE ARMS,"CORNER MACLEAN STREET AND SEAVIEW ROAD
PARAPARAUMU
KAPITI COAST 5254",Wellington,New Zealand,,-40.8942044,174.9809141
GOLDEN COAST CHARTERED CLUB,"25 HINEMOA STREET
PARAPARAUMU
KAPITI COAST 5254",Wellington,New Zealand,,-40.9147285,175.009734
Black Stag Pub,"AMOHIA STREET
PARAPARAUMU
KAPITI COAST 5254",Wellington,New Zealand,,-40.9154361,175.0060604
KAPITI CLUB,"32A MARINE PARADE
PARAPARAUMU
KAPITI COAST 5254",Wellington,New Zealand,,-40.8936833,174.9796723
THE RAILWAY HOTEL,"6 ARTHUR STREET
OTAKI
KAPITI COAST 5560",Wellington,New Zealand,,-40.762507,175.1561612
FAMILY HOTEL,"MAIN STREET
OTAKI
KAPITI COAST 5560",Wellington,New Zealand,,-40.7521938,175.1383353
PUNTERS CORNER SPORTS BAR AND TAB,"2 Main Street
OTAKI
KAPITI COAST 5512
NEW ZEALAND",Wellington,New Zealand,,-40.7516571,175.1377202
OTAKI RSA CLUBROOMS,"9 RAUKAWA STREET
OTAKI
KAPITI COAST 5512
NEW ZEALAND",Wellington,New Zealand,,-40.7520246,175.1400292
FINNS PAEKAKARIKI,"2 BEACH ROAD
PAEKAKARIKI
KAPITI COAST 6010",Wellington,New Zealand,,-40.9881134,174.9519653
BOUNDARY TAP & KITCHEN,"3 RAUMATI ROAD
RAUMATI
KAPITI COAST 6010",Wellington,New Zealand,,-40.9186111,174.9813889
WAIKANAE CHARTERED CLUB,"8 ELIZABETH STREET
WAIKANAE
KAPITI COAST 6010",Wellington,New Zealand,,-40.8779594,175.0658075
KAWERAU BOWLING CLUB,"PLUNKET STREET PRIDEAUX PARK
KAWERAU
BAY OF PLENTY 3075",Bay of Plenty,New Zealand,,-38.0869301,176.6993069
KAWERAU COSMOPOLITAN CLUB,"107-109 ONSLOW STREET
KAWERAU
BAY OF PLENTY 3075",Bay of Plenty,New Zealand,,-38.08938,176.701027
CAYMAN SPORTS BAR,"10 JELLICOE COURT
KAWERAU
BAY OF PLENTY 3075",Bay of Plenty,New Zealand,,-38.0873231,176.7018733
KAWERAU HOTEL,"PLUNKET STREET
KAWERAU
BAY OF PLENTY 3075",Bay of Plenty,New Zealand,,-38.0876184,176.7011384
BEDROCKS BAR & BRASSERIE,"3 WATERLOO ROAD
LOWER HUTT CENTRAL
LOWER HUTT 5010",Wellington,New Zealand,,-41.2083406,174.9053431
Butcher & Brewer,"175 JACKSON STREET
PETONE
LOWER HUTT 5012",Wellington,New Zealand,,-41.2250462,174.877984
HARDWARE BAR & CAFE,"8-14 EVANS STREET
STOKES VALLEY
LOWER HUTT 5019",Wellington,New Zealand,,-41.1745117,174.9813494
FITZROY HOTEL,"THE STRAND
WAINUIOMATA
LOWER HUTT 5014",Wellington,New Zealand,,-41.2585836,174.9441999
HUTT PARK HOTEL,"9-11 RANDWICK ROAD
LOWER HUTT CENTRAL
LOWER HUTT 5010",Wellington,New Zealand,,-41.2327506,174.9037034
Sin Bin,"BUILDING 1 499-509 HUTT ROAD
LOWER HUTT CENTRAL
LOWER HUTT 5010",Wellington,New Zealand,,-41.2124365,174.8902338
Naenae Bowling Club,"23 Treadwell Street
NAENAE
LOWER HUTT 5011
NEW ZEALAND",Wellington,New Zealand,,-41.2008333,174.9486111
EDDY'S BAR & CAFE,"13 QUEEN STREET
WAINUIOMATA
LOWER HUTT 5014",Wellington,New Zealand,,-41.2611584,174.9453315
PALLISER HOTEL,"MOORES VALLEY ROAD
WAINUIOMATA
LOWER HUTT 5014",Wellington,New Zealand,,-41.2717769,174.9550401
OLYMPIC HOTEL,"CORNER HORLOR STREET AND HOLLAND CRESCENT
NAENAE
LOWER HUTT 6009",Wellington,New Zealand,,-41.2007014,174.9460723
PETONE SPORTS BAR,"266 JACKSON STREET
PETONE
LOWER HUTT 5012",Wellington,New Zealand,,-41.2257342,174.8792878
NAENAE HOTEL,"5 VOGEL STREET
NAENAE
LOWER HUTT 6009",Wellington,New Zealand,,-41.1996377,174.9469586
BELLEVUE GARDENS HOTEL,"140 WOBURN ROAD
WOBURN
LOWER HUTT 6009",Wellington,New Zealand,,-41.2175303,174.9043788
PETONE WORKINGMENS CLUB,"47 UDY STREET
PETONE
LOWER HUTT 5012",Wellington,New Zealand,,-41.221253,174.884331
BJ'S,"25 TOCKER STREET
TAITA
LOWER HUTT 5011",Wellington,New Zealand,,-41.1788212,174.9606583
ANGUS INN HOTEL,"WATERLOO ROAD
LOWER HUTT CENTRAL
LOWER HUTT 5010",Wellington,New Zealand,,-41.2099298,174.9087982
STRIKE LOWER HUTT,"395-397 HUTT ROAD
LOWER HUTT
LOWER HUTT 5040",Wellington,New Zealand,,-41.2174841,174.8809549
TAB WAINUIOMATA,"10A THE STRAND
WAINUIOMATA
LOWER HUTT 5014",Wellington,New Zealand,,-41.2597339,174.9425983
TAB PETONE,"204 JACKSON STREET
PETONE
LOWER HUTT 5012",Wellington,New Zealand,,-41.224909,174.876806
TAB NAENAE,"33 HILLARY COURT
NAENAE
LOWER HUTT 6009",Wellington,New Zealand,,-41.198388,174.9480182
TAB Lower Hutt,"204 High Street
Hutt Central
LOWER HUTT
LOWER HUTT 5010
NEW ZEALAND",Wellington,New Zealand,,-41.2091443,174.9034872
STOKES VALLEY COSMOPOLITAN CLUB,"35-37 GEORGE STREET
STOKES VALLEY
LOWER HUTT 5019",Wellington,New Zealand,,-41.1662294,174.9820875
TE AROHA HUTT VALLEY ASSOCIATION PAVILION,"TE WHITI PARK CORNER RIVERSIDE DRIVE AND WHITES LINE EAST
HUTT CENTRAL
LOWER HUTT 6009",Wellington,New Zealand,,-37.5431901,175.7123003
STOKES VALLEY RSA CLUBROOMS,"21 HAWTHORN CRESCENT
STOKES VALLEY
LOWER HUTT 5141
NEW ZEALAND",Wellington,New Zealand,,-41.1711836,174.9847288
WAINUIOMATA BOWLING CLUB,"MOOHAN STREET
WAINUIOMATA
LOWER HUTT 5014",Wellington,New Zealand,,-41.2684319,174.9540455
COMBINED SERVICES CLUB,"OHAU ROAD
TWIZEL
CANTERBURY 8773",Canterbury,New Zealand,,-44.2578762,170.0920107
LAKE TEKAPO TAVERN,"STATE HIGHWAY 8
LAKE TEKAPO
CANTERBURY 8770",Canterbury,New Zealand,,-44.0037626,170.4766427
TOP HUT,"13 TASMAN ROAD
TWIZEL
CANTERBURY 8773",Canterbury,New Zealand,,-44.2578993,170.0977819
FAIRLIE HOTEL,"69 MAIN STREET
FAIRLIE
CANTERBURY 8771",Canterbury,New Zealand,,-44.0989074,170.8289031
THE EMPIRE HOTEL,"8 STAFFORD STREET
FEILDING
MANAWATU 5600",Manawatu-Wanganui,New Zealand,,-40.2269024,175.5674353
DROVER'S RETURN BAR & CAFE,"93 MANCHESTER STREET
FEILDING
MANAWATU 5600",Manawatu-Wanganui,New Zealand,,-40.2253906,175.5640966
FEILDING HOTEL,"9 MANCHESTER SQUARE
FEILDING
MANAWATU 5600",Manawatu-Wanganui,New Zealand,,-40.226316,175.5636121
RONGOTEA TAVERN,"50 THAMES STREET
RONGOTEA
MANAWATU 5454",Manawatu-Wanganui,New Zealand,,-40.2934611,175.4270387
Stockyard Bar and Restaurant,"50 MANCHESTER STREET
FEILDING
MANAWATU 5600",Manawatu-Wanganui,New Zealand,,-40.2275279,175.5652783
CRITERION HOTEL (BLENHEIM),"2 MARKET STREET
BLENHEIM
MARLBOROUGH 7273",Marlborough,New Zealand,,-41.5110759,173.9569291
CLUBS OF MARLBOROUGH,"42 ALFRED STREET
BLENHEIM
MARLBOROUGH 7273",Marlborough,New Zealand,,-41.5101775,173.9567043
Waterfront Bar & Grill,"7 GROVE ROAD
BLENHEIM
MARLBOROUGH 7273",Marlborough,New Zealand,,-41.5102778,173.9586111
GROVE TAVERN,"77 GROVE ROAD
BLENHEIM
MARLBOROUGH 7273",Marlborough,New Zealand,,-41.5024158,173.9607324
MIKEY'S BAR,"12-18 HIGH STREET
PICTON
MARLBOROUGH 7220
NEW ZEALAND",Marlborough,New Zealand,,-41.2892626,174.0071137
HAVELOCK HOTEL,"54 MAIN ROAD
HAVELOCK
MARLBOROUGH 7154",Marlborough,New Zealand,,-41.2793875,173.7672542
TROUT HOTEL,"MAIN ROAD
CANVASTOWN
MARLBOROUGH 7154",Marlborough,New Zealand,,-41.2911684,173.6698881
SPRINGLANDS TAVERN,"16 BOYCE STREET
BLENHEIM
MARLBOROUGH 7273",Marlborough,New Zealand,,-41.5095914,173.9407102
DA'S BARN RESTAURANT & BAR,"48 HIGH STREET
PICTON
MARLBOROUGH 7372",Marlborough,New Zealand,,-41.290297,174.0071146
REDWOOD TAVERN,"70 CLEGHORN STREET
BLENHEIM
MARLBOROUGH 7273",Marlborough,New Zealand,,-41.5290489,173.9562377
JUNCTION HOTEL,"2234 STATE HIGHWAY 1
SPRING CREEK
MARLBOROUGH 7350",Marlborough,New Zealand,,-41.4609864,173.9611764
THE CROW TAVERN,"15/17 NELSON SQUARE
PICTON
MARLBOROUGH 7372",Marlborough,New Zealand,,-41.2967793,174.0017229
The Good Home Blenheim,"CORNER GEORGE AND QUEEN STREETS
BLENHEIM
MARLBOROUGH 7273",Marlborough,New Zealand,,-41.5145618,173.955436
WOODBOURNE TAVERN,"HIGH STREET
RENWICK
MARLBOROUGH 7352",Marlborough,New Zealand,,-41.5080842,173.8254475
FAIRWEATHER ON SCOTT,"36 SCOTT STREET
BLENHEIM
MARLBOROUGH 7273",Marlborough,New Zealand,,-41.515552,173.956643
Jackson Street Bar,"20 JACKSON STREET
MASTERTON
MASTERTON DISTRICT 5840",Wellington,New Zealand,,-40.9509385,175.6583981
KURIPUNI TAVERN,"QUEEN STREET SOUTH
MASTERTON
MASTERTON DISTRICT 5840",Wellington,New Zealand,,-40.9581247,175.6480455
WAIRARAPA SERVICES & CITIZENS CLUB,"20 ESSEX STREET
MASTERTON
MASTERTON DISTRICT 5840",Wellington,New Zealand,,-40.9505614,175.6568214
PALACE HOTEL,"WHITTAKER STREET
TE AROHA
WAIKATO 3320",Waikato,New Zealand,,-37.5430622,175.7119507
MATAMATA CLUB INCORPORATED,"WAHAROA ROAD EAST
MATAMATA
WAIKATO 2271",Waikato,New Zealand,,-37.8075866,175.7722473
MATAMATA MEMORIAL R.S.A. INCORPORATED,"NGAIO STREET
MATAMATA
WAIKATO 3400
NEW ZEALAND",Waikato,New Zealand,,-37.807337,175.775928
MORRINSVILLE DISTRICT RSA,"27 STUDHOLME STREET
MORRINSVILLE
WAIKATO 3300
NEW ZEALAND",Waikato,New Zealand,,-37.6608591,175.5300347
TRAC SPORTS BAR,"38 BROADWAY
MATAMATA
WAIKATO 2271",Waikato,New Zealand,,-37.8085809,175.7717481
TOP PUB,"2618 State Highway 26
MORRINSVILLE
WAIKATO 3372
NEW ZEALAND",Waikato,New Zealand,,-37.6620242,175.5171606
THE GRAND TAVERN,"81-83 WHITAKER STREET
TE AROHA
WAIKATO 3320",Waikato,New Zealand,,-37.5452778,175.7141667
TAHUNA TAVERN,"Cnr of Pioneer Road and Huia Street
TAHUNA
WAIKATO 2250
NEW ZEALAND",Waikato,New Zealand,,-37.4982504,175.4937012
WAIHOU TAVERN,"STATE HIGHWAY 26
WAIHOU-WALTON
WAIKATO 2972",Waikato,New Zealand,,-37.5738842,175.6744722
NOTTINGHAM CASTLE HOTEL,"CORNER THAMES AND STUDHOLME STREETS
MORRINSVILLE
WAIKATO 2251",Waikato,New Zealand,,-37.6584182,175.528107
HORSE & JOCKEY,"81 ARAWA STREET
MATAMATA
WAIKATO 2271",Waikato,New Zealand,,-37.8087549,175.7735933
TE AROHA MEMORIAL RSA,"67 REWI STREET
TE AROHA
WAIKATO 3342
NEW ZEALAND",Waikato,New Zealand,,-37.5432364,175.710527
TOWN AND COUNTRY CLUB INCORPORATED,"382 THAMES STREET
MORRINSVILLE
WAIKATO 2251",Waikato,New Zealand,,-37.6552622,175.534921
Westshore Beach Inn,"85 MEEANEE QUAY
WESTSHORE
NAPIER 4001",Hawke's Bay,New Zealand,,-39.4757804,176.8790293
Union Hotel,"3 WAGHORNE STREET
AHURIRI
NAPIER 4110",Hawke's Bay,New Zealand,,-39.4805556,176.8975
Bev Ridges On York,"1 DURHAM AVENUE
TAMATEA
NAPIER 4001",Hawke's Bay,New Zealand,,-39.5107827,176.8676016
NAPIER RSA,"34 VAUTIER STREET
NAPIER CITY
NAPIER 4001",Hawke's Bay,New Zealand,,-39.4941257,176.917919
The Water Bar,"10 WEST QUAY
AHURIRI
NAPIER 4110",Hawke's Bay,New Zealand,,-39.4854421,176.891673
TARADALE TAVERN,"367 GLOUCESTER STREET
TARADALE
NAPIER 4001",Hawke's Bay,New Zealand,,-39.5384922,176.8472466
SIDELINE BAR,"110 TARADALE ROAD
ONEKAWA
NAPIER 4001",Hawke's Bay,New Zealand,,-39.5050606,176.8842948
THE DUKE OF GLOUCESTER,"389 GLOUCESTER STREET
TARADALE
NAPIER 4001",Hawke's Bay,New Zealand,,-39.539243,176.846772
THE BAY VIEW,"47 PETANE ROAD
BAY VIEW
NAPIER 4151",Hawke's Bay,New Zealand,,-39.4194189,176.865578
THE STATION,"154 STATION STREET
MAREWA
NAPIER 4001",Hawke's Bay,New Zealand,,-39.493515,176.9139268
TAB Napier,"7 CLIVE SQUARE WEST
NAPIER CITY
NAPIER 4110
NEW ZEALAND",Hawke's Bay,New Zealand,,-39.491374,176.9126309
TARADALE AND DISTRICT RSA,"156 GLOUCESTER STREET
TARADALE
NAPIER 4001",Hawke's Bay,New Zealand,,-39.5310757,176.8542125
TARADALE CLUB,"55 WHARERANGI ROAD
GREENMEADOWS
NAPIER 4001",Hawke's Bay,New Zealand,,-39.5168919,176.8574673
THE HORSE AND HARVEST FAMILY RESTAURANT AND ALE HOUSE,"270 GLOUCESTER STREET
TARADALE
NAPIER 4001",Hawke's Bay,New Zealand,,-39.5358482,176.8486771
MASONIC HOTEL,"CORNER TENNYSON STREET AND MARINE PARADE
BLUFF HILL
NAPIER 4001",Hawke's Bay,New Zealand,,-39.4897297,176.9188925
GOLDEN CHANCE,"6 BLEDISLOE ROAD
MARAENUI
NAPIER 4001",Hawke's Bay,New Zealand,,-39.5145059,176.9042907
MEEANEE HOTEL,"340 MEEANEE ROAD
MEEANEE
NAPIER 4001",Hawke's Bay,New Zealand,,-39.5434892,176.8917435
THE WINDSOCK,"18 HASTINGS STREET
MAREWA
NAPIER 4001",Hawke's Bay,New Zealand,,-39.4888419,176.9180505
HARDYS BAR,"135 HARDY STREET
NELSON CENTRAL
NELSON 7001",Nelson,New Zealand,,-41.2741293,173.2824123
TURF HOTEL,"228 SONGER STREET
STOKE
NELSON 7001",Nelson,New Zealand,,-41.313755,173.2331918
NELSON SUBURBAN CLUB,"168 TAHUNANUI DRIVE
NELSON CENTRAL
NELSON 7001",Nelson,New Zealand,,-41.2649082,173.2827919
OCEAN LODGE HOTEL,"33 BEACH ROAD
TAHUNANUI
NELSON 7001",Nelson,New Zealand,,-41.2830556,173.2472222
MALBAS NELSON,"131 BRIDGE STREET
NELSON CENTRAL
NELSON 7001",Nelson,New Zealand,,-41.2721024,173.2859769
POST BOY HOTEL,"50 GLOUCESTER STREET
NELSON CENTRAL
NELSON 7001",Nelson,New Zealand,,-41.27491,173.2777542
THE SANDS BREWERY BAR & KITCHEN,"SHOP 9 623 ROCKS ROAD
TAHUNANUI
NELSON 7001",Nelson,New Zealand,,-41.2805156,173.2503732
RATTLE & HUM,"141 BRIDGE STREET
NELSON CENTRAL
NELSON 7001",Nelson,New Zealand,,-41.2723614,173.2864918
Taylors Bar,"132-136 BRIDGE STREET
NELSON CENTRAL
NELSON 7001",Nelson,New Zealand,,-41.272736,173.2861849
623 IN THE CITY,"221 HARDY STREET
NELSON CENTRAL
NELSON 7001",Nelson,New Zealand,,-41.2741851,173.2850743
WAKATU HOTEL,"83 COLLINGWOOD STREET
NELSON CENTRAL
NELSON 7001",Nelson,New Zealand,,-41.2727165,173.2871704
The New Street Steakhouse,"58 COLLINGWOOD STREET
NELSON CENTRAL
NELSON 7001",Nelson,New Zealand,,-41.2716285,173.2868506
NEW PLYMOUTH CLUB,"53-57 GILL STREET
NEW PLYMOUTH CENTRAL
NEW PLYMOUTH 4310",Taranaki,New Zealand,,-39.0558333,174.0766667
COBB & CO NEW PLYMOUTH,"198 COURTENAY STREET
NEW PLYMOUTH CENTRAL
NEW PLYMOUTH 4310",Taranaki,New Zealand,,-39.0557269,174.0845402
THE MAYFAIR,"69 DEVON STREET WEST
NEW PLYMOUTH CENTRAL
NEW PLYMOUTH 4310",Taranaki,New Zealand,,-39.0584917,174.0723639